{
"type": "FeatureCollection",
"name": "geo_10_高校",
"crs": { "type": "name", "properties": { "name": "urn:ogc:def:crs:EPSG::6668" } },
"features": [
{ "type": "Feature", "properties": { "P29_001": "10201", "P29_002": "D110210000013", "P29_003": "16004", "P29_004": "群馬県立前橋高等学校", "P29_005": "群馬県前橋市下沖町321-1", "P29_006": "2", "P29_007": "0", "P29_008": "00", "P29_009": null }, "geometry": { "type": "Point", "coordinates": [ 139.096137996157353, 36.397163999933866 ] } },
{ "type": "Feature", "properties": { "P29_001": "10202", "P29_002": "D110210000022", "P29_003": "16004", "P29_004": "群馬県立高崎高等学校", "P29_005": "群馬県高崎市八千代町2-4-1", "P29_006": "2", "P29_007": "0", "P29_008": "00", "P29_009": null }, "geometry": { "type": "Point", "coordinates": [ 138.986928456544973, 36.31947164379644 ] } },
{ "type": "Feature", "properties": { "P29_001": "10203", "P29_002": "D110210000031", "P29_003": "16004", "P29_004": "群馬県立桐生高等学校", "P29_005": "群馬県桐生市美原町1-39", "P29_006": "2", "P29_007": "0", "P29_008": "00", "P29_009": null }, "geometry": { "type": "Point", "coordinates": [ 139.329663691619913, 36.409184310127351 ] } },
{ "type": "Feature", "properties": { "P29_001": "10205", "P29_002": "D110210000040", "P29_003": "16004", "P29_004": "群馬県立太田高等学校", "P29_005": "群馬県太田市西本町12-2", "P29_006": "2", "P29_007": "0", "P29_008": "00", "P29_009": null }, "geometry": { "type": "Point", "coordinates": [ 139.36622195243595, 36.293848594320281 ] } },
{ "type": "Feature", "properties": { "P29_001": "10206", "P29_002": "D110210000059", "P29_003": "16004", "P29_004": "群馬県立沼田高等学校", "P29_005": "群馬県沼田市西原新町1510", "P29_006": "2", "P29_007": "0", "P29_008": "00", "P29_009": null }, "geometry": { "type": "Point", "coordinates": [ 139.052464158304588, 36.646148512993044 ] } },
{ "type": "Feature", "properties": { "P29_001": "10208", "P29_002": "D110210000068", "P29_003": "16004", "P29_004": "群馬県立渋川高等学校", "P29_005": "群馬県渋川市渋川678-3", "P29_006": "2", "P29_007": "0", "P29_008": "00", "P29_009": null }, "geometry": { "type": "Point", "coordinates": [ 138.998151318863734, 36.501190578690647 ] } },
{ "type": "Feature", "properties": { "P29_001": "10207", "P29_002": "D110210000077", "P29_003": "16004", "P29_004": "群馬県立館林高等学校", "P29_005": "群馬県館林市富士原町1241", "P29_006": "2", "P29_007": "0", "P29_008": "00", "P29_009": null }, "geometry": { "type": "Point", "coordinates": [ 139.513373919869252, 36.241893778980163 ] } },
{ "type": "Feature", "properties": { "P29_001": "10202", "P29_002": "D110210000095", "P29_003": "16004", "P29_004": "群馬県立榛名高等学校", "P29_005": "群馬県高崎市下室田町953", "P29_006": "2", "P29_007": "0", "P29_008": "00", "P29_009": null }, "geometry": { "type": "Point", "coordinates": [ 138.883667662288076, 36.382611838046373 ] } },
{ "type": "Feature", "properties": { "P29_001": "10367", "P29_002": "D110210000102", "P29_003": "16004", "P29_004": "群馬県立万場高等学校", "P29_005": "群馬県多野郡神流町生利1549-1", "P29_006": "2", "P29_007": "0", "P29_008": "00", "P29_009": null }, "geometry": { "type": "Point", "coordinates": [ 138.926395778440565, 36.115685293538192 ] } },
{ "type": "Feature", "properties": { "P29_001": "10382", "P29_002": "D110210000111", "P29_003": "16004", "P29_004": "群馬県立下仁田高等学校", "P29_005": "群馬県甘楽郡下仁田町下仁田550-1", "P29_006": "2", "P29_007": "0", "P29_008": "00", "P29_009": null }, "geometry": { "type": "Point", "coordinates": [ 138.79382257087272, 36.210542096254166 ] } },
{ "type": "Feature", "properties": { "P29_001": "10211", "P29_002": "D110210000120", "P29_003": "16004", "P29_004": "群馬県立松井田高等学校", "P29_005": "群馬県安中市松井田町松井田803-1", "P29_006": "2", "P29_007": "0", "P29_008": "00", "P29_009": null }, "geometry": { "type": "Point", "coordinates": [ 138.804559620395963, 36.31395248638605 ] } },
{ "type": "Feature", "properties": { "P29_001": "10424", "P29_002": "D110210000139", "P29_003": "16004", "P29_004": "群馬県立長野原高等学校", "P29_005": "群馬県吾妻郡長野原町与喜屋21-1", "P29_006": "2", "P29_007": "0", "P29_008": "00", "P29_009": null }, "geometry": { "type": "Point", "coordinates": [ 138.631605042038586, 36.551452767692126 ] } },
{ "type": "Feature", "properties": { "P29_001": "10425", "P29_002": "D110210000148", "P29_003": "16004", "P29_004": "群馬県立嬬恋高等学校", "P29_005": "群馬県吾妻郡嬬恋村三原482-1", "P29_006": "2", "P29_007": "0", "P29_008": "00", "P29_009": null }, "geometry": { "type": "Point", "coordinates": [ 138.550970587169871, 36.535552432983316 ] } },
{ "type": "Feature", "properties": { "P29_001": "10206", "P29_002": "D110210000157", "P29_003": "16004", "P29_004": "群馬県立尾瀬高等学校", "P29_005": "群馬県沼田市利根町平川1406", "P29_006": "2", "P29_007": "0", "P29_008": "00", "P29_009": null }, "geometry": { "type": "Point", "coordinates": [ 139.22435180187685, 36.731150691273761 ] } },
{ "type": "Feature", "properties": { "P29_001": "10464", "P29_002": "D110210000166", "P29_003": "16004", "P29_004": "群馬県立玉村高等学校", "P29_005": "群馬県佐波郡玉村町与六分14", "P29_006": "2", "P29_007": "0", "P29_008": "00", "P29_009": null }, "geometry": { "type": "Point", "coordinates": [ 139.106194283897736, 36.305070852842228 ] } },
{ "type": "Feature", "properties": { "P29_001": "10212", "P29_002": "D110210000175", "P29_003": "16004", "P29_004": "群馬県立大間々高等学校", "P29_005": "群馬県みどり市大間々町桐原193-1", "P29_006": "2", "P29_007": "0", "P29_008": "00", "P29_009": null }, "geometry": { "type": "Point", "coordinates": [ 139.271498035807838, 36.434805379055277 ] } },
{ "type": "Feature", "properties": { "P29_001": "10521", "P29_002": "D110210000184", "P29_003": "16004", "P29_004": "群馬県立板倉高等学校", "P29_005": "群馬県邑楽郡板倉町板倉2406-2", "P29_006": "2", "P29_007": "0", "P29_008": "00", "P29_009": null }, "geometry": { "type": "Point", "coordinates": [ 139.605541146515577, 36.223399767537394 ] } },
{ "type": "Feature", "properties": { "P29_001": "10201", "P29_002": "D110210000193", "P29_003": "16004", "P29_004": "群馬県立前橋清陵高等学校", "P29_005": "群馬県前橋市文京町2-20-3", "P29_006": "2", "P29_007": "0", "P29_008": "00", "P29_009": null }, "geometry": { "type": "Point", "coordinates": [ 139.082619696368454, 36.37738672418444 ] } },
{ "type": "Feature", "properties": { "P29_001": "10202", "P29_002": "D110210000200", "P29_003": "16004", "P29_004": "群馬県立吉井高等学校", "P29_005": "群馬県高崎市吉井町馬庭1478-1", "P29_006": "2", "P29_007": "0", "P29_008": "00", "P29_009": null }, "geometry": { "type": "Point", "coordinates": [ 139.012587942684377, 36.260281283297246 ] } },
{ "type": "Feature", "properties": { "P29_001": "10201", "P29_002": "D110210000219", "P29_003": "16004", "P29_004": "群馬県立前橋女子高等学校", "P29_005": "群馬県前橋市紅雲町2-19-1", "P29_006": "2", "P29_007": "0", "P29_008": "00", "P29_009": null }, "geometry": { "type": "Point", "coordinates": [ 139.064970987320777, 36.384334137527695 ] } },
{ "type": "Feature", "properties": { "P29_001": "10202", "P29_002": "D110210000228", "P29_003": "16004", "P29_004": "群馬県立高崎女子高等学校", "P29_005": "群馬県高崎市稲荷町20", "P29_006": "2", "P29_007": "0", "P29_008": "00", "P29_009": null }, "geometry": { "type": "Point", "coordinates": [ 139.018068308406384, 36.338926090770968 ] } },
{ "type": "Feature", "properties": { "P29_001": "10204", "P29_002": "D110210000246", "P29_003": "16004", "P29_004": "群馬県立伊勢崎清明高等学校", "P29_005": "群馬県伊勢崎市今泉町2-331-6", "P29_006": "2", "P29_007": "0", "P29_008": "00", "P29_009": null }, "geometry": { "type": "Point", "coordinates": [ 139.195591296623348, 36.310368497267547 ] } },
{ "type": "Feature", "properties": { "P29_001": "10205", "P29_002": "D110210000255", "P29_003": "16004", "P29_004": "群馬県立太田女子高等学校", "P29_005": "群馬県太田市八幡町16-7", "P29_006": "2", "P29_007": "0", "P29_008": "00", "P29_009": null }, "geometry": { "type": "Point", "coordinates": [ 139.364450481221581, 36.298480172036456 ] } },
{ "type": "Feature", "properties": { "P29_001": "10206", "P29_002": "D110210000264", "P29_003": "16004", "P29_004": "群馬県立沼田女子高等学校", "P29_005": "群馬県沼田市東倉内町753-3", "P29_006": "2", "P29_007": "0", "P29_008": "00", "P29_009": null }, "geometry": { "type": "Point", "coordinates": [ 139.044517040827458, 36.647695404452747 ] } },
{ "type": "Feature", "properties": { "P29_001": "10207", "P29_002": "D110210000273", "P29_003": "16004", "P29_004": "群馬県立館林女子高等学校", "P29_005": "群馬県館林市尾曳町6-1", "P29_006": "2", "P29_007": "0", "P29_008": "00", "P29_009": null }, "geometry": { "type": "Point", "coordinates": [ 139.544059134897083, 36.245702444234936 ] } },
{ "type": "Feature", "properties": { "P29_001": "10208", "P29_002": "D110210000282", "P29_003": "16004", "P29_004": "群馬県立渋川女子高等学校", "P29_005": "群馬県渋川市渋川2684", "P29_006": "2", "P29_007": "0", "P29_008": "00", "P29_009": null }, "geometry": { "type": "Point", "coordinates": [ 138.99709326487087, 36.494963695839949 ] } },
{ "type": "Feature", "properties": { "P29_001": "10201", "P29_002": "D110210000291", "P29_003": "16004", "P29_004": "群馬県立前橋南高等学校", "P29_005": "群馬県前橋市亀里町1", "P29_006": "2", "P29_007": "0", "P29_008": "00", "P29_009": null }, "geometry": { "type": "Point", "coordinates": [ 139.083238906586189, 36.351496492588112 ] } },
{ "type": "Feature", "properties": { "P29_001": "10524", "P29_002": "D110210000308", "P29_003": "16004", "P29_004": "群馬県立西邑楽高等学校", "P29_005": "群馬県邑楽郡大泉町朝日2-3-1", "P29_006": "2", "P29_007": "0", "P29_008": "00", "P29_009": null }, "geometry": { "type": "Point", "coordinates": [ 139.428959245461499, 36.252606254348727 ] } },
{ "type": "Feature", "properties": { "P29_001": "10208", "P29_002": "D110210000317", "P29_003": "16004", "P29_004": "群馬県立渋川青翠高等学校", "P29_005": "群馬県渋川市渋川3912-1", "P29_006": "2", "P29_007": "0", "P29_008": "00", "P29_009": null }, "geometry": { "type": "Point", "coordinates": [ 138.981275379649588, 36.504814905346905 ] } },
{ "type": "Feature", "properties": { "P29_001": "10202", "P29_002": "D110210000326", "P29_003": "16004", "P29_004": "群馬県立高崎北高等学校", "P29_005": "群馬県高崎市井出町1080", "P29_006": "2", "P29_007": "0", "P29_008": "00", "P29_009": null }, "geometry": { "type": "Point", "coordinates": [ 138.985085343061456, 36.371589023839228 ] } },
{ "type": "Feature", "properties": { "P29_001": "10201", "P29_002": "D110210000335", "P29_003": "16004", "P29_004": "群馬県立前橋東高等学校", "P29_005": "群馬県前橋市江木町800", "P29_006": "2", "P29_007": "0", "P29_008": "00", "P29_009": null }, "geometry": { "type": "Point", "coordinates": [ 139.137205399151384, 36.376895076467406 ] } },
{ "type": "Feature", "properties": { "P29_001": "10201", "P29_002": "D110210000353", "P29_003": "16004", "P29_004": "群馬県立前橋西高等学校", "P29_005": "群馬県前橋市清野町180", "P29_006": "2", "P29_007": "0", "P29_008": "00", "P29_009": null }, "geometry": { "type": "Point", "coordinates": [ 139.007670203390461, 36.418970719257103 ] } },
{ "type": "Feature", "properties": { "P29_001": "10205", "P29_002": "D110210000362", "P29_003": "16004", "P29_004": "群馬県立太田東高等学校", "P29_005": "群馬県太田市台之郷町448", "P29_006": "2", "P29_007": "0", "P29_008": "00", "P29_009": null }, "geometry": { "type": "Point", "coordinates": [ 139.413039185826221, 36.307210722825765 ] } },
{ "type": "Feature", "properties": { "P29_001": "10202", "P29_002": "D110210000371", "P29_003": "16004", "P29_004": "群馬県立高崎東高等学校", "P29_005": "群馬県高崎市元島名町1510", "P29_006": "2", "P29_007": "0", "P29_008": "00", "P29_009": null }, "geometry": { "type": "Point", "coordinates": [ 139.065921101489153, 36.32365678127632 ] } },
{ "type": "Feature", "properties": { "P29_001": "10209", "P29_002": "D110210000380", "P29_003": "16004", "P29_004": "群馬県立藤岡中央高等学校", "P29_005": "群馬県藤岡市中栗須909", "P29_006": "2", "P29_007": "0", "P29_008": "00", "P29_009": null }, "geometry": { "type": "Point", "coordinates": [ 139.07980936726878, 36.26857184142127 ] } },
{ "type": "Feature", "properties": { "P29_001": "10204", "P29_002": "D110210000399", "P29_003": "16004", "P29_004": "群馬県立伊勢崎高等学校", "P29_005": "群馬県伊勢崎市南千木町1670", "P29_006": "2", "P29_007": "0", "P29_008": "00", "P29_009": null }, "geometry": { "type": "Point", "coordinates": [ 139.216384441796521, 36.296949302279401 ] } },
{ "type": "Feature", "properties": { "P29_001": "10205", "P29_002": "D110210000406", "P29_003": "16004", "P29_004": "群馬県立太田フレックス高等学校", "P29_005": "群馬県太田市下田島町1243-1", "P29_006": "2", "P29_007": "0", "P29_008": "00", "P29_009": null }, "geometry": { "type": "Point", "coordinates": [ 139.316103951818008, 36.265352152626527 ] } },
{ "type": "Feature", "properties": { "P29_001": "10211", "P29_002": "D110210000415", "P29_003": "16004", "P29_004": "群馬県立安中総合学園高等学校", "P29_005": "群馬県安中市安中1-2-8", "P29_006": "2", "P29_007": "0", "P29_008": "00", "P29_009": null }, "geometry": { "type": "Point", "coordinates": [ 138.881544427619929, 36.321270172847484 ] } },
{ "type": "Feature", "properties": { "P29_001": "10201", "P29_002": "D110210000424", "P29_003": "16004", "P29_004": "群馬県立勢多農林高等学校", "P29_005": "群馬県前橋市日吉町2-25-1", "P29_006": "2", "P29_007": "0", "P29_008": "00", "P29_009": null }, "geometry": { "type": "Point", "coordinates": [ 139.082291646199621, 36.395299157087479 ] } },
{ "type": "Feature", "properties": { "P29_001": "10204", "P29_002": "D110210000433", "P29_003": "16004", "P29_004": "群馬県立伊勢崎興陽高等学校", "P29_005": "群馬県伊勢崎市上泉町212", "P29_006": "2", "P29_007": "0", "P29_008": "00", "P29_009": null }, "geometry": { "type": "Point", "coordinates": [ 139.191673563858473, 36.31389455673775 ] } },
{ "type": "Feature", "properties": { "P29_001": "10206", "P29_002": "D110210000442", "P29_003": "16004", "P29_004": "群馬県立利根実業高等学校", "P29_005": "群馬県沼田市栄町165-2", "P29_006": "2", "P29_007": "0", "P29_008": "00", "P29_009": null }, "geometry": { "type": "Point", "coordinates": [ 139.046450944807134, 36.634576965069364 ] } },
{ "type": "Feature", "properties": { "P29_001": "10210", "P29_002": "D110210000451", "P29_003": "16004", "P29_004": "群馬県立富岡実業高等学校", "P29_005": "群馬県富岡市富岡451", "P29_006": "2", "P29_007": "0", "P29_008": "00", "P29_009": null }, "geometry": { "type": "Point", "coordinates": [ 138.896694501520528, 36.25097870182546 ] } },
{ "type": "Feature", "properties": { "P29_001": "10205", "P29_002": "D110210000460", "P29_003": "16004", "P29_004": "群馬県立新田暁高等学校", "P29_005": "群馬県太田市新田大根町999", "P29_006": "2", "P29_007": "0", "P29_008": "00", "P29_009": null }, "geometry": { "type": "Point", "coordinates": [ 139.279842848376035, 36.316424100695151 ] } },
{ "type": "Feature", "properties": { "P29_001": "10524", "P29_002": "D110210000479", "P29_003": "16004", "P29_004": "群馬県立大泉高等学校", "P29_005": "群馬県邑楽郡大泉町北小泉2-16-1", "P29_006": "2", "P29_007": "0", "P29_008": "00", "P29_009": null }, "geometry": { "type": "Point", "coordinates": [ 139.419790493290463, 36.269451692148841 ] } },
{ "type": "Feature", "properties": { "P29_001": "10209", "P29_002": "D110210000488", "P29_003": "16004", "P29_004": "群馬県立藤岡北高等学校", "P29_005": "群馬県藤岡市篠塚90", "P29_006": "2", "P29_007": "0", "P29_008": "00", "P29_009": null }, "geometry": { "type": "Point", "coordinates": [ 139.066433171999648, 36.25802827073116 ] } },
{ "type": "Feature", "properties": { "P29_001": "10201", "P29_002": "D110210000497", "P29_003": "16004", "P29_004": "群馬県立前橋工業高等学校", "P29_005": "群馬県前橋市石関町137-1", "P29_006": "2", "P29_007": "0", "P29_008": "00", "P29_009": null }, "geometry": { "type": "Point", "coordinates": [ 139.118553652205009, 36.389113991978256 ] } },
{ "type": "Feature", "properties": { "P29_001": "10202", "P29_002": "D110210000503", "P29_003": "16004", "P29_004": "群馬県立高崎工業高等学校", "P29_005": "群馬県高崎市江木町700", "P29_006": "2", "P29_007": "0", "P29_008": "00", "P29_009": null }, "geometry": { "type": "Point", "coordinates": [ 139.017599769562224, 36.336453514451165 ] } },
{ "type": "Feature", "properties": { "P29_001": "10203", "P29_002": "D110210000512", "P29_003": "16004", "P29_004": "群馬県立桐生工業高等学校", "P29_005": "群馬県桐生市西久方町1-1-41", "P29_006": "2", "P29_007": "0", "P29_008": "00", "P29_009": null }, "geometry": { "type": "Point", "coordinates": [ 139.345414793954745, 36.422600926773235 ] } },
{ "type": "Feature", "properties": { "P29_001": "10204", "P29_002": "D110210000521", "P29_003": "16004", "P29_004": "群馬県立伊勢崎工業高等学校", "P29_005": "群馬県伊勢崎市中央町3-8", "P29_006": "2", "P29_007": "0", "P29_008": "00", "P29_009": null }, "geometry": { "type": "Point", "coordinates": [ 139.202211539359695, 36.321869416930639 ] } },
{ "type": "Feature", "properties": { "P29_001": "10205", "P29_002": "D110210000530", "P29_003": "16004", "P29_004": "群馬県立太田工業高等学校", "P29_005": "群馬県太田市茂木町380", "P29_006": "2", "P29_007": "0", "P29_008": "00", "P29_009": null }, "geometry": { "type": "Point", "coordinates": [ 139.417301260301429, 36.295994306837898 ] } },
{ "type": "Feature", "properties": { "P29_001": "10209", "P29_002": "D110210000549", "P29_003": "16004", "P29_004": "群馬県立藤岡工業高等学校", "P29_005": "群馬県藤岡市下戸塚47-2", "P29_006": "2", "P29_007": "0", "P29_008": "00", "P29_009": null }, "geometry": { "type": "Point", "coordinates": [ 139.089376604403327, 36.255758975331815 ] } },
{ "type": "Feature", "properties": { "P29_001": "10201", "P29_002": "D110210000558", "P29_003": "16004", "P29_004": "群馬県立前橋商業高等学校", "P29_005": "群馬県前橋市南町4-35-1", "P29_006": "2", "P29_007": "0", "P29_008": "00", "P29_009": null }, "geometry": { "type": "Point", "coordinates": [ 139.074248320202742, 36.376348540532646 ] } },
{ "type": "Feature", "properties": { "P29_001": "10202", "P29_002": "D110210000567", "P29_003": "16004", "P29_004": "群馬県立高崎商業高等学校", "P29_005": "群馬県高崎市東貝沢町3-4", "P29_006": "2", "P29_007": "0", "P29_008": "00", "P29_009": null }, "geometry": { "type": "Point", "coordinates": [ 139.034033414306379, 36.34770792232397 ] } },
{ "type": "Feature", "properties": { "P29_001": "10204", "P29_002": "D110210000576", "P29_003": "16004", "P29_004": "群馬県立伊勢崎商業高等学校", "P29_005": "群馬県伊勢崎市波志江町1116", "P29_006": "2", "P29_007": "0", "P29_008": "00", "P29_009": null }, "geometry": { "type": "Point", "coordinates": [ 139.181524439083091, 36.34046739330153 ] } },
{ "type": "Feature", "properties": { "P29_001": "10522", "P29_002": "D110210000585", "P29_003": "16004", "P29_004": "群馬県立館林商工高等学校", "P29_005": "群馬県邑楽郡明和町南大島660", "P29_006": "2", "P29_007": "0", "P29_008": "00", "P29_009": null }, "geometry": { "type": "Point", "coordinates": [ 139.535313681848294, 36.215770422468168 ] } },
{ "type": "Feature", "properties": { "P29_001": "10210", "P29_002": "D110210000594", "P29_003": "16004", "P29_004": "群馬県立富岡高等学校", "P29_005": "群馬県富岡市七日市1425-1", "P29_006": "2", "P29_007": "0", "P29_008": "00", "P29_009": null }, "geometry": { "type": "Point", "coordinates": [ 138.874207378903947, 36.256470368743308 ] } },
{ "type": "Feature", "properties": { "P29_001": "10421", "P29_002": "D110210000601", "P29_003": "16004", "P29_004": "群馬県立吾妻中央高等学校", "P29_005": "群馬県吾妻郡中之条町大字中之条町1303", "P29_006": "2", "P29_007": "0", "P29_008": "00", "P29_009": null }, "geometry": { "type": "Point", "coordinates": [ 138.84763476806603, 36.591819000677226 ] } },
{ "type": "Feature", "properties": { "P29_001": "10201", "P29_002": "D110210000610", "P29_003": "16004", "P29_004": "前橋市立前橋高等学校", "P29_005": "群馬県前橋市上細井町2211-3", "P29_006": "3", "P29_007": "0", "P29_008": "00", "P29_009": null }, "geometry": { "type": "Point", "coordinates": [ 139.084845091402201, 36.416025489500875 ] } },
{ "type": "Feature", "properties": { "P29_001": "10203", "P29_002": "D110210000629", "P29_003": "16004", "P29_004": "桐生市立商業高等学校", "P29_005": "群馬県桐生市清瀬町6-1", "P29_006": "3", "P29_007": "0", "P29_008": "00", "P29_009": null }, "geometry": { "type": "Point", "coordinates": [ 139.325193280850698, 36.408237177767617 ] } },
{ "type": "Feature", "properties": { "P29_001": "10205", "P29_002": "D110210000638", "P29_003": "16004", "P29_004": "太田市立太田高等学校", "P29_005": "群馬県太田市細谷町1510", "P29_006": "3", "P29_007": "0", "P29_008": "00", "P29_009": null }, "geometry": { "type": "Point", "coordinates": [ 139.353055010058029, 36.281580447176651 ] } },
{ "type": "Feature", "properties": { "P29_001": "10208", "P29_002": "D110210000647", "P29_003": "16004", "P29_004": "群馬県立渋川工業高等学校", "P29_005": "群馬県渋川市渋川8-1", "P29_006": "2", "P29_007": "0", "P29_008": "00", "P29_009": null }, "geometry": { "type": "Point", "coordinates": [ 138.991088054630268, 36.502471243993142 ] } },
{ "type": "Feature", "properties": { "P29_001": "10449", "P29_002": "D110210000656", "P29_003": "16004", "P29_004": "利根沼田学校組合立利根商業高等学校", "P29_005": "群馬県利根郡みなかみ町月夜野591", "P29_006": "3", "P29_007": "0", "P29_008": "00", "P29_009": null }, "geometry": { "type": "Point", "coordinates": [ 138.987713210195892, 36.685253401683511 ] } },
{ "type": "Feature", "properties": { "P29_001": "10202", "P29_002": "D110210000665", "P29_003": "16004", "P29_004": "高崎市立高崎経済大学附属高等学校", "P29_005": "群馬県高崎市浜川町1650-1", "P29_006": "3", "P29_007": "0", "P29_008": "00", "P29_009": null }, "geometry": { "type": "Point", "coordinates": [ 138.990776566493338, 36.361899500137326 ] } },
{ "type": "Feature", "properties": { "P29_001": "10203", "P29_002": "D110210000674", "P29_003": "16004", "P29_004": "群馬県立桐生清桜高等学校", "P29_005": "群馬県桐生市相生町3-551-1", "P29_006": "2", "P29_007": "0", "P29_008": "00", "P29_009": null }, "geometry": { "type": "Point", "coordinates": [ 139.302116113705665, 36.425335046855089 ] } },
{ "type": "Feature", "properties": { "P29_001": "10201", "P29_002": "D110310000011", "P29_003": "16004", "P29_004": "共愛学園高等学校", "P29_005": "群馬県前橋市小屋原町1115-3", "P29_006": "4", "P29_007": "0", "P29_008": "00", "P29_009": null }, "geometry": { "type": "Point", "coordinates": [ 139.140871419065348, 36.359154186971544 ] } },
{ "type": "Feature", "properties": { "P29_001": "10201", "P29_002": "D110310000020", "P29_003": "16004", "P29_004": "前橋育英高等学校", "P29_005": "群馬県前橋市朝日が丘町13", "P29_006": "4", "P29_007": "0", "P29_008": "00", "P29_009": null }, "geometry": { "type": "Point", "coordinates": [ 139.064607779477456, 36.369301564715116 ] } },
{ "type": "Feature", "properties": { "P29_001": "10202", "P29_002": "D110310000039", "P29_003": "16004", "P29_004": "高崎商科大学附属高等学校", "P29_005": "群馬県高崎市大橋町237-1", "P29_006": "4", "P29_007": "0", "P29_008": "00", "P29_009": null }, "geometry": { "type": "Point", "coordinates": [ 138.998926492535588, 36.338015790749623 ] } },
{ "type": "Feature", "properties": { "P29_001": "10202", "P29_002": "D110310000048", "P29_003": "16004", "P29_004": "東京農業大学第二高等学校", "P29_005": "群馬県高崎市石原町3430", "P29_006": "4", "P29_007": "0", "P29_008": "00", "P29_009": null }, "geometry": { "type": "Point", "coordinates": [ 139.000477179108117, 36.301668469021543 ] } },
{ "type": "Feature", "properties": { "P29_001": "10203", "P29_002": "D110310000057", "P29_003": "16004", "P29_004": "桐生第一高等学校", "P29_005": "群馬県桐生市小曽根町1-5", "P29_006": "4", "P29_007": "0", "P29_008": "00", "P29_009": null }, "geometry": { "type": "Point", "coordinates": [ 139.337424511956073, 36.415442710151595 ] } },
{ "type": "Feature", "properties": { "P29_001": "10203", "P29_002": "D110310000066", "P29_003": "16004", "P29_004": "樹徳高等学校", "P29_005": "群馬県桐生市錦町1-1-20", "P29_006": "4", "P29_007": "0", "P29_008": "00", "P29_009": null }, "geometry": { "type": "Point", "coordinates": [ 139.334600183656931, 36.407724937688855 ] } },
{ "type": "Feature", "properties": { "P29_001": "10205", "P29_002": "D110310000075", "P29_003": "16004", "P29_004": "常磐高等学校", "P29_005": "群馬県太田市飯塚町141-1", "P29_006": "4", "P29_007": "0", "P29_008": "00", "P29_009": null }, "geometry": { "type": "Point", "coordinates": [ 139.381625765812117, 36.279506818890262 ] } },
{ "type": "Feature", "properties": { "P29_001": "10207", "P29_002": "D110310000084", "P29_003": "16004", "P29_004": "関東学園大学附属高等学校", "P29_005": "群馬県館林市大谷町625", "P29_006": "4", "P29_007": "0", "P29_008": "00", "P29_009": null }, "geometry": { "type": "Point", "coordinates": [ 139.498957840530949, 36.245114299808186 ] } },
{ "type": "Feature", "properties": { "P29_001": "10211", "P29_002": "D110310000093", "P29_003": "16004", "P29_004": "新島学園高等学校", "P29_005": "群馬県安中市安中3702", "P29_006": "4", "P29_007": "0", "P29_008": "00", "P29_009": null }, "geometry": { "type": "Point", "coordinates": [ 138.901035184167966, 36.32550219139101 ] } },
{ "type": "Feature", "properties": { "P29_001": "10202", "P29_002": "D110310000100", "P29_003": "16004", "P29_004": "高崎健康福祉大学高崎高等学校", "P29_005": "群馬県高崎市中大類町531", "P29_006": "4", "P29_007": "0", "P29_008": "00", "P29_009": null }, "geometry": { "type": "Point", "coordinates": [ 139.060227438033735, 36.323021433360864 ] } },
{ "type": "Feature", "properties": { "P29_001": "10421", "P29_002": "D110310000119", "P29_003": "16004", "P29_004": "白根開善学校高等部", "P29_005": "群馬県吾妻郡中之条町大字入山1-1", "P29_006": "4", "P29_007": "0", "P29_008": "00", "P29_009": null }, "geometry": { "type": "Point", "coordinates": [ 138.612543618372882, 36.664098265063068 ] } },
{ "type": "Feature", "properties": { "P29_001": "10202", "P29_002": "D110310000128", "P29_003": "16004", "P29_004": "明和県央高等学校", "P29_005": "群馬県高崎市金古町28", "P29_006": "4", "P29_007": "0", "P29_008": "00", "P29_009": null }, "geometry": { "type": "Point", "coordinates": [ 139.005333132461374, 36.404511030051182 ] } },
{ "type": "Feature", "properties": { "P29_001": "10205", "P29_002": "D110310000137", "P29_003": "16004", "P29_004": "ぐんま国際アカデミー高等部", "P29_005": "群馬県太田市内ヶ島町1361-4", "P29_006": "4", "P29_007": "0", "P29_008": "00", "P29_009": null }, "geometry": { "type": "Point", "coordinates": [ 139.396929556188127, 36.291766590863951 ] } }
]
}
