{
"type": "FeatureCollection",
"name": "geo_10_小規模多機能型居宅介護",
"crs": { "type": "name", "properties": { "name": "urn:ogc:def:crs:OGC:1.3:CRS84" } },
"features": [
{ "type": "Feature", "properties": { "内容": "小規模多機能の家おぎくぼんち【小規模多機能型居宅介護】群馬県前橋市荻窪町１２６６番地１０", "url": "https://www.kaigokensaku.mhlw.go.jp/10/index.php?action_kouhyou_detail_004_kani=true&JigyosyoCd=1090100080-00&ServiceCd=730&Type=search", "url2": "https://kk-csm.jp/" }, "geometry": { "type": "Point", "coordinates": [ 139.136129399999959, 36.413022 ] } },
{ "type": "Feature", "properties": { "内容": "小規模多機能あったかほーむ前橋下小出【小規模多機能型居宅介護】群馬県前橋市下小出町2丁目30-18小規模多機能あったかほーむ前橋下小出", "url": "https://www.kaigokensaku.mhlw.go.jp/10/index.php?action_kouhyou_detail_004_kani=true&JigyosyoCd=1090100627-00&ServiceCd=730&Type=search", "url2": "http://www.fb-kaigo.co.jp" }, "geometry": { "type": "Point", "coordinates": [ 139.064796399999977, 36.4123561 ] } },
{ "type": "Feature", "properties": { "内容": "小規模多機能ホーム　春らんらん【小規模多機能型居宅介護】群馬県前橋市荒牧町2丁目36番地1", "url": "https://www.kaigokensaku.mhlw.go.jp/10/index.php?action_kouhyou_detail_004_kani=true&JigyosyoCd=1090100239-00&ServiceCd=730&Type=search", "url2": "http://www.sousyunkan.or.jp" }, "geometry": { "type": "Point", "coordinates": [ 139.055217984686237, 36.426308309798927 ] } },
{ "type": "Feature", "properties": { "内容": "小規模多機能ホームみつまた【小規模多機能型居宅介護】群馬県前橋市三俣町一丁目5番地17", "url": "https://www.kaigokensaku.mhlw.go.jp/10/index.php?action_kouhyou_detail_004_kani=true&JigyosyoCd=1090100544-00&ServiceCd=730&Type=search", "url2": "http://www.sanwakai.com" }, "geometry": { "type": "Point", "coordinates": [ 139.084337099999971, 36.3952785 ] } },
{ "type": "Feature", "properties": { "内容": "若宮こぐま舘【小規模多機能型居宅介護】群馬県前橋市若宮町四丁目１６－１", "url": "https://www.kaigokensaku.mhlw.go.jp/10/index.php?action_kouhyou_detail_004_kani=true&JigyosyoCd=1090100460-00&ServiceCd=730&Type=search", "url2": "http://www.gunken.org" }, "geometry": { "type": "Point", "coordinates": [ 139.071965563754247, 36.406636517418285 ] } },
{ "type": "Feature", "properties": { "内容": "小規模多機能ホーム　しょうわ【小規模多機能型居宅介護】群馬県前橋市昭和町二丁目１番２号", "url": "https://www.kaigokensaku.mhlw.go.jp/10/index.php?action_kouhyou_detail_004_kani=true&JigyosyoCd=1090100361-00&ServiceCd=730&Type=search", "url2": "http://ｗｗｗ.sanwakai.com" }, "geometry": { "type": "Point", "coordinates": [ 136.924392799999964, 34.8919645 ] } },
{ "type": "Feature", "properties": { "内容": "小規模多機能の家　じゃんけんぽん大利根前橋【小規模多機能型居宅介護】群馬県前橋市上新田町　881", "url": "https://www.kaigokensaku.mhlw.go.jp/10/index.php?action_kouhyou_detail_004_kani=true&JigyosyoCd=1090100270-00&ServiceCd=730&Type=search", "url2": "http://www.jankenpon.jp" }, "geometry": { "type": "Point", "coordinates": [ 139.064875900000061, 36.3660737 ] } },
{ "type": "Feature", "properties": { "内容": "小規模多機能居宅ホームあじさいでんでんタウン【小規模多機能型居宅介護】群馬県前橋市川曲町41番地1", "url": "https://www.kaigokensaku.mhlw.go.jp/10/index.php?action_kouhyou_detail_004_kani=true&JigyosyoCd=1090100494-00&ServiceCd=730&Type=search", "url2": "http://www.ajisaien.jp" }, "geometry": { "type": "Point", "coordinates": [ 139.048149900663702, 36.353239133454203 ] } },
{ "type": "Feature", "properties": { "内容": "小規模多機能型居宅介護　総社の杜【小規模多機能型居宅介護】群馬県前橋市大渡町一丁目11番地8", "url": "https://www.kaigokensaku.mhlw.go.jp/10/index.php?action_kouhyou_detail_004_kani=true&JigyosyoCd=1090100528-00&ServiceCd=730&Type=search", "url2": "http://so-jamori.com/" }, "geometry": { "type": "Point", "coordinates": [ 139.050854, 36.3958554 ] } },
{ "type": "Feature", "properties": { "内容": "サテライト型小規模多機能　樹の花やまぼうし【小規模多機能型居宅介護】群馬県前橋市大渡町一丁目14番地12", "url": "https://www.kaigokensaku.mhlw.go.jp/10/index.php?action_kouhyou_detail_004_kani=true&JigyosyoCd=1090100478-00&ServiceCd=730&Type=search", "url2": "http://soja-mori.com/index.php?id=40" }, "geometry": { "type": "Point", "coordinates": [ 139.052398671163928, 36.396663700000083 ] } },
{ "type": "Feature", "properties": { "内容": "ＪＡ前橋市小規模多機能ホーム上陽【小規模多機能型居宅介護】群馬県前橋市中内町40-4", "url": "https://www.kaigokensaku.mhlw.go.jp/10/index.php?action_kouhyou_detail_004_kani=true&JigyosyoCd=1090100304-00&ServiceCd=730&Type=search", "url2": null }, "geometry": { "type": "Point", "coordinates": [ 139.120185061376986, 36.345446583265215 ] } },
{ "type": "Feature", "properties": { "内容": "小規模多機能型居宅介護ウエルスタイル朝倉【小規模多機能型居宅介護】群馬県前橋市朝倉町894－2", "url": "https://www.kaigokensaku.mhlw.go.jp/10/index.php?action_kouhyou_detail_004_kani=true&JigyosyoCd=1090100676-00&ServiceCd=730&Type=search", "url2": null }, "geometry": { "type": "Point", "coordinates": [ 139.084135966109017, 36.367328615049992 ] } },
{ "type": "Feature", "properties": { "内容": "小規模多機能居宅介護芳賀のうさぎ【小規模多機能型居宅介護】群馬県前橋市鳥取町780-1", "url": "https://www.kaigokensaku.mhlw.go.jp/10/index.php?action_kouhyou_detail_004_kani=true&JigyosyoCd=1090100791-00&ServiceCd=730&Type=search", "url2": "https//www.kashinokai-usagi.jp/" }, "geometry": { "type": "Point", "coordinates": [ 139.110774848857147, 36.424025874975335 ] } },
{ "type": "Feature", "properties": { "内容": "小規模多機能ホームすずかけの家【小規模多機能型居宅介護】群馬県前橋市天川大島町１４４１番地", "url": "https://www.kaigokensaku.mhlw.go.jp/10/index.php?action_kouhyou_detail_004_kani=true&JigyosyoCd=1090100189-00&ServiceCd=730&Type=search", "url2": "https://sites.google.com/view/suzukakenoie" }, "geometry": { "type": "Point", "coordinates": [ 139.108562300000017, 36.3675714 ] } },
{ "type": "Feature", "properties": { "内容": "小規模多機能ホーム　朱咲の家【小規模多機能型居宅介護】群馬県前橋市南町1-12-7", "url": "https://www.kaigokensaku.mhlw.go.jp/10/index.php?action_kouhyou_detail_004_kani=true&JigyosyoCd=1090100155-00&ServiceCd=730&Type=search", "url2": "http://www.sousyunkan.or.jp" }, "geometry": { "type": "Point", "coordinates": [ 139.066264942327848, 36.382384525200976 ] } },
{ "type": "Feature", "properties": { "内容": "小規模多機能　あづま【小規模多機能型居宅介護】群馬県前橋市箱田町206-1", "url": "https://www.kaigokensaku.mhlw.go.jp/10/index.php?action_kouhyou_detail_004_kani=true&JigyosyoCd=1090100296-00&ServiceCd=730&Type=search", "url2": "http://www.care-group.co.jp/" }, "geometry": { "type": "Point", "coordinates": [ 139.046685700000012, 36.3701591 ] } },
{ "type": "Feature", "properties": { "内容": "小規模多機能ホーム　星辰の家【小規模多機能型居宅介護】群馬県前橋市富士見町時沢703-1", "url": "https://www.kaigokensaku.mhlw.go.jp/10/index.php?action_kouhyou_detail_004_kani=true&JigyosyoCd=1092000015-00&ServiceCd=730&Type=search", "url2": "http://www.sousyunkan.or.jp/28/" }, "geometry": { "type": "Point", "coordinates": [ 139.086398799999984, 36.4328398 ] } },
{ "type": "Feature", "properties": { "内容": "小規模多機能型居宅介護ふれあいの家六供【小規模多機能型居宅介護】群馬県前橋市六供町5-11-14", "url": "https://www.kaigokensaku.mhlw.go.jp/10/index.php?action_kouhyou_detail_004_kani=true&JigyosyoCd=1090100247-00&ServiceCd=730&Type=search", "url2": "http://www.kyouritsu.org/kaigojigyo.htm" }, "geometry": { "type": "Point", "coordinates": [ 139.08084930555728, 36.367283307834001 ] } },
{ "type": "Feature", "properties": { "内容": "小規模多機能型居宅介護ウェルスタイル笂井【小規模多機能型居宅介護】群馬県前橋市笂井町16-1", "url": "https://www.kaigokensaku.mhlw.go.jp/10/index.php?action_kouhyou_detail_004_kani=true&JigyosyoCd=1090100999-00&ServiceCd=730&Type=search", "url2": "https://www.frontier-ph.com/" }, "geometry": { "type": "Point", "coordinates": [ 139.138800417196649, 36.371629741913523 ] } },
{ "type": "Feature", "properties": { "内容": "小規模多機能の家じゃんけんぽん国府【小規模多機能型居宅介護】群馬県高崎市引間町2-2", "url": "https://www.kaigokensaku.mhlw.go.jp/10/index.php?action_kouhyou_detail_004_kani=true&JigyosyoCd=1090200104-00&ServiceCd=730&Type=search", "url2": "http://www.jankenpon.jp/stk/" }, "geometry": { "type": "Point", "coordinates": [ 139.018890400000032, 36.3905469 ] } },
{ "type": "Feature", "properties": { "内容": "ケアサポートセンターようざん貝沢【小規模多機能型居宅介護】群馬県高崎市貝沢町１４９２－１", "url": "https://www.kaigokensaku.mhlw.go.jp/10/index.php?action_kouhyou_detail_004_kani=true&JigyosyoCd=1090200252-00&ServiceCd=730&Type=search", "url2": "http://youzan.jp/" }, "geometry": { "type": "Point", "coordinates": [ 139.0271133, 36.3444998 ] } },
{ "type": "Feature", "properties": { "内容": "小規模多機能型居宅介護事業所・マルチケア【小規模多機能型居宅介護】群馬県高崎市吉井町吉井４１８－１", "url": "https://www.kaigokensaku.mhlw.go.jp/10/index.php?action_kouhyou_detail_004_kani=true&JigyosyoCd=1092300019-00&ServiceCd=730&Type=search", "url2": "https://www.puchi-care.jp" }, "geometry": { "type": "Point", "coordinates": [ 138.9839541, 36.2569641 ] } },
{ "type": "Feature", "properties": { "内容": "ケアサポートセンターようざん栗崎【小規模多機能型居宅介護】群馬県高崎市栗崎町１４１－１", "url": "https://www.kaigokensaku.mhlw.go.jp/10/index.php?action_kouhyou_detail_004_kani=true&JigyosyoCd=1090200153-00&ServiceCd=730&Type=search", "url2": "http://youzan.jp/" }, "geometry": { "type": "Point", "coordinates": [ 139.0639582, 36.3094496 ] } },
{ "type": "Feature", "properties": { "内容": "小規模多機能ホームキートス南八幡【小規模多機能型居宅介護】群馬県高崎市山名町802-1小規模多機能・グループホームキートス南八幡", "url": "https://www.kaigokensaku.mhlw.go.jp/10/index.php?action_kouhyou_detail_004_kani=true&JigyosyoCd=1090201425-00&ServiceCd=730&Type=search", "url2": "https://www.keikokai.or.jp/" }, "geometry": { "type": "Point", "coordinates": [ 139.0408584, 36.2726687 ] } },
{ "type": "Feature", "properties": { "内容": "家族【小規模多機能型居宅介護】群馬県高崎市寺尾町９１３－１", "url": "https://www.kaigokensaku.mhlw.go.jp/10/index.php?action_kouhyou_detail_004_kani=true&JigyosyoCd=1090200963-00&ServiceCd=730&Type=search", "url2": "http://www.npo-hatofuru.or.jp" }, "geometry": { "type": "Point", "coordinates": [ 139.017939375570222, 36.294812802719079 ] } },
{ "type": "Feature", "properties": { "内容": "ケアサポートセンターようざん大類【小規模多機能型居宅介護】群馬県高崎市柴崎町１１６０－１ケアサポートセンターようざん大類", "url": "https://www.kaigokensaku.mhlw.go.jp/10/index.php?action_kouhyou_detail_004_kani=true&JigyosyoCd=1090200914-00&ServiceCd=730&Type=search", "url2": "youzan.jp" }, "geometry": { "type": "Point", "coordinates": [ 139.0472843, 36.322071 ] } },
{ "type": "Feature", "properties": { "内容": "小規模多機能ホームひねもす【小規模多機能型居宅介護】群馬県高崎市宿横手町30番地2", "url": "https://www.kaigokensaku.mhlw.go.jp/10/index.php?action_kouhyou_detail_004_kani=true&JigyosyoCd=1090200773-00&ServiceCd=730&Type=search", "url2": null }, "geometry": { "type": "Point", "coordinates": [ 139.072818275996383, 36.326576312705683 ] } },
{ "type": "Feature", "properties": { "内容": "ケアサポートセンターようざん小塙【小規模多機能型居宅介護】群馬県高崎市上小塙町１０５２", "url": "https://www.kaigokensaku.mhlw.go.jp/10/index.php?action_kouhyou_detail_004_kani=true&JigyosyoCd=1090200674-00&ServiceCd=730&Type=search", "url2": "http://www.youzan.jp" }, "geometry": { "type": "Point", "coordinates": [ 138.983073992620774, 36.353134146818725 ] } },
{ "type": "Feature", "properties": { "内容": "ケアサポートセンターようざん中居【小規模多機能型居宅介護】群馬県高崎市上中居町557-2", "url": "https://www.kaigokensaku.mhlw.go.jp/10/index.php?action_kouhyou_detail_004_kani=true&JigyosyoCd=1090200484-00&ServiceCd=730&Type=search", "url2": "http://www.youzan.jp/" }, "geometry": { "type": "Point", "coordinates": [ 139.031547100000012, 36.3130236 ] } },
{ "type": "Feature", "properties": { "内容": "ケアサポートセンターようざん並榎【小規模多機能型居宅介護】群馬県高崎市上並榎町１１８０", "url": "https://www.kaigokensaku.mhlw.go.jp/10/index.php?action_kouhyou_detail_004_kani=true&JigyosyoCd=1090200039-00&ServiceCd=730&Type=search", "url2": "http://www.youzan.jp/" }, "geometry": { "type": "Point", "coordinates": [ 138.982994100000042, 36.3422904 ] } },
{ "type": "Feature", "properties": { "内容": "ケアサポートセンター　ようざん【小規模多機能型居宅介護】群馬県高崎市上並榎1180", "url": "https://www.kaigokensaku.mhlw.go.jp/10/index.php?action_kouhyou_detail_004_kani=true&JigyosyoCd=1090200765-00&ServiceCd=730&Type=search", "url2": "https://www.youzan.jp" }, "geometry": { "type": "Point", "coordinates": [ 138.9830699, 36.3422591 ] } },
{ "type": "Feature", "properties": { "内容": "小規模多機能プレイスオリジン【小規模多機能型居宅介護】群馬県高崎市上豊岡町６４－１２", "url": "https://www.kaigokensaku.mhlw.go.jp/10/index.php?action_kouhyou_detail_004_kani=true&JigyosyoCd=1090200682-00&ServiceCd=730&Type=search", "url2": null }, "geometry": { "type": "Point", "coordinates": [ 138.974715139286786, 36.331938564872296 ] } },
{ "type": "Feature", "properties": { "内容": "ケアサポートセンターさとの花【小規模多機能型居宅介護】群馬県高崎市乗附町209番地1", "url": "https://www.kaigokensaku.mhlw.go.jp/10/index.php?action_kouhyou_detail_004_kani=true&JigyosyoCd=1090200161-00&ServiceCd=730&Type=search", "url2": "satonohana.wixsite.com/satonohana" }, "geometry": { "type": "Point", "coordinates": [ 138.981392199999959, 36.3265638 ] } },
{ "type": "Feature", "properties": { "内容": "小規模多機能　あったかほーむエフビー日高【小規模多機能型居宅介護】群馬県高崎市新保田中町678番地エフビー日高ケアセンター", "url": "https://www.kaigokensaku.mhlw.go.jp/10/index.php?action_kouhyou_detail_004_kani=true&JigyosyoCd=1090200971-00&ServiceCd=730&Type=search", "url2": "http/www.fb-kaigo.co.jp" }, "geometry": { "type": "Point", "coordinates": [ 139.038827399999946, 36.3645235 ] } },
{ "type": "Feature", "properties": { "内容": "ケアサポートセンターようざん石原【小規模多機能型居宅介護】群馬県高崎市石原町4516－1", "url": "https://www.kaigokensaku.mhlw.go.jp/10/index.php?action_kouhyou_detail_004_kani=true&JigyosyoCd=1090200385-00&ServiceCd=730&Type=search", "url2": null }, "geometry": { "type": "Point", "coordinates": [ 139.0056356, 36.310076 ] } },
{ "type": "Feature", "properties": { "内容": "ケアサポートセンターようざん双葉【小規模多機能型居宅介護】群馬県高崎市双葉町22-9", "url": "https://www.kaigokensaku.mhlw.go.jp/10/index.php?action_kouhyou_detail_004_kani=true&JigyosyoCd=1090200302-00&ServiceCd=730&Type=search", "url2": "http://www.youzan.jp/ご家族の方へ/小規模多機能型居宅介護/ようざん双葉/" }, "geometry": { "type": "Point", "coordinates": [ 139.022281300000031, 36.3146954 ] } },
{ "type": "Feature", "properties": { "内容": "ケアサポートセンターようざん倉賀野【小規模多機能型居宅介護】群馬県高崎市倉賀野町2189-3", "url": "https://www.kaigokensaku.mhlw.go.jp/10/index.php?action_kouhyou_detail_004_kani=true&JigyosyoCd=1090200526-00&ServiceCd=730&Type=search", "url2": "http//www.youzan.jp/" }, "geometry": { "type": "Point", "coordinates": [ 139.058586900000023, 36.2957753 ] } },
{ "type": "Feature", "properties": { "内容": "小規模多機能の家　じゃんけんぽん棟高【小規模多機能型居宅介護】群馬県高崎市棟高町1259-7", "url": "https://www.kaigokensaku.mhlw.go.jp/10/index.php?action_kouhyou_detail_004_kani=true&JigyosyoCd=1090200898-00&ServiceCd=730&Type=search", "url2": null }, "geometry": { "type": "Point", "coordinates": [ 139.002444873016344, 36.395314615980105 ] } },
{ "type": "Feature", "properties": { "内容": "ケアサポートセンターようざん藤塚【小規模多機能型居宅介護】群馬県高崎市藤塚町324-2", "url": "https://www.kaigokensaku.mhlw.go.jp/10/index.php?action_kouhyou_detail_004_kani=true&JigyosyoCd=1090200799-00&ServiceCd=730&Type=search", "url2": "ｈｔｔｐ：//ｗｗｗ．ｙｏｕｚａｎ．ｊｐ" }, "geometry": { "type": "Point", "coordinates": [ 138.958473227985706, 36.335981765194603 ] } },
{ "type": "Feature", "properties": { "内容": "ケアサポートセンターようざん八幡【小規模多機能型居宅介護】群馬県高崎市八幡町７６８－５６", "url": "https://www.kaigokensaku.mhlw.go.jp/10/index.php?action_kouhyou_detail_004_kani=true&JigyosyoCd=1090201383-00&ServiceCd=730&Type=search", "url2": "https://www.youzan.jp" }, "geometry": { "type": "Point", "coordinates": [ 138.9450152, 36.3386551 ] } },
{ "type": "Feature", "properties": { "内容": "ケアサポートセンターようざん飯塚【小規模多機能型居宅介護】群馬県高崎市飯塚町１０３０－１", "url": "https://www.kaigokensaku.mhlw.go.jp/10/index.php?action_kouhyou_detail_004_kani=true&JigyosyoCd=1090200427-00&ServiceCd=730&Type=search", "url2": "http://www.youzan.jp/" }, "geometry": { "type": "Point", "coordinates": [ 139.003285479762297, 36.340003136647589 ] } },
{ "type": "Feature", "properties": { "内容": "小規模多機能ホーム　ルネスふれ愛の家【小規模多機能型居宅介護】群馬県高崎市福島町　752-13", "url": "https://www.kaigokensaku.mhlw.go.jp/10/index.php?action_kouhyou_detail_004_kani=true&JigyosyoCd=1090200146-00&ServiceCd=730&Type=search", "url2": "http://www.runes.or.jp/" }, "geometry": { "type": "Point", "coordinates": [ 138.9983062, 36.3639138 ] } },
{ "type": "Feature", "properties": { "内容": "共生型小規模多機能ホーム　ドリームホーム三山【小規模多機能型居宅介護】群馬県高崎市箕郷町東明屋４００番地１", "url": "https://www.kaigokensaku.mhlw.go.jp/10/index.php?action_kouhyou_detail_004_kani=true&JigyosyoCd=1090200062-00&ServiceCd=730&Type=search", "url2": null }, "geometry": { "type": "Point", "coordinates": [ 138.957308600000033, 36.4014212 ] } },
{ "type": "Feature", "properties": { "内容": "小規模多機能　クオリア【小規模多機能型居宅介護】群馬県高崎市箕郷町白川2235", "url": "https://www.kaigokensaku.mhlw.go.jp/10/index.php?action_kouhyou_detail_004_kani=true&JigyosyoCd=1090200716-00&ServiceCd=730&Type=search", "url2": "https://qualia2235.wixsite.com" }, "geometry": { "type": "Point", "coordinates": [ 138.957023475276173, 36.370291723470451 ] } },
{ "type": "Feature", "properties": { "内容": "ケアセンターポラリス高崎【小規模多機能型居宅介護】群馬県高崎市矢島町６３８－１", "url": "https://www.kaigokensaku.mhlw.go.jp/10/index.php?action_kouhyou_detail_004_kani=true&JigyosyoCd=1090200849-00&ServiceCd=730&Type=search", "url2": "http://www.polaris-takasaki.com/" }, "geometry": { "type": "Point", "coordinates": [ 139.046059, 36.3363233 ] } },
{ "type": "Feature", "properties": { "内容": "安心館ひろさわ【小規模多機能型居宅介護】群馬県桐生市広沢町１－２５６６－１", "url": "https://www.kaigokensaku.mhlw.go.jp/10/index.php?action_kouhyou_detail_004_kani=true&JigyosyoCd=1090300193-00&ServiceCd=730&Type=search", "url2": "http://www.sanikukai.com" }, "geometry": { "type": "Point", "coordinates": [ 139.329565900000034, 36.3907588 ] } },
{ "type": "Feature", "properties": { "内容": "安心館かわうち【小規模多機能型居宅介護】群馬県桐生市川内町1-322-6", "url": "https://www.kaigokensaku.mhlw.go.jp/10/index.php?action_kouhyou_detail_004_kani=true&JigyosyoCd=1090300102-00&ServiceCd=730&Type=search", "url2": "http://www.sanikukai.com" }, "geometry": { "type": "Point", "coordinates": [ 139.3199052, 36.4338372 ] } },
{ "type": "Feature", "properties": { "内容": "安心館あいおい【小規模多機能型居宅介護】群馬県桐生市相生町４－３３－２", "url": "https://www.kaigokensaku.mhlw.go.jp/10/index.php?action_kouhyou_detail_004_kani=true&JigyosyoCd=1090300128-00&ServiceCd=730&Type=search", "url2": "http://www.sanikukai.com" }, "geometry": { "type": "Point", "coordinates": [ 139.2901693, 36.4251596 ] } },
{ "type": "Feature", "properties": { "内容": "ポピーの里【小規模多機能型居宅介護】群馬県桐生市仲町1丁目6番15号", "url": "https://www.kaigokensaku.mhlw.go.jp/10/index.php?action_kouhyou_detail_004_kani=true&JigyosyoCd=1090300078-00&ServiceCd=730&Type=search", "url2": "https://kabusikigaisyapoppy.wixsite.com/poppy-carecenter" }, "geometry": { "type": "Point", "coordinates": [ 139.344966600000021, 36.4136258 ] } },
{ "type": "Feature", "properties": { "内容": "安心館ひがし【小規模多機能型居宅介護】群馬県桐生市東３－１－５", "url": "https://www.kaigokensaku.mhlw.go.jp/10/index.php?action_kouhyou_detail_004_kani=true&JigyosyoCd=1090300136-00&ServiceCd=730&Type=search", "url2": "http://www.sanikukai.com" }, "geometry": { "type": "Point", "coordinates": [ 139.350441, 36.4146757 ] } },
{ "type": "Feature", "properties": { "内容": "平成の家【小規模多機能型居宅介護】群馬県伊勢崎市安堀町７８５番地4", "url": "https://www.kaigokensaku.mhlw.go.jp/10/index.php?action_kouhyou_detail_004_kani=true&JigyosyoCd=1090400019-00&ServiceCd=730&Type=search", "url2": "http://care-net.biz/10/heisei" }, "geometry": { "type": "Point", "coordinates": [ 139.168808441127197, 36.337290000752802 ] } },
{ "type": "Feature", "properties": { "内容": "ひなたぼっこ　昭和館【小規模多機能型居宅介護】群馬県伊勢崎市羽黒町3-4", "url": "https://www.kaigokensaku.mhlw.go.jp/10/index.php?action_kouhyou_detail_004_kani=true&JigyosyoCd=1090400175-00&ServiceCd=730&Type=search", "url2": "http://hinatabokko-isesaki.com" }, "geometry": { "type": "Point", "coordinates": [ 139.209924900000033, 36.2910473 ] } },
{ "type": "Feature", "properties": { "内容": "多機能ハウスひなたぼっこ【小規模多機能型居宅介護】群馬県伊勢崎市境伊与久1684-3", "url": "https://www.kaigokensaku.mhlw.go.jp/10/index.php?action_kouhyou_detail_004_kani=true&JigyosyoCd=1090400035-00&ServiceCd=730&Type=search", "url2": null }, "geometry": { "type": "Point", "coordinates": [ 139.221579846032711, 36.30732263246508 ] } },
{ "type": "Feature", "properties": { "内容": "日の出【小規模多機能型居宅介護】群馬県伊勢崎市境伊与久4092-4", "url": "https://www.kaigokensaku.mhlw.go.jp/10/index.php?action_kouhyou_detail_004_kani=true&JigyosyoCd=1090400241-00&ServiceCd=730&Type=search", "url2": "http://syoukibotakinou.wix.com/hinode" }, "geometry": { "type": "Point", "coordinates": [ 139.235982299999932, 36.3068462 ] } },
{ "type": "Feature", "properties": { "内容": "あかぼりの里【小規模多機能型居宅介護】群馬県　伊勢崎市　香林町２丁目１４９２番地１", "url": "https://www.kaigokensaku.mhlw.go.jp/10/index.php?action_kouhyou_detail_004_kani=true&JigyosyoCd=1090400043-00&ServiceCd=730&Type=search", "url2": null }, "geometry": { "type": "Point", "coordinates": [ 139.253312100000045, 36.394165500000014 ] } },
{ "type": "Feature", "properties": { "内容": "美茂呂の丘【小規模多機能型居宅介護】群馬県伊勢崎市美茂呂町3219-3", "url": "https://www.kaigokensaku.mhlw.go.jp/10/index.php?action_kouhyou_detail_004_kani=true&JigyosyoCd=1090400076-00&ServiceCd=730&Type=search", "url2": "https://www.mimoronooka.jp" }, "geometry": { "type": "Point", "coordinates": [ 139.206924427647436, 36.296239265140976 ] } },
{ "type": "Feature", "properties": { "内容": "医療法人社団　野村医院　小規模多機能型居宅介護施設　のむら陽光園【小規模多機能型居宅介護】群馬県太田市古戸町957-1", "url": "https://www.kaigokensaku.mhlw.go.jp/10/index.php?action_kouhyou_detail_004_kani=true&JigyosyoCd=1090500248-00&ServiceCd=730&Type=search", "url2": "http://youkouen.jp/" }, "geometry": { "type": "Point", "coordinates": [ 139.380708599999906, 36.2499012 ] } },
{ "type": "Feature", "properties": { "内容": "小規模多機能ホームゆう愛【小規模多機能型居宅介護】群馬県太田市寺井町５６５", "url": "https://www.kaigokensaku.mhlw.go.jp/10/index.php?action_kouhyou_detail_004_kani=true&JigyosyoCd=1090500040-00&ServiceCd=730&Type=search", "url2": "http://www.gunma-doujinkai.or.jp" }, "geometry": { "type": "Point", "coordinates": [ 139.335741522090188, 36.325556602736761 ] } },
{ "type": "Feature", "properties": { "内容": "希望の郷【小規模多機能型居宅介護】群馬県太田市新田上江田町1147", "url": "https://www.kaigokensaku.mhlw.go.jp/10/index.php?action_kouhyou_detail_004_kani=true&JigyosyoCd=1090500099-00&ServiceCd=730&Type=search", "url2": null }, "geometry": { "type": "Point", "coordinates": [ 139.278246299999978, 36.293901 ] } },
{ "type": "Feature", "properties": { "内容": "小規模多機能型居宅介護　わたぼうし【小規模多機能型居宅介護】群馬県太田市新田大根町266-3", "url": "https://www.kaigokensaku.mhlw.go.jp/10/index.php?action_kouhyou_detail_004_kani=true&JigyosyoCd=1090500313-00&ServiceCd=730&Type=search", "url2": null }, "geometry": { "type": "Point", "coordinates": [ 139.288492171163966, 36.315452180776965 ] } },
{ "type": "Feature", "properties": { "内容": "新田ほほえみの家【小規模多機能型居宅介護】群馬県太田市新田中江田町1126-2", "url": "https://www.kaigokensaku.mhlw.go.jp/10/index.php?action_kouhyou_detail_004_kani=true&JigyosyoCd=1090500057-00&ServiceCd=730&Type=search", "url2": null }, "geometry": { "type": "Point", "coordinates": [ 139.292956600000025, 36.2799667 ] } },
{ "type": "Feature", "properties": { "内容": "ケアタウン　コスモス【小規模多機能型居宅介護】群馬県太田市西野谷町95-1", "url": "https://www.kaigokensaku.mhlw.go.jp/10/index.php?action_kouhyou_detail_004_kani=true&JigyosyoCd=1090500131-00&ServiceCd=730&Type=search", "url2": "http://npo-cosmos.jp/" }, "geometry": { "type": "Point", "coordinates": [ 139.328960700000039, 36.2831863 ] } },
{ "type": "Feature", "properties": { "内容": "小規模多機能ホームひまわり【小規模多機能型居宅介護】群馬県太田市台之郷町３０７番地", "url": "https://www.kaigokensaku.mhlw.go.jp/10/index.php?action_kouhyou_detail_004_kani=true&JigyosyoCd=1090500073-00&ServiceCd=730&Type=search", "url2": "https://www.ota-himawari.com/" }, "geometry": { "type": "Point", "coordinates": [ 139.415338600000041, 36.3043602 ] } },
{ "type": "Feature", "properties": { "内容": "小規模多機能ホームひまわり　Ⅱ【小規模多機能型居宅介護】群馬県太田市台之郷町308番地2", "url": "https://www.kaigokensaku.mhlw.go.jp/10/index.php?action_kouhyou_detail_004_kani=true&JigyosyoCd=1090500610-00&ServiceCd=730&Type=search", "url2": "https://www.ota-himawari.com/" }, "geometry": { "type": "Point", "coordinates": [ 139.4084837, 36.3061571 ] } },
{ "type": "Feature", "properties": { "内容": "小規模多機能ホームしずるな【小規模多機能型居宅介護】群馬県太田市浜町５４番１０号", "url": "https://www.kaigokensaku.mhlw.go.jp/10/index.php?action_kouhyou_detail_004_kani=true&JigyosyoCd=1090500412-00&ServiceCd=730&Type=search", "url2": "shizuruna.co.jp" }, "geometry": { "type": "Point", "coordinates": [ 139.364459254631015, 36.29094359860629 ] } },
{ "type": "Feature", "properties": { "内容": "小規模多機能型居宅介護事業所ひなぎく【小規模多機能型居宅介護】群馬県太田市富沢町３９３－１", "url": "https://www.kaigokensaku.mhlw.go.jp/10/index.php?action_kouhyou_detail_004_kani=true&JigyosyoCd=1090500198-00&ServiceCd=730&Type=search", "url2": "http://wellaging-group.jp/HINAGIKU" }, "geometry": { "type": "Point", "coordinates": [ 139.353601, 36.2652109 ] } },
{ "type": "Feature", "properties": { "内容": "小規模多機能型居宅介護アルプス【小規模多機能型居宅介護】群馬県太田市薮塚町4149-3", "url": "https://www.kaigokensaku.mhlw.go.jp/10/index.php?action_kouhyou_detail_004_kani=true&JigyosyoCd=1090500305-00&ServiceCd=730&Type=search", "url2": "http://www11.plala.or.jp/arupusu/" }, "geometry": { "type": "Point", "coordinates": [ 139.298738186508217, 36.367843517440704 ] } },
{ "type": "Feature", "properties": { "内容": "小規模多機能型居宅介護事業所なじみの家【小規模多機能型居宅介護】群馬県沼田市戸鹿野町蕨平349-4", "url": "https://www.kaigokensaku.mhlw.go.jp/10/index.php?action_kouhyou_detail_004_kani=true&JigyosyoCd=1090600287-00&ServiceCd=730&Type=search", "url2": "http://kyujinkai.com/" }, "geometry": { "type": "Point", "coordinates": [ 139.036463963898115, 36.634465700482544 ] } },
{ "type": "Feature", "properties": { "内容": "小規模多機能ホーム恵の家【小規模多機能型居宅介護】群馬県沼田市沼須町750番地２", "url": "https://www.kaigokensaku.mhlw.go.jp/10/index.php?action_kouhyou_detail_004_kani=true&JigyosyoCd=1090600113-00&ServiceCd=730&Type=search", "url2": "meguminoie.life" }, "geometry": { "type": "Point", "coordinates": [ 139.0529828, 36.6322732 ] } },
{ "type": "Feature", "properties": { "内容": "ここぶの家【小規模多機能型居宅介護】群馬県沼田市白沢町上古語父７６－４", "url": "https://www.kaigokensaku.mhlw.go.jp/10/index.php?action_kouhyou_detail_004_kani=true&JigyosyoCd=1090600071-00&ServiceCd=730&Type=search", "url2": null }, "geometry": { "type": "Point", "coordinates": [ 139.12254489999998, 36.6628642 ] } },
{ "type": "Feature", "properties": { "内容": "小規模多機能ホームいやしろ【小規模多機能型居宅介護】群馬県沼田市下久屋町285番地2", "url": "https://www.kaigokensaku.mhlw.go.jp/10/index.php?action_kouhyou_detail_004_kani=true&JigyosyoCd=1090600295-00&ServiceCd=730&Type=search", "url2": "https://www.iyashiro.co.jp" }, "geometry": { "type": "Point", "coordinates": [ 139.0823971, 36.653486 ] } },
{ "type": "Feature", "properties": { "内容": "小規模多機能ホーム・アリス【小規模多機能型居宅介護】群馬県館林市羽附町699", "url": "https://www.kaigokensaku.mhlw.go.jp/10/index.php?action_kouhyou_detail_004_kani=true&JigyosyoCd=1090700111-00&ServiceCd=730&Type=search", "url2": "http://alice-tatebayashi.jp/" }, "geometry": { "type": "Point", "coordinates": [ 139.56888940981753, 36.230797921943726 ] } },
{ "type": "Feature", "properties": { "内容": "小規模多機能型居宅介護よろこび【小規模多機能型居宅介護】群馬県館林市入ヶ谷町96番地の4", "url": "https://www.kaigokensaku.mhlw.go.jp/10/index.php?action_kouhyou_detail_004_kani=true&JigyosyoCd=1090700152-00&ServiceCd=730&Type=search", "url2": null }, "geometry": { "type": "Point", "coordinates": [ 139.50176088636934, 36.213257538687046 ] } },
{ "type": "Feature", "properties": { "内容": "多機能ケアの喜楽【小規模多機能型居宅介護】群馬県館林市北成島町1809-6", "url": "https://www.kaigokensaku.mhlw.go.jp/10/index.php?action_kouhyou_detail_004_kani=true&JigyosyoCd=1090700178-00&ServiceCd=730&Type=search", "url2": "https://otagaisamaegao.net/" }, "geometry": { "type": "Point", "coordinates": [ 139.5171279, 36.2576041 ] } },
{ "type": "Feature", "properties": { "内容": "シルバークラブ金井の家【小規模多機能型居宅介護】群馬県渋川市金井484番地1", "url": "https://www.kaigokensaku.mhlw.go.jp/10/index.php?action_kouhyou_detail_004_kani=true&JigyosyoCd=1090800069-00&ServiceCd=730&Type=search", "url2": "http://www.fujikenn.co.jp" }, "geometry": { "type": "Point", "coordinates": [ 138.999542, 36.5149651 ] } },
{ "type": "Feature", "properties": { "内容": "シルバークラブ八崎の家【小規模多機能型居宅介護】群馬県渋川市北橘町八崎９番地", "url": "https://www.kaigokensaku.mhlw.go.jp/10/index.php?action_kouhyou_detail_004_kani=true&JigyosyoCd=1090800036-00&ServiceCd=730&Type=search", "url2": "http://www.fujikenn.co.jp" }, "geometry": { "type": "Point", "coordinates": [ 139.0210793, 36.5020777 ] } },
{ "type": "Feature", "properties": { "内容": "小規模多機能の家ありまんち【小規模多機能型居宅介護】群馬県渋川市有馬１７７９番地２", "url": "https://www.kaigokensaku.mhlw.go.jp/10/index.php?action_kouhyou_detail_004_kani=true&JigyosyoCd=1090800044-00&ServiceCd=730&Type=search", "url2": "kk-csm.jp" }, "geometry": { "type": "Point", "coordinates": [ 138.995274600000016, 36.4632315 ] } },
{ "type": "Feature", "properties": { "内容": "小規模多機能型ホーム　太陽の家【小規模多機能型居宅介護】群馬県藤岡市岡之郷１１６６－１", "url": "https://www.kaigokensaku.mhlw.go.jp/10/index.php?action_kouhyou_detail_004_kani=true&JigyosyoCd=1090900042-00&ServiceCd=730&Type=search", "url2": "http://nijitotaiyoh.com" }, "geometry": { "type": "Point", "coordinates": [ 139.097491499999933, 36.2619184 ] } },
{ "type": "Feature", "properties": { "内容": "サテライト型小規模多機能型居宅介護きらら【小規模多機能型居宅介護】群馬県藤岡市中大塚172-21", "url": "https://www.kaigokensaku.mhlw.go.jp/10/index.php?action_kouhyou_detail_004_kani=true&JigyosyoCd=1090900067-00&ServiceCd=730&Type=search", "url2": "http://www.fuku-shinwakai.or.jp" }, "geometry": { "type": "Point", "coordinates": [ 139.062699852778678, 36.253494747136166 ] } },
{ "type": "Feature", "properties": { "内容": "小規模多機能型居宅介護　くるる【小規模多機能型居宅介護】群馬県藤岡市中大塚215－1", "url": "https://www.kaigokensaku.mhlw.go.jp/10/index.php?action_kouhyou_detail_004_kani=true&JigyosyoCd=1090900026-00&ServiceCd=730&Type=search", "url2": "http://www.fuku-shinwakai.or.jp" }, "geometry": { "type": "Point", "coordinates": [ 139.065298, 36.2524326 ] } },
{ "type": "Feature", "properties": { "内容": "くわのみ富岡【小規模多機能型居宅介護】群馬県富岡市下黒岩５番地", "url": "https://www.kaigokensaku.mhlw.go.jp/10/index.php?action_kouhyou_detail_004_kani=true&JigyosyoCd=1091000024-00&ServiceCd=730&Type=search", "url2": "http://www.kuwanomi.com/" }, "geometry": { "type": "Point", "coordinates": [ 138.897063525131216, 36.27569477152776 ] } },
{ "type": "Feature", "properties": { "内容": "妙義会小規模多機能ホーム【小規模多機能型居宅介護】群馬県富岡市妙義町上高田1215番地10", "url": "https://www.kaigokensaku.mhlw.go.jp/10/index.php?action_kouhyou_detail_004_kani=true&JigyosyoCd=1091000032-00&ServiceCd=730&Type=search", "url2": "http://www.myogikai.jp" }, "geometry": { "type": "Point", "coordinates": [ 138.81638780000003, 36.2870428 ] } },
{ "type": "Feature", "properties": { "内容": "小規模多機能ホームごうばら【小規模多機能型居宅介護】群馬県安中市郷原2982-1", "url": "https://www.kaigokensaku.mhlw.go.jp/10/index.php?action_kouhyou_detail_004_kani=true&JigyosyoCd=1091100188-00&ServiceCd=730&Type=search", "url2": "http://care-net.biz/10/goubara_kaigo/" }, "geometry": { "type": "Point", "coordinates": [ 138.836175514683077, 36.311615619785407 ] } },
{ "type": "Feature", "properties": { "内容": "小規模多機能型居宅介護　国衙の郷【小規模多機能型居宅介護】群馬県安中市松井田町国衙56-1", "url": "https://www.kaigokensaku.mhlw.go.jp/10/index.php?action_kouhyou_detail_004_kani=true&JigyosyoCd=1091100238-00&ServiceCd=730&Type=search", "url2": null }, "geometry": { "type": "Point", "coordinates": [ 138.812951261461222, 36.325662866770003 ] } },
{ "type": "Feature", "properties": { "内容": "小規模多機能ホームくわのみ【小規模多機能型居宅介護】群馬県安中市中野谷１８５４番地２", "url": "https://www.kaigokensaku.mhlw.go.jp/10/index.php?action_kouhyou_detail_004_kani=true&JigyosyoCd=1091100022-00&ServiceCd=730&Type=search", "url2": "http://www.kuwanomi.com/" }, "geometry": { "type": "Point", "coordinates": [ 138.863693189549281, 36.292186736324943 ] } },
{ "type": "Feature", "properties": { "内容": "小規模多機能型居宅介護　ヤナセ【小規模多機能型居宅介護】群馬県安中市簗瀬194-6", "url": "https://www.kaigokensaku.mhlw.go.jp/10/index.php?action_kouhyou_detail_004_kani=true&JigyosyoCd=1091100055-00&ServiceCd=730&Type=search", "url2": null }, "geometry": { "type": "Point", "coordinates": [ 138.851904525795021, 36.306322816122034 ] } },
{ "type": "Feature", "properties": { "内容": "小規模多機能の家　吉ケ谷【小規模多機能型居宅介護】群馬県安中市下秋間４４８４番地１", "url": "https://www.kaigokensaku.mhlw.go.jp/10/index.php?action_kouhyou_detail_004_kani=true&JigyosyoCd=1091100071-00&ServiceCd=730&Type=search", "url2": "https://www.yoshigatani.com/" }, "geometry": { "type": "Point", "coordinates": [ 138.892658911253392, 36.342351390880289 ] } },
{ "type": "Feature", "properties": { "内容": "小規模多機能ホームごうばら【小規模多機能型居宅介護】群馬県安中市郷原２９８２－１", "url": "https://www.kaigokensaku.mhlw.go.jp/10/index.php?action_kouhyou_detail_004_kani=true&JigyosyoCd=1091100287-00&ServiceCd=730&Type=search", "url2": null }, "geometry": { "type": "Point", "coordinates": [ 138.8364785, 36.3113169 ] } },
{ "type": "Feature", "properties": { "内容": "小規模多機能型居宅介護施設　ゆいまーる【小規模多機能型居宅介護】群馬県みどり市大間々町大間々４６４番地２", "url": "https://www.kaigokensaku.mhlw.go.jp/10/index.php?action_kouhyou_detail_004_kani=true&JigyosyoCd=1091200012-00&ServiceCd=730&Type=search", "url2": "https://www.nankuru51.com/" }, "geometry": { "type": "Point", "coordinates": [ 139.282809, 36.4187576 ] } },
{ "type": "Feature", "properties": { "内容": "小規模多機能ホームしんとう十二前【小規模多機能型居宅介護】群馬県北群馬郡榛東村大字新井字十二前2224-4", "url": "https://www.kaigokensaku.mhlw.go.jp/10/index.php?action_kouhyou_detail_004_kani=true&JigyosyoCd=1092200011-00&ServiceCd=730&Type=search", "url2": "http://ken-ei-kai.or.jp/publics/index/109/" }, "geometry": { "type": "Point", "coordinates": [ 138.987140361962105, 36.427949504256873 ] } },
{ "type": "Feature", "properties": { "内容": "小規模多機能居宅介護事業所　百【小規模多機能型居宅介護】群馬県北群馬郡吉岡町大久保3058番地1", "url": "https://www.kaigokensaku.mhlw.go.jp/10/index.php?action_kouhyou_detail_004_kani=true&JigyosyoCd=1092200037-00&ServiceCd=730&Type=search", "url2": "http://zuika.biz/" }, "geometry": { "type": "Point", "coordinates": [ 139.014267526983645, 36.448350581358206 ] } },
{ "type": "Feature", "properties": { "内容": "小規模多機能ホームハーモニー【小規模多機能型居宅介護】群馬県甘楽郡下仁田町馬山2495-1", "url": "https://www.kaigokensaku.mhlw.go.jp/10/index.php?action_kouhyou_detail_004_kani=true&JigyosyoCd=1092400033-00&ServiceCd=730&Type=search", "url2": "http://ogino-care.com" }, "geometry": { "type": "Point", "coordinates": [ 138.814946299999974, 36.2317798 ] } },
{ "type": "Feature", "properties": { "内容": "小規模多機能型居宅介護事業所　シルク・おばた【小規模多機能型居宅介護】群馬県甘楽郡甘楽町善慶寺1362-1", "url": "https://www.kaigokensaku.mhlw.go.jp/10/index.php?action_kouhyou_detail_004_kani=true&JigyosyoCd=1092400090-00&ServiceCd=730&Type=search", "url2": "https://www.kanrakai-silk.or.jp" }, "geometry": { "type": "Point", "coordinates": [ 138.907433007934571, 36.237939045020099 ] } },
{ "type": "Feature", "properties": { "内容": "小規模多機能しらゆき【小規模多機能型居宅介護】群馬県吾妻郡中之条町中之条町254-1", "url": "https://www.kaigokensaku.mhlw.go.jp/10/index.php?action_kouhyou_detail_004_kani=true&JigyosyoCd=1092600210-00&ServiceCd=730&Type=search", "url2": "https://tenforty1040" }, "geometry": { "type": "Point", "coordinates": [ 138.8238236, 36.5896378 ] } },
{ "type": "Feature", "properties": { "内容": "京塚温泉笑みの里暖輪【小規模多機能型居宅介護】群馬県吾妻郡中之条町入山3257－１", "url": "https://www.kaigokensaku.mhlw.go.jp/10/index.php?action_kouhyou_detail_004_kani=true&JigyosyoCd=1092600152-00&ServiceCd=730&Type=search", "url2": "makidai@anysta.ne.jp" }, "geometry": { "type": "Point", "coordinates": [ 138.648394599999961, 36.646969 ] } },
{ "type": "Feature", "properties": { "内容": "小規模多機能ホームぽっかぽかの家【小規模多機能型居宅介護】群馬県吾妻郡東吾妻町大字植栗344-3", "url": "https://www.kaigokensaku.mhlw.go.jp/10/index.php?action_kouhyou_detail_004_kani=true&JigyosyoCd=1092600087-00&ServiceCd=730&Type=search", "url2": "https://pokkapoka-s.jp" }, "geometry": { "type": "Point", "coordinates": [ 138.856982600000038, 36.5734588 ] } },
{ "type": "Feature", "properties": { "内容": "小規模多機能ホームゆずりは【小規模多機能型居宅介護】群馬県利根郡昭和村大字糸井８４０－５", "url": "https://www.kaigokensaku.mhlw.go.jp/10/index.php?action_kouhyou_detail_004_kani=true&JigyosyoCd=1092700085-00&ServiceCd=730&Type=search", "url2": null }, "geometry": { "type": "Point", "coordinates": [ 139.07537135338896, 36.644830796309613 ] } },
{ "type": "Feature", "properties": { "内容": "小規模多機能タマビレッジきらら【小規模多機能型居宅介護】群馬県佐波郡玉村町上新田１６３２－１", "url": "https://www.kaigokensaku.mhlw.go.jp/10/index.php?action_kouhyou_detail_004_kani=true&JigyosyoCd=1092800042-00&ServiceCd=730&Type=search", "url2": null }, "geometry": { "type": "Point", "coordinates": [ 139.109613700809518, 36.303175639231327 ] } },
{ "type": "Feature", "properties": { "内容": "小規模多機能型居宅介護タマメディカル藤川【小規模多機能型居宅介護】群馬県佐波郡玉村町藤川23", "url": "https://www.kaigokensaku.mhlw.go.jp/10/index.php?action_kouhyou_detail_004_kani=true&JigyosyoCd=1092800018-00&ServiceCd=730&Type=search", "url2": null }, "geometry": { "type": "Point", "coordinates": [ 139.123241, 36.3325166 ] } },
{ "type": "Feature", "properties": { "内容": "小規模多機能型居宅介護事業所えがお【小規模多機能型居宅介護】群馬県邑楽郡板倉町大字板倉3411-1417", "url": "https://www.kaigokensaku.mhlw.go.jp/10/index.php?action_kouhyou_detail_004_kani=true&JigyosyoCd=1093100087-00&ServiceCd=730&Type=search", "url2": null }, "geometry": { "type": "Point", "coordinates": [ 139.624966800000038, 36.222733 ] } },
{ "type": "Feature", "properties": { "内容": "小規模多機能ホーム　憩【小規模多機能型居宅介護】群馬県邑楽郡明和町新里３５２番地", "url": "https://www.kaigokensaku.mhlw.go.jp/10/index.php?action_kouhyou_detail_004_kani=true&JigyosyoCd=1093100061-00&ServiceCd=730&Type=search", "url2": "www.kizuna-meiwa.jp" }, "geometry": { "type": "Point", "coordinates": [ 139.539813399999957, 36.2092946 ] } },
{ "type": "Feature", "properties": { "内容": "小規模多機能ハウス　あさひ【小規模多機能型居宅介護】群馬県邑楽郡大泉町朝日四丁目17番30号", "url": "https://www.kaigokensaku.mhlw.go.jp/10/index.php?action_kouhyou_detail_004_kani=true&JigyosyoCd=1093100046-00&ServiceCd=730&Type=search", "url2": "http://www.houenkai.jp/index.htm" }, "geometry": { "type": "Point", "coordinates": [ 139.419771099999906, 36.2533546 ] } },
{ "type": "Feature", "properties": { "内容": "小規模多機能ホーム　はるかぜ【小規模多機能型居宅介護】群馬県邑楽郡邑楽町大字赤堀9", "url": "https://www.kaigokensaku.mhlw.go.jp/10/index.php?action_kouhyou_detail_004_kani=true&JigyosyoCd=1093100038-00&ServiceCd=730&Type=search", "url2": "https://villa-g.jp" }, "geometry": { "type": "Point", "coordinates": [ 139.479793800000039, 36.226748 ] } },
{ "type": "Feature", "properties": { "内容": "小規模多機能ホームすずかけ【小規模多機能型居宅介護】群馬県邑楽郡邑楽町中野5260-1", "url": "https://www.kaigokensaku.mhlw.go.jp/10/index.php?action_kouhyou_detail_004_kani=true&JigyosyoCd=1093100079-00&ServiceCd=730&Type=search", "url2": "http://www.popurakai.or.jp" }, "geometry": { "type": "Point", "coordinates": [ 139.4789783, 36.2670543 ] } }
]
}
