{
"type": "FeatureCollection",
"name": "geo_10_中学校",
"crs": { "type": "name", "properties": { "name": "urn:ogc:def:crs:EPSG::6668" } },
"features": [
{ "type": "Feature", "properties": { "P29_001": "10201", "P29_002": "C110110000017", "P29_003": "16002", "P29_004": "群馬大学共同教育学部附属中学校", "P29_005": "群馬県前橋市上沖町612", "P29_006": "1", "P29_007": "1", "P29_008": "00", "P29_009": null }, "geometry": { "type": "Point", "coordinates": [ 139.087556600440479, 36.408906921893212 ] } },
{ "type": "Feature", "properties": { "P29_001": "10201", "P29_002": "C110210000015", "P29_003": "16002", "P29_004": "前橋市立第一中学校", "P29_005": "群馬県前橋市南町1-20-5", "P29_006": "3", "P29_007": "1", "P29_008": "00", "P29_009": null }, "geometry": { "type": "Point", "coordinates": [ 139.065606672340806, 36.380880232864335 ] } },
{ "type": "Feature", "properties": { "P29_001": "10201", "P29_002": "C110210000024", "P29_003": "16002", "P29_004": "前橋市立第三中学校", "P29_005": "群馬県前橋市平和町2-13-24", "P29_006": "3", "P29_007": "1", "P29_008": "00", "P29_009": null }, "geometry": { "type": "Point", "coordinates": [ 139.062091700406739, 36.400448370786094 ] } },
{ "type": "Feature", "properties": { "P29_001": "10201", "P29_002": "C110210000033", "P29_003": "16002", "P29_004": "前橋市立第五中学校", "P29_005": "群馬県前橋市文京町3-20-5", "P29_006": "3", "P29_007": "1", "P29_008": "00", "P29_009": null }, "geometry": { "type": "Point", "coordinates": [ 139.087948127172524, 36.379392823900787 ] } },
{ "type": "Feature", "properties": { "P29_001": "10201", "P29_002": "C110210000042", "P29_003": "16002", "P29_004": "前橋市立第六中学校", "P29_005": "群馬県前橋市総社町総社1762-1", "P29_006": "3", "P29_007": "1", "P29_008": "00", "P29_009": null }, "geometry": { "type": "Point", "coordinates": [ 139.035057044479174, 36.409934569393506 ] } },
{ "type": "Feature", "properties": { "P29_001": "10201", "P29_002": "C110210000051", "P29_003": "16002", "P29_004": "前橋市立第七中学校", "P29_005": "群馬県前橋市宮地町260-1", "P29_006": "3", "P29_007": "1", "P29_008": "00", "P29_009": null }, "geometry": { "type": "Point", "coordinates": [ 139.104021995924711, 36.340405996465336 ] } },
{ "type": "Feature", "properties": { "P29_001": "10201", "P29_002": "C110210000060", "P29_003": "16002", "P29_004": "前橋市立桂萱中学校", "P29_005": "群馬県前橋市上泉町175", "P29_006": "3", "P29_007": "1", "P29_008": "00", "P29_009": null }, "geometry": { "type": "Point", "coordinates": [ 139.103584563203327, 36.39623687605642 ] } },
{ "type": "Feature", "properties": { "P29_001": "10201", "P29_002": "C110210000079", "P29_003": "16002", "P29_004": "前橋市立芳賀中学校", "P29_005": "群馬県前橋市鳥取町796", "P29_006": "3", "P29_007": "1", "P29_008": "00", "P29_009": null }, "geometry": { "type": "Point", "coordinates": [ 139.110418144194256, 36.425379451839603 ] } },
{ "type": "Feature", "properties": { "P29_001": "10201", "P29_002": "C110210000088", "P29_003": "16002", "P29_004": "前橋市立元総社中学校", "P29_005": "群馬県前橋市総社町総社3060", "P29_006": "3", "P29_007": "1", "P29_008": "00", "P29_009": null }, "geometry": { "type": "Point", "coordinates": [ 139.035032744300707, 36.39515876468996 ] } },
{ "type": "Feature", "properties": { "P29_001": "10201", "P29_002": "C110210000097", "P29_003": "16002", "P29_004": "前橋市立東中学校", "P29_005": "群馬県前橋市光が丘町3", "P29_006": "3", "P29_007": "1", "P29_008": "00", "P29_009": null }, "geometry": { "type": "Point", "coordinates": [ 139.055922857050774, 36.372138733324228 ] } },
{ "type": "Feature", "properties": { "P29_001": "10201", "P29_002": "C110210000104", "P29_003": "16002", "P29_004": "前橋市立南橘中学校", "P29_005": "群馬県前橋市荒牧町975", "P29_006": "3", "P29_007": "1", "P29_008": "00", "P29_009": null }, "geometry": { "type": "Point", "coordinates": [ 139.060455518869247, 36.424244076501019 ] } },
{ "type": "Feature", "properties": { "P29_001": "10201", "P29_002": "C110210000113", "P29_003": "16002", "P29_004": "前橋市立木瀬中学校", "P29_005": "群馬県前橋市小屋原町1811-1", "P29_006": "3", "P29_007": "1", "P29_008": "00", "P29_009": null }, "geometry": { "type": "Point", "coordinates": [ 139.12936927721762, 36.363343898140855 ] } },
{ "type": "Feature", "properties": { "P29_001": "10201", "P29_002": "C110210000122", "P29_003": "16002", "P29_004": "前橋市立荒砥中学校", "P29_005": "群馬県前橋市荒子町1338", "P29_006": "3", "P29_007": "1", "P29_008": "00", "P29_009": null }, "geometry": { "type": "Point", "coordinates": [ 139.164812502144883, 36.381192928909677 ] } },
{ "type": "Feature", "properties": { "P29_001": "10201", "P29_002": "C110210000159", "P29_003": "16002", "P29_004": "前橋市立鎌倉中学校", "P29_005": "群馬県前橋市上細井町2130", "P29_006": "3", "P29_007": "1", "P29_008": "00", "P29_009": null }, "geometry": { "type": "Point", "coordinates": [ 139.083264901999883, 36.415254182973378 ] } },
{ "type": "Feature", "properties": { "P29_001": "10201", "P29_002": "C110210000168", "P29_003": "16002", "P29_004": "前橋市立箱田中学校", "P29_005": "群馬県前橋市前箱田町396-1", "P29_006": "3", "P29_007": "1", "P29_008": "00", "P29_009": null }, "geometry": { "type": "Point", "coordinates": [ 139.047891019639337, 36.360708845082399 ] } },
{ "type": "Feature", "properties": { "P29_001": "10201", "P29_002": "C110210000177", "P29_003": "16002", "P29_004": "前橋市立南橘中学校みやま分校", "P29_005": "群馬県前橋市川原町826", "P29_006": "3", "P29_007": "1", "P29_008": "00", "P29_009": null }, "geometry": { "type": "Point", "coordinates": [ 139.038308396315244, 36.432872863599634 ] } },
{ "type": "Feature", "properties": { "P29_001": "10201", "P29_002": "C110210000186", "P29_003": "16002", "P29_004": "前橋市立みずき中学校", "P29_005": "群馬県前橋市日吉町3-9-2", "P29_006": "3", "P29_007": "1", "P29_008": "00", "P29_009": null }, "geometry": { "type": "Point", "coordinates": [ 139.076295004967136, 36.400599002925347 ] } },
{ "type": "Feature", "properties": { "P29_001": "10202", "P29_002": "C110210000195", "P29_003": "16002", "P29_004": "高崎市立第一中学校", "P29_005": "群馬県高崎市上和田町16-1", "P29_006": "3", "P29_007": "1", "P29_008": "00", "P29_009": null }, "geometry": { "type": "Point", "coordinates": [ 138.996703308907598, 36.333251190070001 ] } },
{ "type": "Feature", "properties": { "P29_001": "10202", "P29_002": "C110210000202", "P29_003": "16002", "P29_004": "高崎市立並榎中学校", "P29_005": "群馬県高崎市並榎町60", "P29_006": "3", "P29_007": "1", "P29_008": "00", "P29_009": null }, "geometry": { "type": "Point", "coordinates": [ 138.994273667234694, 36.34250609099125 ] } },
{ "type": "Feature", "properties": { "P29_001": "10202", "P29_002": "C110210000211", "P29_003": "16002", "P29_004": "高崎市立豊岡中学校", "P29_005": "群馬県高崎市中豊岡町350-2", "P29_006": "3", "P29_007": "1", "P29_008": "00", "P29_009": null }, "geometry": { "type": "Point", "coordinates": [ 138.969813527398571, 36.336522089151671 ] } },
{ "type": "Feature", "properties": { "P29_001": "10202", "P29_002": "C110210000220", "P29_003": "16002", "P29_004": "高崎市立中尾中学校", "P29_005": "群馬県高崎市中尾町791", "P29_006": "3", "P29_007": "1", "P29_008": "00", "P29_009": null }, "geometry": { "type": "Point", "coordinates": [ 139.027929053448446, 36.362083869799598 ] } },
{ "type": "Feature", "properties": { "P29_001": "10202", "P29_002": "C110210000239", "P29_003": "16002", "P29_004": "高崎市立塚沢中学校", "P29_005": "群馬県高崎市飯玉町109", "P29_006": "3", "P29_007": "1", "P29_008": "00", "P29_009": null }, "geometry": { "type": "Point", "coordinates": [ 139.016674970940727, 36.339178778677521 ] } },
{ "type": "Feature", "properties": { "P29_001": "10202", "P29_002": "C110210000248", "P29_003": "16002", "P29_004": "高崎市立片岡中学校", "P29_005": "群馬県高崎市片岡町1-14-1", "P29_006": "3", "P29_007": "1", "P29_008": "00", "P29_009": null }, "geometry": { "type": "Point", "coordinates": [ 138.993942593371116, 36.320352219212772 ] } },
{ "type": "Feature", "properties": { "P29_001": "10202", "P29_002": "C110210000257", "P29_003": "16002", "P29_004": "高崎市立佐野中学校", "P29_005": "群馬県高崎市上中居町345", "P29_006": "3", "P29_007": "1", "P29_008": "00", "P29_009": null }, "geometry": { "type": "Point", "coordinates": [ 139.025273312424446, 36.317029735828491 ] } },
{ "type": "Feature", "properties": { "P29_001": "10202", "P29_002": "C110210000266", "P29_003": "16002", "P29_004": "高崎市立南八幡中学校", "P29_005": "群馬県高崎市山名町30-1", "P29_006": "3", "P29_007": "1", "P29_008": "00", "P29_009": null }, "geometry": { "type": "Point", "coordinates": [ 139.037379634007152, 36.281634760521811 ] } },
{ "type": "Feature", "properties": { "P29_001": "10202", "P29_002": "C110210000275", "P29_003": "16002", "P29_004": "高崎市立倉賀野中学校", "P29_005": "群馬県高崎市倉賀野町1270", "P29_006": "3", "P29_007": "1", "P29_008": "00", "P29_009": null }, "geometry": { "type": "Point", "coordinates": [ 139.042644064114342, 36.295052496823857 ] } },
{ "type": "Feature", "properties": { "P29_001": "10202", "P29_002": "C110210000284", "P29_003": "16002", "P29_004": "高崎市立高南中学校", "P29_005": "群馬県高崎市上滝町1032-2", "P29_006": "3", "P29_007": "1", "P29_008": "00", "P29_009": null }, "geometry": { "type": "Point", "coordinates": [ 139.070803634063537, 36.322169850960137 ] } },
{ "type": "Feature", "properties": { "P29_001": "10202", "P29_002": "C110210000293", "P29_003": "16002", "P29_004": "高崎市立長野郷中学校", "P29_005": "群馬県高崎市上小塙町325-1", "P29_006": "3", "P29_007": "1", "P29_008": "00", "P29_009": null }, "geometry": { "type": "Point", "coordinates": [ 138.973166172239786, 36.357433276973019 ] } },
{ "type": "Feature", "properties": { "P29_001": "10202", "P29_002": "C110210000300", "P29_003": "16002", "P29_004": "高崎市立大類中学校", "P29_005": "群馬県高崎市南大類町1455", "P29_006": "3", "P29_007": "1", "P29_008": "00", "P29_009": null }, "geometry": { "type": "Point", "coordinates": [ 139.035545872717762, 36.329667319312328 ] } },
{ "type": "Feature", "properties": { "P29_001": "10202", "P29_002": "C110210000319", "P29_003": "16002", "P29_004": "高崎市立寺尾中学校", "P29_005": "群馬県高崎市寺尾町2710", "P29_006": "3", "P29_007": "1", "P29_008": "00", "P29_009": null }, "geometry": { "type": "Point", "coordinates": [ 139.00962322964665, 36.303431455358108 ] } },
{ "type": "Feature", "properties": { "P29_001": "10202", "P29_002": "C110210000328", "P29_003": "16002", "P29_004": "高崎市立八幡中学校", "P29_005": "群馬県高崎市八幡町1300-1", "P29_006": "3", "P29_007": "1", "P29_008": "00", "P29_009": null }, "geometry": { "type": "Point", "coordinates": [ 138.943478725880965, 36.344408577644323 ] } },
{ "type": "Feature", "properties": { "P29_001": "10202", "P29_002": "C110210000337", "P29_003": "16002", "P29_004": "高崎市立矢中中学校", "P29_005": "群馬県高崎市矢中町700-1", "P29_006": "3", "P29_007": "1", "P29_008": "00", "P29_009": null }, "geometry": { "type": "Point", "coordinates": [ 139.056766503439547, 36.309274967619722 ] } },
{ "type": "Feature", "properties": { "P29_001": "10202", "P29_002": "C110210000346", "P29_003": "16002", "P29_004": "高崎市立高松中学校", "P29_005": "群馬県高崎市高松町5-3", "P29_006": "3", "P29_007": "1", "P29_008": "00", "P29_009": null }, "geometry": { "type": "Point", "coordinates": [ 139.00157077671804, 36.326325888527919 ] } },
{ "type": "Feature", "properties": { "P29_001": "10203", "P29_002": "C110210000355", "P29_003": "16002", "P29_004": "桐生市立境野中学校", "P29_005": "群馬県桐生市境野町6-1673", "P29_006": "3", "P29_007": "1", "P29_008": "00", "P29_009": null }, "geometry": { "type": "Point", "coordinates": [ 139.35402799513372, 36.383280995295763 ] } },
{ "type": "Feature", "properties": { "P29_001": "10203", "P29_002": "C110210000364", "P29_003": "16002", "P29_004": "桐生市立広沢中学校", "P29_005": "群馬県桐生市広沢町4-1864-2", "P29_006": "3", "P29_007": "1", "P29_008": "00", "P29_009": null }, "geometry": { "type": "Point", "coordinates": [ 139.340894114703644, 36.380270641788634 ] } },
{ "type": "Feature", "properties": { "P29_001": "10203", "P29_002": "C110210000373", "P29_003": "16002", "P29_004": "桐生市立梅田中学校", "P29_005": "群馬県桐生市梅田町2-347-1", "P29_006": "3", "P29_007": "1", "P29_008": "00", "P29_009": null }, "geometry": { "type": "Point", "coordinates": [ 139.383531397447712, 36.456549641112233 ] } },
{ "type": "Feature", "properties": { "P29_001": "10203", "P29_002": "C110210000382", "P29_003": "16002", "P29_004": "桐生市立相生中学校", "P29_005": "群馬県桐生市相生町5-247", "P29_006": "3", "P29_007": "1", "P29_008": "00", "P29_009": null }, "geometry": { "type": "Point", "coordinates": [ 139.300108171900973, 36.409341456818758 ] } },
{ "type": "Feature", "properties": { "P29_001": "10203", "P29_002": "C110210000391", "P29_003": "16002", "P29_004": "桐生市立川内中学校", "P29_005": "群馬県桐生市川内町5-358", "P29_006": "3", "P29_007": "1", "P29_008": "00", "P29_009": null }, "geometry": { "type": "Point", "coordinates": [ 139.307292133742777, 36.439279360140894 ] } },
{ "type": "Feature", "properties": { "P29_001": "10203", "P29_002": "C110210000408", "P29_003": "16002", "P29_004": "桐生市立桜木中学校", "P29_005": "群馬県桐生市広沢町1-2874", "P29_006": "3", "P29_007": "1", "P29_008": "00", "P29_009": null }, "geometry": { "type": "Point", "coordinates": [ 139.324063071130098, 36.394486464377742 ] } },
{ "type": "Feature", "properties": { "P29_001": "10203", "P29_002": "C110210000417", "P29_003": "16002", "P29_004": "桐生市立中央中学校", "P29_005": "群馬県桐生市美原町2-15", "P29_006": "3", "P29_007": "1", "P29_008": "00", "P29_009": null }, "geometry": { "type": "Point", "coordinates": [ 139.329300187908018, 36.406521635359852 ] } },
{ "type": "Feature", "properties": { "P29_001": "10203", "P29_002": "C110210000426", "P29_003": "16002", "P29_004": "桐生市立清流中学校", "P29_005": "群馬県桐生市東3-7-1", "P29_006": "3", "P29_007": "1", "P29_008": "00", "P29_009": null }, "geometry": { "type": "Point", "coordinates": [ 139.350357786916589, 36.410159565335327 ] } },
{ "type": "Feature", "properties": { "P29_001": "10204", "P29_002": "C110210000435", "P29_003": "16002", "P29_004": "伊勢崎市立第一中学校", "P29_005": "群馬県伊勢崎市茂呂町1-24-1", "P29_006": "3", "P29_007": "1", "P29_008": "00", "P29_009": null }, "geometry": { "type": "Point", "coordinates": [ 139.195613471526343, 36.307855496906463 ] } },
{ "type": "Feature", "properties": { "P29_001": "10204", "P29_002": "C110210000444", "P29_003": "16002", "P29_004": "伊勢崎市立第二中学校", "P29_005": "群馬県伊勢崎市堀口町237-1", "P29_006": "3", "P29_007": "1", "P29_008": "00", "P29_009": null }, "geometry": { "type": "Point", "coordinates": [ 139.185949105096228, 36.291116344758549 ] } },
{ "type": "Feature", "properties": { "P29_001": "10204", "P29_002": "C110210000453", "P29_003": "16002", "P29_004": "伊勢崎市立第三中学校", "P29_005": "群馬県伊勢崎市波志江町1903-1", "P29_006": "3", "P29_007": "1", "P29_008": "00", "P29_009": null }, "geometry": { "type": "Point", "coordinates": [ 139.190043998574396, 36.343225995100759 ] } },
{ "type": "Feature", "properties": { "P29_001": "10204", "P29_002": "C110210000462", "P29_003": "16002", "P29_004": "伊勢崎市立殖蓮中学校", "P29_005": "群馬県伊勢崎市上植木本町2152-2", "P29_006": "3", "P29_007": "1", "P29_008": "00", "P29_009": null }, "geometry": { "type": "Point", "coordinates": [ 139.214129121339283, 36.330785689169254 ] } },
{ "type": "Feature", "properties": { "P29_001": "10204", "P29_002": "C110210000471", "P29_003": "16002", "P29_004": "伊勢崎市立宮郷中学校", "P29_005": "群馬県伊勢崎市田中島町1065", "P29_006": "3", "P29_007": "1", "P29_008": "00", "P29_009": null }, "geometry": { "type": "Point", "coordinates": [ 139.157080525597934, 36.322208168470063 ] } },
{ "type": "Feature", "properties": { "P29_001": "10204", "P29_002": "C110210000480", "P29_003": "16002", "P29_004": "伊勢崎市立第四中学校", "P29_005": "群馬県伊勢崎市下道寺町26", "P29_006": "3", "P29_007": "1", "P29_008": "00", "P29_009": null }, "geometry": { "type": "Point", "coordinates": [ 139.204221515547289, 36.278459279848391 ] } },
{ "type": "Feature", "properties": { "P29_001": "10205", "P29_002": "C110210000499", "P29_003": "16002", "P29_004": "太田市立西中学校", "P29_005": "群馬県太田市八幡町24-1", "P29_006": "3", "P29_007": "1", "P29_008": "00", "P29_009": null }, "geometry": { "type": "Point", "coordinates": [ 139.366375821144288, 36.30022688231201 ] } },
{ "type": "Feature", "properties": { "P29_001": "10205", "P29_002": "C110210000514", "P29_003": "16002", "P29_004": "太田市立東中学校", "P29_005": "群馬県太田市飯塚町80", "P29_006": "3", "P29_007": "1", "P29_008": "00", "P29_009": null }, "geometry": { "type": "Point", "coordinates": [ 139.380410967060214, 36.276891206482063 ] } },
{ "type": "Feature", "properties": { "P29_001": "10205", "P29_002": "C110210000523", "P29_003": "16002", "P29_004": "太田市立南中学校", "P29_005": "群馬県太田市高林北町955-1", "P29_006": "3", "P29_007": "1", "P29_008": "00", "P29_009": null }, "geometry": { "type": "Point", "coordinates": [ 139.363669002720371, 36.262015999682077 ] } },
{ "type": "Feature", "properties": { "P29_001": "10205", "P29_002": "C110210000532", "P29_003": "16002", "P29_004": "太田市立休泊中学校", "P29_005": "群馬県太田市龍舞町3867-2", "P29_006": "3", "P29_007": "1", "P29_008": "00", "P29_009": null }, "geometry": { "type": "Point", "coordinates": [ 139.411730720482211, 36.28410336745582 ] } },
{ "type": "Feature", "properties": { "P29_001": "10205", "P29_002": "C110210000541", "P29_003": "16002", "P29_004": "太田市立強戸中学校", "P29_005": "群馬県太田市天良町72-3", "P29_006": "3", "P29_007": "1", "P29_008": "00", "P29_009": null }, "geometry": { "type": "Point", "coordinates": [ 139.335102255749035, 36.333538908480953 ] } },
{ "type": "Feature", "properties": { "P29_001": "10205", "P29_002": "C110210000550", "P29_003": "16002", "P29_004": "太田市立宝泉中学校", "P29_005": "群馬県太田市宝町735", "P29_006": "3", "P29_007": "1", "P29_008": "00", "P29_009": null }, "geometry": { "type": "Point", "coordinates": [ 139.329493521695866, 36.285484189622821 ] } },
{ "type": "Feature", "properties": { "P29_001": "10205", "P29_002": "C110210000569", "P29_003": "16002", "P29_004": "太田市立毛里田中学校", "P29_005": "群馬県太田市矢田堀町242-2", "P29_006": "3", "P29_007": "1", "P29_008": "00", "P29_009": null }, "geometry": { "type": "Point", "coordinates": [ 139.384212184197736, 36.337077752348911 ] } },
{ "type": "Feature", "properties": { "P29_001": "10205", "P29_002": "C110210000578", "P29_003": "16002", "P29_004": "太田市立城西中学校", "P29_005": "群馬県太田市新野町74", "P29_006": "3", "P29_007": "1", "P29_008": "00", "P29_009": null }, "geometry": { "type": "Point", "coordinates": [ 139.348989783527799, 36.305030401466489 ] } },
{ "type": "Feature", "properties": { "P29_001": "10205", "P29_002": "C110210000587", "P29_003": "16002", "P29_004": "太田市立城東中学校", "P29_005": "群馬県太田市韮川町1", "P29_006": "3", "P29_007": "1", "P29_008": "00", "P29_009": null }, "geometry": { "type": "Point", "coordinates": [ 139.403751669172863, 36.313350141030988 ] } },
{ "type": "Feature", "properties": { "P29_001": "10205", "P29_002": "C110210000596", "P29_003": "16002", "P29_004": "太田市立旭中学校", "P29_005": "群馬県太田市東矢島町1082", "P29_006": "3", "P29_007": "1", "P29_008": "00", "P29_009": null }, "geometry": { "type": "Point", "coordinates": [ 139.38145734473926, 36.274201387238115 ] } },
{ "type": "Feature", "properties": { "P29_001": "10205", "P29_002": "C110210000603", "P29_003": "16002", "P29_004": "太田市立太田中学校", "P29_005": "群馬県太田市細谷町1510", "P29_006": "3", "P29_007": "1", "P29_008": "00", "P29_009": null }, "geometry": { "type": "Point", "coordinates": [ 139.352763033560109, 36.281857962021981 ] } },
{ "type": "Feature", "properties": { "P29_001": "10206", "P29_002": "C110210000612", "P29_003": "16002", "P29_004": "沼田市立沼田中学校", "P29_005": "群馬県沼田市東原新町1801-1", "P29_006": "3", "P29_007": "1", "P29_008": "00", "P29_009": null }, "geometry": { "type": "Point", "coordinates": [ 139.060803282570532, 36.649907464012124 ] } },
{ "type": "Feature", "properties": { "P29_001": "10206", "P29_002": "C110210000621", "P29_003": "16002", "P29_004": "沼田市立沼田西中学校", "P29_005": "群馬県沼田市薄根町3580", "P29_006": "3", "P29_007": "1", "P29_008": "00", "P29_009": null }, "geometry": { "type": "Point", "coordinates": [ 139.033471146950433, 36.63732504886719 ] } },
{ "type": "Feature", "properties": { "P29_001": "10206", "P29_002": "C110210000630", "P29_003": "16002", "P29_004": "沼田市立池田中学校", "P29_005": "群馬県沼田市発知新田町533", "P29_006": "3", "P29_007": "1", "P29_008": "00", "P29_009": null }, "geometry": { "type": "Point", "coordinates": [ 139.062887745270814, 36.696901235994581 ] } },
{ "type": "Feature", "properties": { "P29_001": "10206", "P29_002": "C110210000649", "P29_003": "16002", "P29_004": "沼田市立薄根中学校", "P29_005": "群馬県沼田市善桂寺町40", "P29_006": "3", "P29_007": "1", "P29_008": "00", "P29_009": null }, "geometry": { "type": "Point", "coordinates": [ 139.038625407441486, 36.663686075106256 ] } },
{ "type": "Feature", "properties": { "P29_001": "10206", "P29_002": "C110210000658", "P29_003": "16002", "P29_004": "沼田市立沼田南中学校", "P29_005": "群馬県沼田市戸鹿野町726", "P29_006": "3", "P29_007": "1", "P29_008": "00", "P29_009": null }, "geometry": { "type": "Point", "coordinates": [ 139.045159691960663, 36.629235854440033 ] } },
{ "type": "Feature", "properties": { "P29_001": "10206", "P29_002": "C110210000667", "P29_003": "16002", "P29_004": "沼田市立沼田東中学校", "P29_005": "群馬県沼田市横塚町1118", "P29_006": "3", "P29_007": "1", "P29_008": "00", "P29_009": null }, "geometry": { "type": "Point", "coordinates": [ 139.087109584874725, 36.664947448901522 ] } },
{ "type": "Feature", "properties": { "P29_001": "10207", "P29_002": "C110210000676", "P29_003": "16002", "P29_004": "館林市立第一中学校", "P29_005": "群馬県館林市台宿町9-1", "P29_006": "3", "P29_007": "1", "P29_008": "00", "P29_009": null }, "geometry": { "type": "Point", "coordinates": [ 139.533002888146854, 36.255939180185116 ] } },
{ "type": "Feature", "properties": { "P29_001": "10207", "P29_002": "C110210000685", "P29_003": "16002", "P29_004": "館林市立第二中学校", "P29_005": "群馬県館林市加法師町8-20", "P29_006": "3", "P29_007": "1", "P29_008": "00", "P29_009": null }, "geometry": { "type": "Point", "coordinates": [ 139.550393094565123, 36.250118391231261 ] } },
{ "type": "Feature", "properties": { "P29_001": "10207", "P29_002": "C110210000694", "P29_003": "16002", "P29_004": "館林市立第四中学校", "P29_005": "群馬県館林市上赤生田町3471-1", "P29_006": "3", "P29_007": "1", "P29_008": "00", "P29_009": null }, "geometry": { "type": "Point", "coordinates": [ 139.544049030841876, 36.227386266891486 ] } },
{ "type": "Feature", "properties": { "P29_001": "10207", "P29_002": "C110210000701", "P29_003": "16002", "P29_004": "館林市立多々良中学校", "P29_005": "群馬県館林市西高根町50-23", "P29_006": "3", "P29_007": "1", "P29_008": "00", "P29_009": null }, "geometry": { "type": "Point", "coordinates": [ 139.509044994708887, 36.26068599787628 ] } },
{ "type": "Feature", "properties": { "P29_001": "10207", "P29_002": "C110210000710", "P29_003": "16002", "P29_004": "館林市立第三中学校", "P29_005": "群馬県館林市青柳町1751-78", "P29_006": "3", "P29_007": "1", "P29_008": "00", "P29_009": null }, "geometry": { "type": "Point", "coordinates": [ 139.514968719015798, 36.224807482337837 ] } },
{ "type": "Feature", "properties": { "P29_001": "10208", "P29_002": "C110210000729", "P29_003": "16002", "P29_004": "渋川市立渋川中学校", "P29_005": "群馬県渋川市渋川2555-2", "P29_006": "3", "P29_007": "1", "P29_008": "00", "P29_009": null }, "geometry": { "type": "Point", "coordinates": [ 138.999484786199417, 36.492261568369742 ] } },
{ "type": "Feature", "properties": { "P29_001": "10208", "P29_002": "C110210000738", "P29_003": "16002", "P29_004": "渋川市立金島中学校", "P29_005": "群馬県渋川市金井2007-1", "P29_006": "3", "P29_007": "1", "P29_008": "00", "P29_009": null }, "geometry": { "type": "Point", "coordinates": [ 138.982901592693679, 36.520474035223494 ] } },
{ "type": "Feature", "properties": { "P29_001": "10208", "P29_002": "C110210000747", "P29_003": "16002", "P29_004": "渋川市立古巻中学校", "P29_005": "群馬県渋川市有馬753", "P29_006": "3", "P29_007": "1", "P29_008": "00", "P29_009": null }, "geometry": { "type": "Point", "coordinates": [ 139.009808995731447, 36.463848004879672 ] } },
{ "type": "Feature", "properties": { "P29_001": "10208", "P29_002": "C110210000756", "P29_003": "16002", "P29_004": "渋川市立渋川北中学校", "P29_005": "群馬県渋川市金井1044", "P29_006": "3", "P29_007": "1", "P29_008": "00", "P29_009": null }, "geometry": { "type": "Point", "coordinates": [ 138.999188742976457, 36.504735021839906 ] } },
{ "type": "Feature", "properties": { "P29_001": "10209", "P29_002": "C110210000765", "P29_003": "16002", "P29_004": "藤岡市立西中学校", "P29_005": "群馬県藤岡市上大塚639", "P29_006": "3", "P29_007": "1", "P29_008": "00", "P29_009": null }, "geometry": { "type": "Point", "coordinates": [ 139.05032352379601, 36.238683105287613 ] } },
{ "type": "Feature", "properties": { "P29_001": "10209", "P29_002": "C110210000774", "P29_003": "16002", "P29_004": "藤岡市立東中学校", "P29_005": "群馬県藤岡市本郷786", "P29_006": "3", "P29_007": "1", "P29_008": "00", "P29_009": null }, "geometry": { "type": "Point", "coordinates": [ 139.076491640094133, 36.233233733282589 ] } },
{ "type": "Feature", "properties": { "P29_001": "10209", "P29_002": "C110210000783", "P29_003": "16002", "P29_004": "藤岡市立北中学校", "P29_005": "群馬県藤岡市下栗須283-2", "P29_006": "3", "P29_007": "1", "P29_008": "00", "P29_009": null }, "geometry": { "type": "Point", "coordinates": [ 139.082395202242424, 36.258575744997806 ] } },
{ "type": "Feature", "properties": { "P29_001": "10209", "P29_002": "C110210000792", "P29_003": "16002", "P29_004": "藤岡市立小野中学校", "P29_005": "群馬県藤岡市立石407", "P29_006": "3", "P29_007": "1", "P29_008": "00", "P29_009": null }, "geometry": { "type": "Point", "coordinates": [ 139.08060712051406, 36.274859694474713 ] } },
{ "type": "Feature", "properties": { "P29_001": "10210", "P29_002": "C110210000809", "P29_003": "16002", "P29_004": "富岡市立富岡中学校", "P29_005": "群馬県富岡市七日市1116-1", "P29_006": "3", "P29_007": "1", "P29_008": "00", "P29_009": null }, "geometry": { "type": "Point", "coordinates": [ 138.88348251294866, 36.255760600073685 ] } },
{ "type": "Feature", "properties": { "P29_001": "10210", "P29_002": "C110210000818", "P29_003": "16002", "P29_004": "富岡市立東中学校", "P29_005": "群馬県富岡市富岡864", "P29_006": "3", "P29_007": "1", "P29_008": "00", "P29_009": null }, "geometry": { "type": "Point", "coordinates": [ 138.898717000555365, 36.255479003622085 ] } },
{ "type": "Feature", "properties": { "P29_001": "10210", "P29_002": "C110210000827", "P29_003": "16002", "P29_004": "富岡市立西中学校", "P29_005": "群馬県富岡市宮崎20", "P29_006": "3", "P29_007": "1", "P29_008": "00", "P29_009": null }, "geometry": { "type": "Point", "coordinates": [ 138.841458389844121, 36.248885143072592 ] } },
{ "type": "Feature", "properties": { "P29_001": "10210", "P29_002": "C110210000836", "P29_003": "16002", "P29_004": "富岡市立北中学校", "P29_005": "群馬県富岡市相野田636", "P29_006": "3", "P29_007": "1", "P29_008": "00", "P29_009": null }, "geometry": { "type": "Point", "coordinates": [ 138.923648490110111, 36.289046401532474 ] } },
{ "type": "Feature", "properties": { "P29_001": "10210", "P29_002": "C110210000845", "P29_003": "16002", "P29_004": "富岡市立南中学校", "P29_005": "群馬県富岡市中高瀬1118", "P29_006": "3", "P29_007": "1", "P29_008": "00", "P29_009": null }, "geometry": { "type": "Point", "coordinates": [ 138.878070536747089, 36.242508730812567 ] } },
{ "type": "Feature", "properties": { "P29_001": "10211", "P29_002": "C110210000854", "P29_003": "16002", "P29_004": "安中市立第一中学校", "P29_005": "群馬県安中市安中5-8-1", "P29_006": "3", "P29_007": "1", "P29_008": "00", "P29_009": null }, "geometry": { "type": "Point", "coordinates": [ 138.904837335869587, 36.33644946292943 ] } },
{ "type": "Feature", "properties": { "P29_001": "10211", "P29_002": "C110210000863", "P29_003": "16002", "P29_004": "安中市立第二中学校", "P29_005": "群馬県安中市原市2245-2", "P29_006": "3", "P29_007": "1", "P29_008": "00", "P29_009": null }, "geometry": { "type": "Point", "coordinates": [ 138.856420001679027, 36.314673996991367 ] } },
{ "type": "Feature", "properties": { "P29_001": "10208", "P29_002": "C110210000872", "P29_003": "16002", "P29_004": "渋川市立北橘中学校", "P29_005": "群馬県渋川市北橘町真壁46", "P29_006": "3", "P29_007": "1", "P29_008": "00", "P29_009": null }, "geometry": { "type": "Point", "coordinates": [ 139.040915441502221, 36.487767924739586 ] } },
{ "type": "Feature", "properties": { "P29_001": "10208", "P29_002": "C110210000881", "P29_003": "16002", "P29_004": "渋川市立赤城南中学校", "P29_005": "群馬県渋川市赤城町滝沢191-1", "P29_006": "3", "P29_007": "1", "P29_008": "00", "P29_009": null }, "geometry": { "type": "Point", "coordinates": [ 139.047477678712227, 36.517507867638372 ] } },
{ "type": "Feature", "properties": { "P29_001": "10208", "P29_002": "C110210000890", "P29_003": "16002", "P29_004": "渋川市立赤城北中学校", "P29_005": "群馬県渋川市赤城町津久田2280", "P29_006": "3", "P29_007": "1", "P29_008": "00", "P29_009": null }, "geometry": { "type": "Point", "coordinates": [ 139.046939763994061, 36.552722842306565 ] } },
{ "type": "Feature", "properties": { "P29_001": "10201", "P29_002": "C110210000907", "P29_003": "16002", "P29_004": "前橋市立富士見中学校", "P29_005": "群馬県前橋市富士見町田島954-1", "P29_006": "3", "P29_007": "1", "P29_008": "00", "P29_009": null }, "geometry": { "type": "Point", "coordinates": [ 139.081937458678993, 36.456399901450581 ] } },
{ "type": "Feature", "properties": { "P29_001": "10201", "P29_002": "C110210000916", "P29_003": "16002", "P29_004": "前橋市立大胡中学校", "P29_005": "群馬県前橋市堀越町1152", "P29_006": "3", "P29_007": "1", "P29_008": "00", "P29_009": null }, "geometry": { "type": "Point", "coordinates": [ 139.156324029977611, 36.418499030619884 ] } },
{ "type": "Feature", "properties": { "P29_001": "10201", "P29_002": "C110210000925", "P29_003": "16002", "P29_004": "前橋市立宮城中学校", "P29_005": "群馬県前橋市鼻毛石町1564-1", "P29_006": "3", "P29_007": "1", "P29_008": "00", "P29_009": null }, "geometry": { "type": "Point", "coordinates": [ 139.177804532849052, 36.442758067891766 ] } },
{ "type": "Feature", "properties": { "P29_001": "10201", "P29_002": "C110210000934", "P29_003": "16002", "P29_004": "前橋市立粕川中学校", "P29_005": "群馬県前橋市粕川町西田面138", "P29_006": "3", "P29_007": "1", "P29_008": "00", "P29_009": null }, "geometry": { "type": "Point", "coordinates": [ 139.214121137629462, 36.411196670333666 ] } },
{ "type": "Feature", "properties": { "P29_001": "10203", "P29_002": "C110210000943", "P29_003": "16002", "P29_004": "桐生市立新里中学校", "P29_005": "群馬県桐生市新里町山上827", "P29_006": "3", "P29_007": "1", "P29_008": "00", "P29_009": null }, "geometry": { "type": "Point", "coordinates": [ 139.238198141378007, 36.429287257512755 ] } },
{ "type": "Feature", "properties": { "P29_001": "10202", "P29_002": "C110210000970", "P29_003": "16002", "P29_004": "高崎市立榛名中学校", "P29_005": "群馬県高崎市上里見町430", "P29_006": "3", "P29_007": "1", "P29_008": "00", "P29_009": null }, "geometry": { "type": "Point", "coordinates": [ 138.892849266040912, 36.380186493366551 ] } },
{ "type": "Feature", "properties": { "P29_001": "10202", "P29_002": "C110210000989", "P29_003": "16002", "P29_004": "高崎市立倉渕中学校", "P29_005": "群馬県高崎市倉渕町岩氷215-1", "P29_006": "3", "P29_007": "1", "P29_008": "00", "P29_009": null }, "geometry": { "type": "Point", "coordinates": [ 138.784951799684762, 36.430067876962347 ] } },
{ "type": "Feature", "properties": { "P29_001": "10202", "P29_002": "C110210000998", "P29_003": "16002", "P29_004": "高崎市立箕郷中学校", "P29_005": "群馬県高崎市箕郷町生原654", "P29_006": "3", "P29_007": "1", "P29_008": "00", "P29_009": null }, "geometry": { "type": "Point", "coordinates": [ 138.963853214973483, 36.396828528866735 ] } },
{ "type": "Feature", "properties": { "P29_001": "10202", "P29_002": "C110210001005", "P29_003": "16002", "P29_004": "高崎市立群馬中央中学校", "P29_005": "群馬県高崎市金古町352-1", "P29_006": "3", "P29_007": "1", "P29_008": "00", "P29_009": null }, "geometry": { "type": "Point", "coordinates": [ 139.003651891218368, 36.402970611150707 ] } },
{ "type": "Feature", "properties": { "P29_001": "10202", "P29_002": "C110210001014", "P29_003": "16002", "P29_004": "高崎市立群馬南中学校", "P29_005": "群馬県高崎市三ッ寺町712", "P29_006": "3", "P29_007": "1", "P29_008": "00", "P29_009": null }, "geometry": { "type": "Point", "coordinates": [ 138.995060161627237, 36.374418619126871 ] } },
{ "type": "Feature", "properties": { "P29_001": "10208", "P29_002": "C110210001023", "P29_003": "16002", "P29_004": "渋川市立子持中学校", "P29_005": "群馬県渋川市中郷2258-3", "P29_006": "3", "P29_007": "1", "P29_008": "00", "P29_009": null }, "geometry": { "type": "Point", "coordinates": [ 139.00455323451456, 36.529967341260694 ] } },
{ "type": "Feature", "properties": { "P29_001": "10208", "P29_002": "C110210001032", "P29_003": "16002", "P29_004": "渋川市立伊香保中学校", "P29_005": "群馬県渋川市伊香保町伊香保544-16", "P29_006": "3", "P29_007": "1", "P29_008": "00", "P29_009": null }, "geometry": { "type": "Point", "coordinates": [ 138.931045292331049, 36.501629782343009 ] } },
{ "type": "Feature", "properties": { "P29_001": "10344", "P29_002": "C110210001041", "P29_003": "16002", "P29_004": "榛東村立榛東中学校", "P29_005": "群馬県北群馬郡榛東村新井598-1", "P29_006": "3", "P29_007": "1", "P29_008": "00", "P29_009": null }, "geometry": { "type": "Point", "coordinates": [ 138.976063646283791, 36.433717697982196 ] } },
{ "type": "Feature", "properties": { "P29_001": "10345", "P29_002": "C110210001050", "P29_003": "16002", "P29_004": "吉岡町立吉岡中学校", "P29_005": "群馬県北群馬郡吉岡町南下1383-2", "P29_006": "3", "P29_007": "1", "P29_008": "00", "P29_009": null }, "geometry": { "type": "Point", "coordinates": [ 139.008698664299345, 36.444871503630978 ] } },
{ "type": "Feature", "properties": { "P29_001": "10202", "P29_002": "C110210001069", "P29_003": "16002", "P29_004": "高崎市立新町中学校", "P29_005": "群馬県高崎市新町361-1", "P29_006": "3", "P29_007": "1", "P29_008": "00", "P29_009": null }, "geometry": { "type": "Point", "coordinates": [ 139.112718253323209, 36.276318479173923 ] } },
{ "type": "Feature", "properties": { "P29_001": "10209", "P29_002": "C110210001078", "P29_003": "16002", "P29_004": "藤岡市立鬼石中学校", "P29_005": "群馬県藤岡市鬼石235-1", "P29_006": "3", "P29_007": "1", "P29_008": "00", "P29_009": null }, "geometry": { "type": "Point", "coordinates": [ 139.062058747986811, 36.159706394953922 ] } },
{ "type": "Feature", "properties": { "P29_001": "10202", "P29_002": "C110210001087", "P29_003": "16002", "P29_004": "高崎市立入野中学校", "P29_005": "群馬県高崎市吉井町石神321-1", "P29_006": "3", "P29_007": "1", "P29_008": "00", "P29_009": null }, "geometry": { "type": "Point", "coordinates": [ 139.004431995690823, 36.250748000576735 ] } },
{ "type": "Feature", "properties": { "P29_001": "10202", "P29_002": "C110210001096", "P29_003": "16002", "P29_004": "高崎市立吉井中央中学校", "P29_005": "群馬県高崎市吉井町吉井川581", "P29_006": "3", "P29_007": "1", "P29_008": "00", "P29_009": null }, "geometry": { "type": "Point", "coordinates": [ 138.989237985765328, 36.248815714985916 ] } },
{ "type": "Feature", "properties": { "P29_001": "10202", "P29_002": "C110210001103", "P29_003": "16002", "P29_004": "高崎市立吉井西中学校", "P29_005": "群馬県高崎市吉井町本郷45", "P29_006": "3", "P29_007": "1", "P29_008": "00", "P29_009": null }, "geometry": { "type": "Point", "coordinates": [ 138.971857202865237, 36.258673210825521 ] } },
{ "type": "Feature", "properties": { "P29_001": "10367", "P29_002": "C110210001112", "P29_003": "16002", "P29_004": "神流町立中里中学校", "P29_005": "群馬県多野郡神流町大字神ヶ原422", "P29_006": "3", "P29_007": "1", "P29_008": "00", "P29_009": null }, "geometry": { "type": "Point", "coordinates": [ 138.828890129705741, 36.092048229301369 ] } },
{ "type": "Feature", "properties": { "P29_001": "10366", "P29_002": "C110210001121", "P29_003": "16002", "P29_004": "上野村立上野中学校", "P29_005": "群馬県多野郡上野村大字楢原113", "P29_006": "3", "P29_007": "1", "P29_008": "00", "P29_009": null }, "geometry": { "type": "Point", "coordinates": [ 138.738968960647384, 36.08876715828125 ] } },
{ "type": "Feature", "properties": { "P29_001": "10210", "P29_002": "C110210001130", "P29_003": "16002", "P29_004": "富岡市立妙義中学校", "P29_005": "群馬県富岡市妙義町中里218", "P29_006": "3", "P29_007": "1", "P29_008": "00", "P29_009": null }, "geometry": { "type": "Point", "coordinates": [ 138.800738228677744, 36.293061103125076 ] } },
{ "type": "Feature", "properties": { "P29_001": "10382", "P29_002": "C110210001149", "P29_003": "16002", "P29_004": "下仁田町立下仁田中学校", "P29_005": "群馬県甘楽郡下仁田町大字下仁田26", "P29_006": "3", "P29_007": "1", "P29_008": "00", "P29_009": null }, "geometry": { "type": "Point", "coordinates": [ 138.77987248225071, 36.214138981804751 ] } },
{ "type": "Feature", "properties": { "P29_001": "10383", "P29_002": "C110210001158", "P29_003": "16002", "P29_004": "南牧村立南牧中学校", "P29_005": "群馬県甘楽郡南牧村大字大日向1045", "P29_006": "3", "P29_007": "1", "P29_008": "00", "P29_009": null }, "geometry": { "type": "Point", "coordinates": [ 138.707712323698388, 36.158358803630364 ] } },
{ "type": "Feature", "properties": { "P29_001": "10384", "P29_002": "C110210001167", "P29_003": "16002", "P29_004": "甘楽町立甘楽中学校", "P29_005": "群馬県甘楽郡甘楽町大字白倉1411", "P29_006": "3", "P29_007": "1", "P29_008": "00", "P29_009": null }, "geometry": { "type": "Point", "coordinates": [ 138.936050304920343, 36.244968942879595 ] } },
{ "type": "Feature", "properties": { "P29_001": "10421", "P29_002": "C110210001201", "P29_003": "16002", "P29_004": "中之条町立中之条中学校", "P29_005": "群馬県吾妻郡中之条町大字中之条町1395-1", "P29_006": "3", "P29_007": "1", "P29_008": "00", "P29_009": null }, "geometry": { "type": "Point", "coordinates": [ 138.84579203803159, 36.600709510687814 ] } },
{ "type": "Feature", "properties": { "P29_001": "10429", "P29_002": "C110210001210", "P29_003": "16002", "P29_004": "東吾妻町立東吾妻中学校", "P29_005": "群馬県吾妻郡東吾妻町大字原町5230", "P29_006": "3", "P29_007": "1", "P29_008": "00", "P29_009": null }, "geometry": { "type": "Point", "coordinates": [ 138.827511585573262, 36.578659073565895 ] } },
{ "type": "Feature", "properties": { "P29_001": "10425", "P29_002": "C110210001247", "P29_003": "16002", "P29_004": "嬬恋村立嬬恋中学校", "P29_005": "群馬県吾妻郡嬬恋村大字大笹1654-2", "P29_006": "3", "P29_007": "1", "P29_008": "00", "P29_009": null }, "geometry": { "type": "Point", "coordinates": [ 138.51343599826464, 36.507248996617285 ] } },
{ "type": "Feature", "properties": { "P29_001": "10426", "P29_002": "C110210001256", "P29_003": "16002", "P29_004": "草津町立草津中学校", "P29_005": "群馬県吾妻郡草津町大字草津464-27", "P29_006": "3", "P29_007": "1", "P29_008": "00", "P29_009": null }, "geometry": { "type": "Point", "coordinates": [ 138.590673059571742, 36.62026799213325 ] } },
{ "type": "Feature", "properties": { "P29_001": "10421", "P29_002": "C110210001265", "P29_003": "16002", "P29_004": "中之条町立六合中学校", "P29_005": "群馬県吾妻郡中之条町大字生須543-1", "P29_006": "3", "P29_007": "1", "P29_008": "00", "P29_009": null }, "geometry": { "type": "Point", "coordinates": [ 138.638863552505427, 36.604224734366326 ] } },
{ "type": "Feature", "properties": { "P29_001": "10428", "P29_002": "C110210001274", "P29_003": "16002", "P29_004": "高山村立高山中学校", "P29_005": "群馬県吾妻郡高山村中山3750-1", "P29_006": "3", "P29_007": "1", "P29_008": "00", "P29_009": null }, "geometry": { "type": "Point", "coordinates": [ 138.945343961165889, 36.627398083621074 ] } },
{ "type": "Feature", "properties": { "P29_001": "10206", "P29_002": "C110210001283", "P29_003": "16002", "P29_004": "沼田市立白沢中学校", "P29_005": "群馬県沼田市白沢町高平75-1", "P29_006": "3", "P29_007": "1", "P29_008": "00", "P29_009": null }, "geometry": { "type": "Point", "coordinates": [ 139.133417833970896, 36.664044832305237 ] } },
{ "type": "Feature", "properties": { "P29_001": "10206", "P29_002": "C110210001292", "P29_003": "16002", "P29_004": "沼田市立利根中学校", "P29_005": "群馬県沼田市利根町追貝334", "P29_006": "3", "P29_007": "1", "P29_008": "00", "P29_009": null }, "geometry": { "type": "Point", "coordinates": [ 139.212774103343975, 36.698535219515179 ] } },
{ "type": "Feature", "properties": { "P29_001": "10206", "P29_002": "C110210001309", "P29_003": "16002", "P29_004": "沼田市立多那中学校", "P29_005": "群馬県沼田市利根町多那732", "P29_006": "3", "P29_007": "1", "P29_008": "00", "P29_009": null }, "geometry": { "type": "Point", "coordinates": [ 139.145943013306123, 36.637946011302468 ] } },
{ "type": "Feature", "properties": { "P29_001": "10443", "P29_002": "C110210001318", "P29_003": "16002", "P29_004": "片品村立片品中学校", "P29_005": "群馬県利根郡片品村鎌田4480", "P29_006": "3", "P29_007": "1", "P29_008": "00", "P29_009": null }, "geometry": { "type": "Point", "coordinates": [ 139.239747634598842, 36.772238079444051 ] } },
{ "type": "Feature", "properties": { "P29_001": "10444", "P29_002": "C110210001327", "P29_003": "16002", "P29_004": "川場村立川場中学校", "P29_005": "群馬県利根郡川場村谷地2494", "P29_006": "3", "P29_007": "1", "P29_008": "00", "P29_009": null }, "geometry": { "type": "Point", "coordinates": [ 139.11034448957966, 36.697446582856735 ] } },
{ "type": "Feature", "properties": { "P29_001": "10448", "P29_002": "C110210001372", "P29_003": "16002", "P29_004": "昭和村立昭和中学校", "P29_005": "群馬県利根郡昭和村大字橡久保488-1", "P29_006": "3", "P29_007": "1", "P29_008": "00", "P29_009": null }, "geometry": { "type": "Point", "coordinates": [ 139.058824137437284, 36.627579665464822 ] } },
{ "type": "Feature", "properties": { "P29_001": "10204", "P29_002": "C110210001381", "P29_003": "16002", "P29_004": "伊勢崎市立赤堀中学校", "P29_005": "群馬県伊勢崎市西久保町2-329-1", "P29_006": "3", "P29_007": "1", "P29_008": "00", "P29_009": null }, "geometry": { "type": "Point", "coordinates": [ 139.236959315598995, 36.3747700225667 ] } },
{ "type": "Feature", "properties": { "P29_001": "10204", "P29_002": "C110210001390", "P29_003": "16002", "P29_004": "伊勢崎市立あずま中学校", "P29_005": "群馬県伊勢崎市東町2707-2", "P29_006": "3", "P29_007": "1", "P29_008": "00", "P29_009": null }, "geometry": { "type": "Point", "coordinates": [ 139.243516006048907, 36.343856969950551 ] } },
{ "type": "Feature", "properties": { "P29_001": "10204", "P29_002": "C110210001407", "P29_003": "16002", "P29_004": "伊勢崎市立境北中学校", "P29_005": "群馬県伊勢崎市境下渕名2011-1", "P29_006": "3", "P29_007": "1", "P29_008": "00", "P29_009": null }, "geometry": { "type": "Point", "coordinates": [ 139.238618248421432, 36.299300325238157 ] } },
{ "type": "Feature", "properties": { "P29_001": "10204", "P29_002": "C110210001416", "P29_003": "16002", "P29_004": "伊勢崎市立境西中学校", "P29_005": "群馬県伊勢崎市境下武士872-2", "P29_006": "3", "P29_007": "1", "P29_008": "00", "P29_009": null }, "geometry": { "type": "Point", "coordinates": [ 139.235568876982427, 36.276735456686367 ] } },
{ "type": "Feature", "properties": { "P29_001": "10204", "P29_002": "C110210001425", "P29_003": "16002", "P29_004": "伊勢崎市立境南中学校", "P29_005": "群馬県伊勢崎市境188", "P29_006": "3", "P29_007": "1", "P29_008": "00", "P29_009": null }, "geometry": { "type": "Point", "coordinates": [ 139.255143371814, 36.267334941552264 ] } },
{ "type": "Feature", "properties": { "P29_001": "10464", "P29_002": "C110210001434", "P29_003": "16002", "P29_004": "玉村町立玉村中学校", "P29_005": "群馬県佐波郡玉村町福島913", "P29_006": "3", "P29_007": "1", "P29_008": "00", "P29_009": null }, "geometry": { "type": "Point", "coordinates": [ 139.128473306757655, 36.311890577958081 ] } },
{ "type": "Feature", "properties": { "P29_001": "10464", "P29_002": "C110210001443", "P29_003": "16002", "P29_004": "玉村町立南中学校", "P29_005": "群馬県佐波郡玉村町上之手1748", "P29_006": "3", "P29_007": "1", "P29_008": "00", "P29_009": null }, "geometry": { "type": "Point", "coordinates": [ 139.122993600332478, 36.298755931346228 ] } },
{ "type": "Feature", "properties": { "P29_001": "10205", "P29_002": "C110210001452", "P29_003": "16002", "P29_004": "太田市立尾島中学校", "P29_005": "群馬県太田市亀岡町584-1", "P29_006": "3", "P29_007": "1", "P29_008": "00", "P29_009": null }, "geometry": { "type": "Point", "coordinates": [ 139.312744371291927, 36.25518285332825 ] } },
{ "type": "Feature", "properties": { "P29_001": "10205", "P29_002": "C110210001461", "P29_003": "16002", "P29_004": "太田市立木崎中学校", "P29_005": "群馬県太田市新田木崎町301", "P29_006": "3", "P29_007": "1", "P29_008": "00", "P29_009": null }, "geometry": { "type": "Point", "coordinates": [ 139.302952633084914, 36.274117500682387 ] } },
{ "type": "Feature", "properties": { "P29_001": "10205", "P29_002": "C110210001470", "P29_003": "16002", "P29_004": "太田市立生品中学校", "P29_005": "群馬県太田市新田市野井町121", "P29_006": "3", "P29_007": "1", "P29_008": "00", "P29_009": null }, "geometry": { "type": "Point", "coordinates": [ 139.310477636086915, 36.315634481249795 ] } },
{ "type": "Feature", "properties": { "P29_001": "10205", "P29_002": "C110210001489", "P29_003": "16002", "P29_004": "太田市立綿打中学校", "P29_005": "群馬県太田市新田上田中町182-1", "P29_006": "3", "P29_007": "1", "P29_008": "00", "P29_009": null }, "geometry": { "type": "Point", "coordinates": [ 139.276175974953645, 36.299883136497172 ] } },
{ "type": "Feature", "properties": { "P29_001": "10205", "P29_002": "C110210001498", "P29_003": "16002", "P29_004": "太田市立藪塚本町中学校", "P29_005": "群馬県太田市大原町695", "P29_006": "3", "P29_007": "1", "P29_008": "00", "P29_009": null }, "geometry": { "type": "Point", "coordinates": [ 139.295117912094469, 36.358996116517474 ] } },
{ "type": "Feature", "properties": { "P29_001": "10212", "P29_002": "C110210001504", "P29_003": "16002", "P29_004": "みどり市立笠懸中学校", "P29_005": "群馬県みどり市笠懸町鹿362-1", "P29_006": "3", "P29_007": "1", "P29_008": "00", "P29_009": null }, "geometry": { "type": "Point", "coordinates": [ 139.281268626758873, 36.391844730261155 ] } },
{ "type": "Feature", "properties": { "P29_001": "10212", "P29_002": "C110210001513", "P29_003": "16002", "P29_004": "みどり市立笠懸南中学校", "P29_005": "群馬県みどり市笠懸町阿左美829", "P29_006": "3", "P29_007": "1", "P29_008": "00", "P29_009": null }, "geometry": { "type": "Point", "coordinates": [ 139.293110192118519, 36.388892744904638 ] } },
{ "type": "Feature", "properties": { "P29_001": "10212", "P29_002": "C110210001522", "P29_003": "16002", "P29_004": "みどり市立大間々中学校", "P29_005": "群馬県みどり市大間々町桐原217", "P29_006": "3", "P29_007": "1", "P29_008": "00", "P29_009": null }, "geometry": { "type": "Point", "coordinates": [ 139.272000002332163, 36.437095493281596 ] } },
{ "type": "Feature", "properties": { "P29_001": "10212", "P29_002": "C110210001531", "P29_003": "16002", "P29_004": "みどり市立大間々東中学校", "P29_005": "群馬県みどり市大間々町大間々1829-1", "P29_006": "3", "P29_007": "1", "P29_008": "00", "P29_009": null }, "geometry": { "type": "Point", "coordinates": [ 139.282811488530996, 36.42232075734335 ] } },
{ "type": "Feature", "properties": { "P29_001": "10521", "P29_002": "C110210001540", "P29_003": "16002", "P29_004": "板倉町立板倉中学校", "P29_005": "群馬県邑楽郡板倉町板倉2770", "P29_006": "3", "P29_007": "1", "P29_008": "00", "P29_009": null }, "geometry": { "type": "Point", "coordinates": [ 139.600806725879693, 36.22890830920786 ] } },
{ "type": "Feature", "properties": { "P29_001": "10522", "P29_002": "C110210001559", "P29_003": "16002", "P29_004": "明和町立明和中学校", "P29_005": "群馬県邑楽郡明和町新里298-1", "P29_006": "3", "P29_007": "1", "P29_008": "00", "P29_009": null }, "geometry": { "type": "Point", "coordinates": [ 139.536647061403926, 36.209050993403949 ] } },
{ "type": "Feature", "properties": { "P29_001": "10523", "P29_002": "C110210001568", "P29_003": "16002", "P29_004": "千代田町立千代田中学校", "P29_005": "群馬県邑楽郡千代田町赤岩1920", "P29_006": "3", "P29_007": "1", "P29_008": "00", "P29_009": null }, "geometry": { "type": "Point", "coordinates": [ 139.443746421358128, 36.216260143104314 ] } },
{ "type": "Feature", "properties": { "P29_001": "10524", "P29_002": "C110210001577", "P29_003": "16002", "P29_004": "大泉町立南中学校", "P29_005": "群馬県邑楽郡大泉町大字吉田2465", "P29_006": "3", "P29_007": "1", "P29_008": "00", "P29_009": null }, "geometry": { "type": "Point", "coordinates": [ 139.407520981210752, 36.245671338519422 ] } },
{ "type": "Feature", "properties": { "P29_001": "10524", "P29_002": "C110210001586", "P29_003": "16002", "P29_004": "大泉町立北中学校", "P29_005": "群馬県邑楽郡大泉町城之内2-24-1", "P29_006": "3", "P29_007": "1", "P29_008": "00", "P29_009": null }, "geometry": { "type": "Point", "coordinates": [ 139.412907341107939, 36.261208017761227 ] } },
{ "type": "Feature", "properties": { "P29_001": "10524", "P29_002": "C110210001595", "P29_003": "16002", "P29_004": "大泉町立西中学校", "P29_005": "群馬県邑楽郡大泉町寄木戸533", "P29_006": "3", "P29_007": "1", "P29_008": "00", "P29_009": null }, "geometry": { "type": "Point", "coordinates": [ 139.391927212604202, 36.252440318200726 ] } },
{ "type": "Feature", "properties": { "P29_001": "10525", "P29_002": "C110210001602", "P29_003": "16002", "P29_004": "邑楽町立邑楽中学校", "P29_005": "群馬県邑楽郡邑楽町中野2371", "P29_006": "3", "P29_007": "1", "P29_008": "00", "P29_009": null }, "geometry": { "type": "Point", "coordinates": [ 139.457641963325187, 36.254605680313894 ] } },
{ "type": "Feature", "properties": { "P29_001": "10525", "P29_002": "C110210001611", "P29_003": "16002", "P29_004": "邑楽町立邑楽南中学校", "P29_005": "群馬県邑楽郡邑楽町篠塚1445", "P29_006": "3", "P29_007": "1", "P29_008": "00", "P29_009": null }, "geometry": { "type": "Point", "coordinates": [ 139.462080353754828, 36.242074284328844 ] } },
{ "type": "Feature", "properties": { "P29_001": "10201", "P29_002": "C110210001620", "P29_003": "16002", "P29_004": "前橋市立明桜中学校", "P29_005": "群馬県前橋市後閑町50-4", "P29_006": "3", "P29_007": "1", "P29_008": "00", "P29_009": null }, "geometry": { "type": "Point", "coordinates": [ 139.098948003835289, 36.362740003441964 ] } },
{ "type": "Feature", "properties": { "P29_001": "10211", "P29_002": "C110210001639", "P29_003": "16002", "P29_004": "安中市立松井田中学校", "P29_005": "群馬県安中市新堀236-16", "P29_006": "3", "P29_007": "1", "P29_008": "00", "P29_009": null }, "geometry": { "type": "Point", "coordinates": [ 138.791946048563346, 36.31558142155378 ] } },
{ "type": "Feature", "properties": { "P29_001": "10449", "P29_002": "C110210001648", "P29_003": "16002", "P29_004": "みなかみ町立みなかみ中学校", "P29_005": "群馬県利根郡みなかみ町月夜野80", "P29_006": "3", "P29_007": "1", "P29_008": "00", "P29_009": null }, "geometry": { "type": "Point", "coordinates": [ 138.991250446368099, 36.679338995423663 ] } },
{ "type": "Feature", "properties": { "P29_001": "10424", "P29_002": "C110210001657", "P29_003": "16002", "P29_004": "長野原町立長野原中学校", "P29_005": "群馬県吾妻郡長野原町大字長野原1110-1", "P29_006": "3", "P29_007": "1", "P29_008": "00", "P29_009": null }, "geometry": { "type": "Point", "coordinates": [ 138.655605187750297, 36.548806913579092 ] } },
{ "type": "Feature", "properties": { "P29_001": "10204", "P29_002": "C110210001666", "P29_003": "16002", "P29_004": "群馬県立みらい共創中学校", "P29_005": "群馬県伊勢崎市今泉町1-233-2", "P29_006": "2", "P29_007": "1", "P29_008": "00", "P29_009": null }, "geometry": { "type": "Point", "coordinates": [ 139.208900394379953, 36.31493136121329 ] } },
{ "type": "Feature", "properties": { "P29_001": "10201", "P29_002": "C110310000013", "P29_003": "16002", "P29_004": "共愛学園中学校", "P29_005": "群馬県前橋市小屋原町1115-3", "P29_006": "4", "P29_007": "1", "P29_008": "00", "P29_009": null }, "geometry": { "type": "Point", "coordinates": [ 139.140167096240475, 36.35914832549296 ] } },
{ "type": "Feature", "properties": { "P29_001": "10211", "P29_002": "C110310000022", "P29_003": "16002", "P29_004": "新島学園中学校", "P29_005": "群馬県安中市安中3702", "P29_006": "4", "P29_007": "1", "P29_008": "00", "P29_009": null }, "geometry": { "type": "Point", "coordinates": [ 138.900817617104792, 36.325415460206763 ] } },
{ "type": "Feature", "properties": { "P29_001": "10421", "P29_002": "C110310000031", "P29_003": "16002", "P29_004": "白根開善学校中等部", "P29_005": "群馬県吾妻郡中之条町大字入山1-1", "P29_006": "4", "P29_007": "1", "P29_008": "00", "P29_009": null }, "geometry": { "type": "Point", "coordinates": [ 138.612630926840893, 36.664033873697527 ] } },
{ "type": "Feature", "properties": { "P29_001": "10203", "P29_002": "C110310000040", "P29_003": "16002", "P29_004": "樹徳中学校", "P29_005": "群馬県桐生市稲荷町4-12", "P29_006": "4", "P29_007": "1", "P29_008": "00", "P29_009": null }, "geometry": { "type": "Point", "coordinates": [ 139.331997436937996, 36.407328142520953 ] } },
{ "type": "Feature", "properties": { "P29_001": "10205", "P29_002": "C110310000059", "P29_003": "16002", "P29_004": "ぐんま国際アカデミー中等部", "P29_005": "群馬県太田市内ヶ島町1361-4", "P29_006": "4", "P29_007": "1", "P29_008": "00", "P29_009": null }, "geometry": { "type": "Point", "coordinates": [ 139.396848975794342, 36.291695037636956 ] } },
{ "type": "Feature", "properties": { "P29_001": "10203", "P29_002": "C110310000068", "P29_003": "16002", "P29_004": "桐生大学附属中学校", "P29_005": "群馬県桐生市小曾根町9-17", "P29_006": "4", "P29_007": "1", "P29_008": "00", "P29_009": null }, "geometry": { "type": "Point", "coordinates": [ 139.334837641414168, 36.41377085299959 ] } },
{ "type": "Feature", "properties": { "P29_001": "10202", "P29_002": "C110310000077", "P29_003": "16002", "P29_004": "東京農業大学第二高等学校中等部", "P29_005": "群馬県高崎市石原町3430", "P29_006": "4", "P29_007": "1", "P29_008": "00", "P29_009": null }, "geometry": { "type": "Point", "coordinates": [ 138.999794118137117, 36.301393523750725 ] } }
]
}
