{
"type": "FeatureCollection",
"name": "geo_10_短期入所生活介護",
"crs": { "type": "name", "properties": { "name": "urn:ogc:def:crs:OGC:1.3:CRS84" } },
"features": [
{ "type": "Feature", "properties": { "内容": "特別養護老人ホーム　グランオー前橋【短期入所生活介護】群馬県前橋市千代田町5丁目17－5", "url2": "https://www.kaigokensaku.mhlw.go.jp/10/index.php?action_kouhyou_detail_004_kani=true&JigyosyoCd=1070108087-00&ServiceCd=210&Type=search" }, "geometry": { "type": "Point", "coordinates": [ 139.072557100000012, 36.3923339 ] } },
{ "type": "Feature", "properties": { "内容": "特別養護老人ホームサンライフ南町【短期入所生活介護】群馬県前橋市南町二丁目６７番地５", "url2": "https://www.kaigokensaku.mhlw.go.jp/10/index.php?action_kouhyou_detail_004_kani=true&JigyosyoCd=1070108731-00&ServiceCd=210&Type=search" }, "geometry": { "type": "Point", "coordinates": [ 139.0672413, 36.3732243 ] } },
{ "type": "Feature", "properties": { "内容": "ショートステイ桜桃園【短期入所生活介護】群馬県前橋市房丸町４８番地1", "url2": "https://www.kaigokensaku.mhlw.go.jp/10/index.php?action_kouhyou_detail_004_kani=true&JigyosyoCd=1070103245-00&ServiceCd=210&Type=search" }, "geometry": { "type": "Point", "coordinates": [ 139.111950900000011, 36.3388076 ] } },
{ "type": "Feature", "properties": { "内容": "特別養護老人ホーム　せきね園（ショートステイ）【短期入所生活介護】群馬県前橋市関根町　６６８番地", "url2": "https://www.kaigokensaku.mhlw.go.jp/10/index.php?action_kouhyou_detail_004_kani=true&JigyosyoCd=1070100852-00&ServiceCd=210&Type=search" }, "geometry": { "type": "Point", "coordinates": [ 139.046182700000031, 36.4381659 ] } },
{ "type": "Feature", "properties": { "内容": "ショートステイ　ルネス前橋【短期入所生活介護】群馬県前橋市岩神町二丁目3-27", "url2": "https://www.kaigokensaku.mhlw.go.jp/10/index.php?action_kouhyou_detail_004_kani=true&JigyosyoCd=1070106032-00&ServiceCd=210&Type=search" }, "geometry": { "type": "Point", "coordinates": [ 139.059555496958893, 36.401442304101664 ] } },
{ "type": "Feature", "properties": { "内容": "特別養護老人ホーム明風園【短期入所生活介護】群馬県前橋市亀泉町1-26", "url2": "https://www.kaigokensaku.mhlw.go.jp/10/index.php?action_kouhyou_detail_004_kani=true&JigyosyoCd=1070103526-00&ServiceCd=210&Type=search" }, "geometry": { "type": "Point", "coordinates": [ 139.126747499999965, 36.404798 ] } },
{ "type": "Feature", "properties": { "内容": "特別養護老人ホームやすらぎ園【短期入所生活介護】群馬県前橋市江木町1225-1", "url2": "https://www.kaigokensaku.mhlw.go.jp/10/index.php?action_kouhyou_detail_004_kani=true&JigyosyoCd=1070100530-00&ServiceCd=210&Type=search" }, "geometry": { "type": "Point", "coordinates": [ 139.133257599999979, 36.4064396 ] } },
{ "type": "Feature", "properties": { "内容": "特別養護老人ホーム春日の里【短期入所生活介護】群馬県前橋市上佐鳥町７７４番地", "url2": "https://www.kaigokensaku.mhlw.go.jp/10/index.php?action_kouhyou_detail_004_kani=true&JigyosyoCd=1070100563-00&ServiceCd=210&Type=search" }, "geometry": { "type": "Point", "coordinates": [ 139.083955, 36.3557527 ] } },
{ "type": "Feature", "properties": { "内容": "特別養護老人ホームかまくら【短期入所生活介護】群馬県前橋市上細井町2050-7", "url2": "https://www.kaigokensaku.mhlw.go.jp/10/index.php?action_kouhyou_detail_004_kani=true&JigyosyoCd=1070102403-00&ServiceCd=210&Type=search" }, "geometry": { "type": "Point", "coordinates": [ 139.079944899999987, 36.4149756 ] } },
{ "type": "Feature", "properties": { "内容": "ショートステイまえばし上泉の里【短期入所生活介護】群馬県前橋市上泉町1870-1", "url2": "https://www.kaigokensaku.mhlw.go.jp/10/index.php?action_kouhyou_detail_004_kani=true&JigyosyoCd=1070101934-00&ServiceCd=210&Type=search" }, "geometry": { "type": "Point", "coordinates": [ 139.120859399999972, 36.4084417 ] } },
{ "type": "Feature", "properties": { "内容": "特別養護老人ホーム上毛の里【短期入所生活介護】群馬県前橋市上増田町６００番地", "url2": "https://www.kaigokensaku.mhlw.go.jp/10/index.php?action_kouhyou_detail_004_kani=true&JigyosyoCd=1070100548-00&ServiceCd=210&Type=search" }, "geometry": { "type": "Point", "coordinates": [ 139.149270900000033, 36.3525874 ] } },
{ "type": "Feature", "properties": { "内容": "特別養護老人ホーム　生糸（いと）の街【短期入所生活介護】群馬県前橋市西片貝町三丁目２８５番地", "url2": "https://www.kaigokensaku.mhlw.go.jp/10/index.php?action_kouhyou_detail_004_kani=true&JigyosyoCd=1070108400-00&ServiceCd=210&Type=search" }, "geometry": { "type": "Point", "coordinates": [ 139.098562353442389, 36.387697459067503 ] } },
{ "type": "Feature", "properties": { "内容": "特別養護老人ホーム清里荘【短期入所生活介護】群馬県前橋市青梨子町５０３", "url2": "https://www.kaigokensaku.mhlw.go.jp/10/index.php?action_kouhyou_detail_004_kani=true&JigyosyoCd=1070100936-00&ServiceCd=210&Type=search" }, "geometry": { "type": "Point", "coordinates": [ 139.016675699999951, 36.4134354 ] } },
{ "type": "Feature", "properties": { "内容": "ショートステイ　グランヴィル前橋【短期入所生活介護】群馬県前橋市千代田町3丁目3－20", "url2": "https://www.kaigokensaku.mhlw.go.jp/10/index.php?action_kouhyou_detail_004_kani=true&JigyosyoCd=1070103153-00&ServiceCd=210&Type=search" }, "geometry": { "type": "Point", "coordinates": [ 139.06961350000006, 36.3949949 ] } },
{ "type": "Feature", "properties": { "内容": "特別養護老人ホームサンライフアネックス【短期入所生活介護】群馬県前橋市総社町総社３０５１番地４", "url2": "https://www.kaigokensaku.mhlw.go.jp/10/index.php?action_kouhyou_detail_004_kani=true&JigyosyoCd=1070107162-00&ServiceCd=210&Type=search" }, "geometry": { "type": "Point", "coordinates": [ 139.03623023254093, 36.39458666281736 ] } },
{ "type": "Feature", "properties": { "内容": "特別養護老人ホームこうふく園【短期入所生活介護】群馬県前橋市大胡町３５１－１", "url2": "https://www.kaigokensaku.mhlw.go.jp/10/index.php?action_kouhyou_detail_004_kani=true&JigyosyoCd=1070102429-00&ServiceCd=210&Type=search" }, "geometry": { "type": "Point", "coordinates": [ 139.1607232, 36.4093621 ] } },
{ "type": "Feature", "properties": { "内容": "ショートステイほなみ【短期入所生活介護】群馬県前橋市朝倉町842-1", "url2": "https://www.kaigokensaku.mhlw.go.jp/10/index.php?action_kouhyou_detail_004_kani=true&JigyosyoCd=1070107402-00&ServiceCd=210&Type=search" }, "geometry": { "type": "Point", "coordinates": [ 139.09269519999998, 36.3710705 ] } },
{ "type": "Feature", "properties": { "内容": "ショートステイほなみ（空床利用型）【短期入所生活介護】群馬県前橋市朝倉町842-1", "url2": "https://www.kaigokensaku.mhlw.go.jp/10/index.php?action_kouhyou_detail_004_kani=true&JigyosyoCd=1070108236-00&ServiceCd=210&Type=search" }, "geometry": { "type": "Point", "coordinates": [ 139.087035500000013, 36.3699331 ] } },
{ "type": "Feature", "properties": { "内容": "シンシア前橋ショートステイ【短期入所生活介護】群馬県前橋市朝日町3丁目16-2", "url2": "https://www.kaigokensaku.mhlw.go.jp/10/index.php?action_kouhyou_detail_004_kani=true&JigyosyoCd=1070107501-00&ServiceCd=210&Type=search" }, "geometry": { "type": "Point", "coordinates": [ 139.08825939999997, 36.3840605 ] } },
{ "type": "Feature", "properties": { "内容": "ショートステイサービス　えいめい【短期入所生活介護】群馬県前橋市天川大島町三丁目７０５番地", "url2": "https://www.kaigokensaku.mhlw.go.jp/10/index.php?action_kouhyou_detail_004_kani=true&JigyosyoCd=1070101314-00&ServiceCd=210&Type=search" }, "geometry": { "type": "Point", "coordinates": [ 139.108023300000013, 36.3770536 ] } },
{ "type": "Feature", "properties": { "内容": "鐘の鳴る丘愛誠園【短期入所生活介護】群馬県前橋市東金丸町95", "url2": "https://www.kaigokensaku.mhlw.go.jp/10/index.php?action_kouhyou_detail_004_kani=true&JigyosyoCd=1072000225-00&ServiceCd=210&Type=search" }, "geometry": { "type": "Point", "coordinates": [ 139.137292300000013, 36.4748917 ] } },
{ "type": "Feature", "properties": { "内容": "特別養護老人ホ－ム　恵風園【短期入所生活介護】群馬県前橋市日吉町２－２０－１４", "url2": "https://www.kaigokensaku.mhlw.go.jp/10/index.php?action_kouhyou_detail_004_kani=true&JigyosyoCd=1070100506-00&ServiceCd=210&Type=search" }, "geometry": { "type": "Point", "coordinates": [ 139.079490399999941, 36.3951617 ] } },
{ "type": "Feature", "properties": { "内容": "ショートステイあゆみの里【短期入所生活介護】群馬県前橋市柏倉町2189-223", "url2": "https://www.kaigokensaku.mhlw.go.jp/10/index.php?action_kouhyou_detail_004_kani=true&JigyosyoCd=1072000597-00&ServiceCd=210&Type=search" }, "geometry": { "type": "Point", "coordinates": [ 139.171544400000016, 36.4608611 ] } },
{ "type": "Feature", "properties": { "内容": "特別養護老人ホーム　元気の郷【短期入所生活介護】群馬県前橋市粕川町月田４００", "url2": "https://www.kaigokensaku.mhlw.go.jp/10/index.php?action_kouhyou_detail_004_kani=true&JigyosyoCd=1072000811-00&ServiceCd=210&Type=search" }, "geometry": { "type": "Point", "coordinates": [ 139.205698899999987, 36.4314573 ] } },
{ "type": "Feature", "properties": { "内容": "特別養護老人ホーム　第二明光園【短期入所生活介護】群馬県前橋市樋越町１９－１", "url2": "https://www.kaigokensaku.mhlw.go.jp/10/index.php?action_kouhyou_detail_004_kani=true&JigyosyoCd=1072000142-00&ServiceCd=210&Type=search" }, "geometry": { "type": "Point", "coordinates": [ 139.181451700000054, 36.4130423 ] } },
{ "type": "Feature", "properties": { "内容": "短期入所生活介護　シャリティエまえばし【短期入所生活介護】群馬県前橋市表町2-18-8", "url2": "https://www.kaigokensaku.mhlw.go.jp/10/index.php?action_kouhyou_detail_004_kani=true&JigyosyoCd=1070101793-00&ServiceCd=210&Type=search" }, "geometry": { "type": "Point", "coordinates": [ 139.0731551, 36.3857878 ] } },
{ "type": "Feature", "properties": { "内容": "特別養護老人ホーム　サンホームふじみ【短期入所生活介護】群馬県前橋市富士見町小沢２０７番地１", "url2": "https://www.kaigokensaku.mhlw.go.jp/10/index.php?action_kouhyou_detail_004_kani=true&JigyosyoCd=1072000241-00&ServiceCd=210&Type=search" }, "geometry": { "type": "Point", "coordinates": [ 139.085445400000026, 36.4535677 ] } },
{ "type": "Feature", "properties": { "内容": "JA群馬厚生連介護センター【短期入所生活介護】群馬県前橋市富士見町小沢534番地9", "url2": "https://www.kaigokensaku.mhlw.go.jp/10/index.php?action_kouhyou_detail_004_kani=true&JigyosyoCd=1072000936-00&ServiceCd=210&Type=search" }, "geometry": { "type": "Point", "coordinates": [ 139.076624199999969, 36.4431382 ] } },
{ "type": "Feature", "properties": { "内容": "特別養護老人ホーム　すみれ荘【短期入所生活介護】群馬県前橋市富田町1180-1", "url2": "https://www.kaigokensaku.mhlw.go.jp/10/index.php?action_kouhyou_detail_004_kani=true&JigyosyoCd=1070100266-00&ServiceCd=210&Type=search" }, "geometry": { "type": "Point", "coordinates": [ 139.146308699999963, 36.3926945 ] } },
{ "type": "Feature", "properties": { "内容": "特別養護老人ホームサンライフ問屋町【短期入所生活介護】群馬県前橋市問屋町一丁目５番４", "url2": "https://www.kaigokensaku.mhlw.go.jp/10/index.php?action_kouhyou_detail_004_kani=true&JigyosyoCd=1070104300-00&ServiceCd=210&Type=search" }, "geometry": { "type": "Point", "coordinates": [ 139.039635699999963, 36.3939359 ] } },
{ "type": "Feature", "properties": { "内容": "あずみ苑　前橋　ショートステイ【短期入所生活介護】群馬県前橋市元総社町154-1", "url2": "https://www.kaigokensaku.mhlw.go.jp/10/index.php?action_kouhyou_detail_004_kani=true&JigyosyoCd=1070106982-00&ServiceCd=210&Type=search" }, "geometry": { "type": "Point", "coordinates": [ 139.041855199999986, 36.3848873 ] } },
{ "type": "Feature", "properties": { "内容": "前橋ケアセンターそよ風【短期入所生活介護】群馬県前橋市箱田町428-1", "url2": "https://www.kaigokensaku.mhlw.go.jp/10/index.php?action_kouhyou_detail_004_kani=true&JigyosyoCd=1070102148-00&ServiceCd=210&Type=search" }, "geometry": { "type": "Point", "coordinates": [ 139.049557700000037, 36.3697648 ] } },
{ "type": "Feature", "properties": { "内容": "ほのぼの荘【短期入所生活介護】群馬県前橋市金丸町252番地1", "url2": "https://www.kaigokensaku.mhlw.go.jp/10/index.php?action_kouhyou_detail_004_kani=true&JigyosyoCd=1070100027-00&ServiceCd=210&Type=search" }, "geometry": { "type": "Point", "coordinates": [ 139.125477300000057, 36.4684755 ] } },
{ "type": "Feature", "properties": { "内容": "特別養護老人ホーム　ことりのはな【短期入所生活介護】群馬県高崎市下小鳥町1234-2", "url2": "https://www.kaigokensaku.mhlw.go.jp/10/index.php?action_kouhyou_detail_004_kani=true&JigyosyoCd=1070207186-00&ServiceCd=210&Type=search" }, "geometry": { "type": "Point", "coordinates": [ 138.998714400000011, 36.3473808 ] } },
{ "type": "Feature", "properties": { "内容": "特別養護老人ホーム　エンジェルホーム【短期入所生活介護】群馬県高崎市中室田町２２５４番地", "url2": "https://www.kaigokensaku.mhlw.go.jp/10/index.php?action_kouhyou_detail_004_kani=true&JigyosyoCd=1072100371-00&ServiceCd=210&Type=search" }, "geometry": { "type": "Point", "coordinates": [ 138.8592754, 36.3963283 ] } },
{ "type": "Feature", "properties": { "内容": "特別養護老人ホームはなぞの【短期入所生活介護】群馬県高崎市塚田町21-1", "url2": "https://www.kaigokensaku.mhlw.go.jp/10/index.php?action_kouhyou_detail_004_kani=true&JigyosyoCd=1070204993-00&ServiceCd=210&Type=search" }, "geometry": { "type": "Point", "coordinates": [ 139.017631689727068, 36.389550666101563 ] } },
{ "type": "Feature", "properties": { "内容": "特別養護老人ホーム　泉の園ユニット【短期入所生活介護】群馬県高崎市箕郷町矢原12番地1", "url2": "https://www.kaigokensaku.mhlw.go.jp/10/index.php?action_kouhyou_detail_004_kani=true&JigyosyoCd=1070204902-00&ServiceCd=210&Type=search" }, "geometry": { "type": "Point", "coordinates": [ 138.962720100000013, 36.3972649 ] } },
{ "type": "Feature", "properties": { "内容": "特別養護老人ホーム　明生苑【短期入所生活介護】群馬県高崎市矢中町1105-4", "url2": "https://www.kaigokensaku.mhlw.go.jp/10/index.php?action_kouhyou_detail_004_kani=true&JigyosyoCd=1070200421-00&ServiceCd=210&Type=search" }, "geometry": { "type": "Point", "coordinates": [ 139.0515428, 36.3052188 ] } },
{ "type": "Feature", "properties": { "内容": "短期入所生活介護事業所菊地の園【短期入所生活介護】群馬県高崎市菊地町434番地", "url2": "https://www.kaigokensaku.mhlw.go.jp/10/index.php?action_kouhyou_detail_004_kani=true&JigyosyoCd=1070206824-00&ServiceCd=210&Type=search" }, "geometry": { "type": "Point", "coordinates": [ 138.963779, 36.3611912 ] } },
{ "type": "Feature", "properties": { "内容": "特別養護老人ホームシンフォニー【短期入所生活介護】群馬県高崎市井野町915-2社会福祉法人苗場福祉会　特別養護老人ホームシンフォニー", "url2": "https://www.kaigokensaku.mhlw.go.jp/10/index.php?action_kouhyou_detail_004_kani=true&JigyosyoCd=1070207228-00&ServiceCd=210&Type=search" }, "geometry": { "type": "Point", "coordinates": [ 139.032022899999987, 36.3541081 ] } },
{ "type": "Feature", "properties": { "内容": "ショートステイ桜苑【短期入所生活介護】群馬県高崎市引間町709番地", "url2": "https://www.kaigokensaku.mhlw.go.jp/10/index.php?action_kouhyou_detail_004_kani=true&JigyosyoCd=1070207590-00&ServiceCd=210&Type=search" }, "geometry": { "type": "Point", "coordinates": [ 139.009708, 36.3945472 ] } },
{ "type": "Feature", "properties": { "内容": "特別養護老人ホーム天界園【短期入所生活介護】群馬県高崎市下佐野町553番地", "url2": "https://www.kaigokensaku.mhlw.go.jp/10/index.php?action_kouhyou_detail_004_kani=true&JigyosyoCd=1070200355-00&ServiceCd=210&Type=search" }, "geometry": { "type": "Point", "coordinates": [ 139.029003399999965, 36.2965049 ] } },
{ "type": "Feature", "properties": { "内容": "特別養護老人ホーム天界園【短期入所生活介護】群馬県高崎市下佐野町553番地", "url2": "https://www.kaigokensaku.mhlw.go.jp/10/index.php?action_kouhyou_detail_004_kani=true&JigyosyoCd=1070204977-00&ServiceCd=210&Type=search" }, "geometry": { "type": "Point", "coordinates": [ 139.028932249737522, 36.2965309 ] } },
{ "type": "Feature", "properties": { "内容": "特別養護老人ホーム　ことりの郷　併設　短期入所生活介護【短期入所生活介護】群馬県高崎市下小鳥町1234番地2複合福祉施設　ちから　あわせる　ことりむら", "url2": "https://www.kaigokensaku.mhlw.go.jp/10/index.php?action_kouhyou_detail_004_kani=true&JigyosyoCd=1070206790-00&ServiceCd=210&Type=search" }, "geometry": { "type": "Point", "coordinates": [ 138.99871440000004, 36.3473808 ] } },
{ "type": "Feature", "properties": { "内容": "短期入所生活介護事業所菊地の園【短期入所生活介護】群馬県高崎市菊地町４３４番", "url2": "https://www.kaigokensaku.mhlw.go.jp/10/index.php?action_kouhyou_detail_004_kani=true&JigyosyoCd=1070203359-00&ServiceCd=210&Type=search" }, "geometry": { "type": "Point", "coordinates": [ 138.96372580000002, 36.3612382 ] } },
{ "type": "Feature", "properties": { "内容": "特別養護老人ホーム　吉井セピア【短期入所生活介護】群馬県高崎市吉井町塩1147", "url2": "https://www.kaigokensaku.mhlw.go.jp/10/index.php?action_kouhyou_detail_004_kani=true&JigyosyoCd=1072300021-00&ServiceCd=210&Type=search" }, "geometry": { "type": "Point", "coordinates": [ 138.97206140000003, 36.2341664 ] } },
{ "type": "Feature", "properties": { "内容": "特別養護老人ホーム吉井の丘【短期入所生活介護】群馬県　高崎市　吉井町岩崎字二子2224-1", "url2": "https://www.kaigokensaku.mhlw.go.jp/10/index.php?action_kouhyou_detail_004_kani=true&JigyosyoCd=1070206519-00&ServiceCd=210&Type=search" }, "geometry": { "type": "Point", "coordinates": [ 138.990145, 36.2702566 ] } },
{ "type": "Feature", "properties": { "内容": "ショートステイけいあい【短期入所生活介護】群馬県高崎市吉井町岩崎2316-7", "url2": "https://www.kaigokensaku.mhlw.go.jp/10/index.php?action_kouhyou_detail_004_kani=true&JigyosyoCd=1070205784-00&ServiceCd=210&Type=search" }, "geometry": { "type": "Point", "coordinates": [ 138.9798902, 36.26851 ] } },
{ "type": "Feature", "properties": { "内容": "エムダブルエス日高　吉井総合介護センター【短期入所生活介護】群馬県高崎市吉井町馬庭1014-1吉井総合介護センター", "url2": "https://www.kaigokensaku.mhlw.go.jp/10/index.php?action_kouhyou_detail_004_kani=true&JigyosyoCd=1072300443-00&ServiceCd=210&Type=search" }, "geometry": { "type": "Point", "coordinates": [ 139.014092, 36.2672935 ] } },
{ "type": "Feature", "properties": { "内容": "ショートステイ高崎馬庭【短期入所生活介護】群馬県高崎市吉井町馬庭2385-4", "url2": "https://www.kaigokensaku.mhlw.go.jp/10/index.php?action_kouhyou_detail_004_kani=true&JigyosyoCd=1070205875-00&ServiceCd=210&Type=search" }, "geometry": { "type": "Point", "coordinates": [ 139.003880630271823, 36.270588154546125 ] } },
{ "type": "Feature", "properties": { "内容": "恵峰園【短期入所生活介護】群馬県高崎市京目町1632番地1", "url2": "https://www.kaigokensaku.mhlw.go.jp/10/index.php?action_kouhyou_detail_004_kani=true&JigyosyoCd=1070200215-00&ServiceCd=210&Type=search" }, "geometry": { "type": "Point", "coordinates": [ 139.053299700000025, 36.3482974 ] } },
{ "type": "Feature", "properties": { "内容": "ショートステイ　ようざん【短期入所生活介護】群馬県高崎市栗崎町１４１－１", "url2": "https://www.kaigokensaku.mhlw.go.jp/10/index.php?action_kouhyou_detail_004_kani=true&JigyosyoCd=1070203292-00&ServiceCd=210&Type=search" }, "geometry": { "type": "Point", "coordinates": [ 139.0639582, 36.3094496 ] } },
{ "type": "Feature", "properties": { "内容": "特別養護老人ホーム　希望館【短期入所生活介護】群馬県高崎市江木町１０９３－１", "url2": "https://www.kaigokensaku.mhlw.go.jp/10/index.php?action_kouhyou_detail_004_kani=true&JigyosyoCd=1070200413-00&ServiceCd=210&Type=search" }, "geometry": { "type": "Point", "coordinates": [ 139.020414100000039, 36.3367392 ] } },
{ "type": "Feature", "properties": { "内容": "特別養護老人ホームキートス山名【短期入所生活介護】群馬県高崎市山名町838番地1", "url2": "https://www.kaigokensaku.mhlw.go.jp/10/index.php?action_kouhyou_detail_004_kani=true&JigyosyoCd=1070206782-00&ServiceCd=210&Type=search" }, "geometry": { "type": "Point", "coordinates": [ 139.039929716009453, 36.272217503357794 ] } },
{ "type": "Feature", "properties": { "内容": "特別養護老人ホーム高風園【短期入所生活介護】群馬県高崎市寺尾町２４１２", "url2": "https://www.kaigokensaku.mhlw.go.jp/10/index.php?action_kouhyou_detail_004_kani=true&JigyosyoCd=1070202112-00&ServiceCd=210&Type=search" }, "geometry": { "type": "Point", "coordinates": [ 138.99149280000006, 36.3019653 ] } },
{ "type": "Feature", "properties": { "内容": "ホピ園【短期入所生活介護】群馬県高崎市寺尾町６２１番地１", "url2": "https://www.kaigokensaku.mhlw.go.jp/10/index.php?action_kouhyou_detail_004_kani=true&JigyosyoCd=1070200264-00&ServiceCd=210&Type=search" }, "geometry": { "type": "Point", "coordinates": [ 139.012493800000016, 36.296738 ] } },
{ "type": "Feature", "properties": { "内容": "もてき脳神経外科介護福祉センター【短期入所生活介護】群馬県高崎市上小塙町566番地", "url2": "https://www.kaigokensaku.mhlw.go.jp/10/index.php?action_kouhyou_detail_004_kani=true&JigyosyoCd=1070200959-00&ServiceCd=210&Type=search" }, "geometry": { "type": "Point", "coordinates": [ 138.979035599999946, 36.3596859 ] } },
{ "type": "Feature", "properties": { "内容": "ショートステイほほえみの杜【短期入所生活介護】群馬県高崎市上中居町1465", "url2": "https://www.kaigokensaku.mhlw.go.jp/10/index.php?action_kouhyou_detail_004_kani=true&JigyosyoCd=1070204704-00&ServiceCd=210&Type=search" }, "geometry": { "type": "Point", "coordinates": [ 139.029155599999967, 36.3167956 ] } },
{ "type": "Feature", "properties": { "内容": "ショートステイようざん並榎【短期入所生活介護】群馬県高崎市上並榎町1164-1", "url2": "https://www.kaigokensaku.mhlw.go.jp/10/index.php?action_kouhyou_detail_004_kani=true&JigyosyoCd=1070204183-00&ServiceCd=210&Type=search" }, "geometry": { "type": "Point", "coordinates": [ 138.981942674066175, 36.342536696094527 ] } },
{ "type": "Feature", "properties": { "内容": "特別養護老人ホームシェステさとの花【短期入所生活介護】群馬県高崎市乗附町208", "url2": "https://www.kaigokensaku.mhlw.go.jp/10/index.php?action_kouhyou_detail_004_kani=true&JigyosyoCd=1070201031-00&ServiceCd=210&Type=search" }, "geometry": { "type": "Point", "coordinates": [ 138.98107559999994, 36.326811 ] } },
{ "type": "Feature", "properties": { "内容": "特別養護老人ホーム待望館【短期入所生活介護】群馬県高崎市新町1435-3", "url2": "https://www.kaigokensaku.mhlw.go.jp/10/index.php?action_kouhyou_detail_004_kani=true&JigyosyoCd=1070207640-00&ServiceCd=210&Type=search" }, "geometry": { "type": "Point", "coordinates": [ 139.106457400000011, 36.2617425 ] } },
{ "type": "Feature", "properties": { "内容": "特別養護老人ホームさくら寮【短期入所生活介護】群馬県高崎市新町1830-1特別養護老人ホームさくら寮", "url2": "https://www.kaigokensaku.mhlw.go.jp/10/index.php?action_kouhyou_detail_004_kani=true&JigyosyoCd=1070206337-00&ServiceCd=210&Type=search" }, "geometry": { "type": "Point", "coordinates": [ 139.1050156, 36.2611104 ] } },
{ "type": "Feature", "properties": { "内容": "特別養護老人ホーム　花みづき寮【短期入所生活介護】群馬県高崎市新町１８６３", "url2": "https://www.kaigokensaku.mhlw.go.jp/10/index.php?action_kouhyou_detail_004_kani=true&JigyosyoCd=1072300302-00&ServiceCd=210&Type=search" }, "geometry": { "type": "Point", "coordinates": [ 139.104275081614674, 36.264384398763966 ] } },
{ "type": "Feature", "properties": { "内容": "あずみ苑　高崎【短期入所生活介護】群馬県高崎市新町2151-13", "url2": "https://www.kaigokensaku.mhlw.go.jp/10/index.php?action_kouhyou_detail_004_kani=true&JigyosyoCd=1070206220-00&ServiceCd=210&Type=search" }, "geometry": { "type": "Point", "coordinates": [ 139.107146261138723, 36.272558342225985 ] } },
{ "type": "Feature", "properties": { "内容": "特別養護老人ホーム高風園「そめやの里」【短期入所生活介護】群馬県高崎市新保町９９３番地", "url2": "https://www.kaigokensaku.mhlw.go.jp/10/index.php?action_kouhyou_detail_004_kani=true&JigyosyoCd=1070203029-00&ServiceCd=210&Type=search" }, "geometry": { "type": "Point", "coordinates": [ 139.042689500000051, 36.3490276 ] } },
{ "type": "Feature", "properties": { "内容": "特別養護老人ホームシリウス【短期入所生活介護】群馬県高崎市倉渕町三ノ倉533番地１", "url2": "https://www.kaigokensaku.mhlw.go.jp/10/index.php?action_kouhyou_detail_004_kani=true&JigyosyoCd=1070202427-00&ServiceCd=210&Type=search" }, "geometry": { "type": "Point", "coordinates": [ 138.798117100000013, 36.4198253 ] } },
{ "type": "Feature", "properties": { "内容": "ユニット型ショートステイ　ルネス二之沢【短期入所生活介護】群馬県高崎市足門町166番地1", "url2": "https://www.kaigokensaku.mhlw.go.jp/10/index.php?action_kouhyou_detail_004_kani=true&JigyosyoCd=1070204027-00&ServiceCd=210&Type=search" }, "geometry": { "type": "Point", "coordinates": [ 138.979554399999984, 36.4023856 ] } },
{ "type": "Feature", "properties": { "内容": "ショートステイ　ルネス二之沢【短期入所生活介護】群馬県高崎市足門町166番地1", "url2": "https://www.kaigokensaku.mhlw.go.jp/10/index.php?action_kouhyou_detail_004_kani=true&JigyosyoCd=1072100538-00&ServiceCd=210&Type=search" }, "geometry": { "type": "Point", "coordinates": [ 138.979554399999984, 36.4023856 ] } },
{ "type": "Feature", "properties": { "内容": "特別養護老人ホーム誠の園【短期入所生活介護】群馬県高崎市中室田町２１０９番地", "url2": "https://www.kaigokensaku.mhlw.go.jp/10/index.php?action_kouhyou_detail_004_kani=true&JigyosyoCd=1072100165-00&ServiceCd=210&Type=search" }, "geometry": { "type": "Point", "coordinates": [ 138.8599438, 36.3948086 ] } },
{ "type": "Feature", "properties": { "内容": "ショートステイ寿楽園【短期入所生活介護】群馬県高崎市田町71", "url2": "https://www.kaigokensaku.mhlw.go.jp/10/index.php?action_kouhyou_detail_004_kani=true&JigyosyoCd=1070206253-00&ServiceCd=210&Type=search" }, "geometry": { "type": "Point", "coordinates": [ 139.007299700106756, 36.325623585351487 ] } },
{ "type": "Feature", "properties": { "内容": "特別養護老人ホーム　はなかがりショートステイ【短期入所生活介護】群馬県高崎市棟高町1009-1", "url2": "https://www.kaigokensaku.mhlw.go.jp/10/index.php?action_kouhyou_detail_004_kani=true&JigyosyoCd=1070206345-00&ServiceCd=210&Type=search" }, "geometry": { "type": "Point", "coordinates": [ 139.004234137332816, 36.398268006714098 ] } },
{ "type": "Feature", "properties": { "内容": "シンシア高崎ショートステイ【短期入所生活介護】群馬県高崎市棟高町1802-27", "url2": "https://www.kaigokensaku.mhlw.go.jp/10/index.php?action_kouhyou_detail_004_kani=true&JigyosyoCd=1070207384-00&ServiceCd=210&Type=search" }, "geometry": { "type": "Point", "coordinates": [ 139.008592, 36.3809763 ] } },
{ "type": "Feature", "properties": { "内容": "特別養護老人ホーム「悠ゆう」【短期入所生活介護】群馬県高崎市南大類町１２１０", "url2": "https://www.kaigokensaku.mhlw.go.jp/10/index.php?action_kouhyou_detail_004_kani=true&JigyosyoCd=1070201775-00&ServiceCd=210&Type=search" }, "geometry": { "type": "Point", "coordinates": [ 139.035179699999958, 36.3273038 ] } },
{ "type": "Feature", "properties": { "内容": "日高在宅療養支援センター【短期入所生活介護】群馬県高崎市日高町349", "url2": "https://www.kaigokensaku.mhlw.go.jp/10/index.php?action_kouhyou_detail_004_kani=true&JigyosyoCd=1070202682-00&ServiceCd=210&Type=search" }, "geometry": { "type": "Point", "coordinates": [ 139.02977629999998, 36.3657674 ] } },
{ "type": "Feature", "properties": { "内容": "社会福祉法人健生会特別養護老人ホーム高崎花の苑3号館【短期入所生活介護】群馬県高崎市日高町419番地", "url2": "https://www.kaigokensaku.mhlw.go.jp/10/index.php?action_kouhyou_detail_004_kani=true&JigyosyoCd=1070206170-00&ServiceCd=210&Type=search" }, "geometry": { "type": "Point", "coordinates": [ 139.030595299999959, 36.3618514 ] } },
{ "type": "Feature", "properties": { "内容": "社会福祉法人健生会　特別養護老人ホーム高崎花の苑【短期入所生活介護】群馬県高崎市日高町433-1", "url2": "https://www.kaigokensaku.mhlw.go.jp/10/index.php?action_kouhyou_detail_004_kani=true&JigyosyoCd=1070204985-00&ServiceCd=210&Type=search" }, "geometry": { "type": "Point", "coordinates": [ 139.030542030044217, 36.361872452902233 ] } },
{ "type": "Feature", "properties": { "内容": "ショートステイモデラート【短期入所生活介護】群馬県高崎市八幡原町1009-30", "url2": "https://www.kaigokensaku.mhlw.go.jp/10/index.php?action_kouhyou_detail_004_kani=true&JigyosyoCd=1070205966-00&ServiceCd=210&Type=search" }, "geometry": { "type": "Point", "coordinates": [ 139.091005841278047, 36.296575490255329 ] } },
{ "type": "Feature", "properties": { "内容": "ショートステイアダージオ【短期入所生活介護】群馬県高崎市八幡原町1009-31", "url2": "https://www.kaigokensaku.mhlw.go.jp/10/index.php?action_kouhyou_detail_004_kani=true&JigyosyoCd=1070206402-00&ServiceCd=210&Type=search" }, "geometry": { "type": "Point", "coordinates": [ 139.090864604893426, 36.296949087033802 ] } },
{ "type": "Feature", "properties": { "内容": "ショートステイ　アンダンテ【短期入所生活介護】群馬県高崎市八幡町768－1", "url2": "https://www.kaigokensaku.mhlw.go.jp/10/index.php?action_kouhyou_detail_004_kani=true&JigyosyoCd=1070205537-00&ServiceCd=210&Type=search" }, "geometry": { "type": "Point", "coordinates": [ 138.944881200000026, 36.3386626 ] } },
{ "type": "Feature", "properties": { "内容": "特別養護老人ホームほたる【短期入所生活介護】群馬県高崎市浜川町36番地", "url2": "https://www.kaigokensaku.mhlw.go.jp/10/index.php?action_kouhyou_detail_004_kani=true&JigyosyoCd=1070206576-00&ServiceCd=210&Type=search" }, "geometry": { "type": "Point", "coordinates": [ 138.977968, 36.360016 ] } },
{ "type": "Feature", "properties": { "内容": "特別養護老人ホーム森の小径【短期入所生活介護】群馬県高崎市浜川町836-2", "url2": "https://www.kaigokensaku.mhlw.go.jp/10/index.php?action_kouhyou_detail_004_kani=true&JigyosyoCd=1070200256-00&ServiceCd=210&Type=search" }, "geometry": { "type": "Point", "coordinates": [ 138.9826405, 36.3741816 ] } },
{ "type": "Feature", "properties": { "内容": "ショートステイセンター北原の里【短期入所生活介護】群馬県高崎市北原町１７９－1", "url2": "https://www.kaigokensaku.mhlw.go.jp/10/index.php?action_kouhyou_detail_004_kani=true&JigyosyoCd=1070204399-00&ServiceCd=210&Type=search" }, "geometry": { "type": "Point", "coordinates": [ 139.024641719435095, 36.404208864525344 ] } },
{ "type": "Feature", "properties": { "内容": "ベルジ箕輪【短期入所生活介護】群馬県高崎市箕郷町上芝839-4", "url2": "https://www.kaigokensaku.mhlw.go.jp/10/index.php?action_kouhyou_detail_004_kani=true&JigyosyoCd=1072100058-00&ServiceCd=210&Type=search" }, "geometry": { "type": "Point", "coordinates": [ 138.959578299999947, 36.3852292 ] } },
{ "type": "Feature", "properties": { "内容": "特別養護老人ホーム泉の園【短期入所生活介護】群馬県高崎市箕郷町矢原12番地1", "url2": "https://www.kaigokensaku.mhlw.go.jp/10/index.php?action_kouhyou_detail_004_kani=true&JigyosyoCd=1072100132-00&ServiceCd=210&Type=search" }, "geometry": { "type": "Point", "coordinates": [ 138.962777800000026, 36.3972831 ] } },
{ "type": "Feature", "properties": { "内容": "特別養護老人ホーム　ふるさと【短期入所生活介護】群馬県高崎市綿貫町１３６９番地", "url2": "https://www.kaigokensaku.mhlw.go.jp/10/index.php?action_kouhyou_detail_004_kani=true&JigyosyoCd=1070200777-00&ServiceCd=210&Type=search" }, "geometry": { "type": "Point", "coordinates": [ 139.081381800000031, 36.3053142 ] } },
{ "type": "Feature", "properties": { "内容": "ショートステイ湯治場【短期入所生活介護】群馬県高崎市問屋町1-7-2アムールタウン高崎別館", "url2": "https://www.kaigokensaku.mhlw.go.jp/10/index.php?action_kouhyou_detail_004_kani=true&JigyosyoCd=1070204431-00&ServiceCd=210&Type=search" }, "geometry": { "type": "Point", "coordinates": [ 139.00876942698369, 36.349529669162202 ] } },
{ "type": "Feature", "properties": { "内容": "ショートステイ　ベルジ高崎【短期入所生活介護】群馬県高崎市問屋町１－７－３アムールタウン高崎", "url2": "https://www.kaigokensaku.mhlw.go.jp/10/index.php?action_kouhyou_detail_004_kani=true&JigyosyoCd=1070202286-00&ServiceCd=210&Type=search" }, "geometry": { "type": "Point", "coordinates": [ 139.008831, 36.3499321 ] } },
{ "type": "Feature", "properties": { "内容": "特別養護老人ホーム　第二明生苑　やよい【短期入所生活介護】群馬県高崎市矢中町1098－1", "url2": "https://www.kaigokensaku.mhlw.go.jp/10/index.php?action_kouhyou_detail_004_kani=true&JigyosyoCd=1070204753-00&ServiceCd=210&Type=search" }, "geometry": { "type": "Point", "coordinates": [ 139.050518196156304, 36.305625165352083 ] } },
{ "type": "Feature", "properties": { "内容": "ショートステイ双樹園【短期入所生活介護】群馬県高崎市和田町8-16", "url2": "https://www.kaigokensaku.mhlw.go.jp/10/index.php?action_kouhyou_detail_004_kani=true&JigyosyoCd=1070203714-00&ServiceCd=210&Type=search" }, "geometry": { "type": "Point", "coordinates": [ 139.011815399999932, 36.3166036 ] } },
{ "type": "Feature", "properties": { "内容": "特別養護老人ホーム森の小径【短期入所生活介護】群馬県高崎市浜川町836-2", "url2": "https://www.kaigokensaku.mhlw.go.jp/10/index.php?action_kouhyou_detail_004_kani=true&JigyosyoCd=1070208093-00&ServiceCd=210&Type=search" }, "geometry": { "type": "Point", "coordinates": [ 138.982735, 36.3742118 ] } },
{ "type": "Feature", "properties": { "内容": "高崎ケアセンターそよ風【短期入所生活介護】群馬県高崎市緑町4-5-9", "url2": "https://www.kaigokensaku.mhlw.go.jp/10/index.php?action_kouhyou_detail_004_kani=true&JigyosyoCd=1070200892-00&ServiceCd=210&Type=search" }, "geometry": { "type": "Point", "coordinates": [ 139.0090457, 36.352596 ] } },
{ "type": "Feature", "properties": { "内容": "特別養護老人ホーム榛名憩の園【短期入所生活介護】群馬県高崎市中室田町２２５２番地", "url2": "https://www.kaigokensaku.mhlw.go.jp/10/index.php?action_kouhyou_detail_004_kani=true&JigyosyoCd=1072100157-00&ServiceCd=210&Type=search" }, "geometry": { "type": "Point", "coordinates": [ 138.86014932889384, 36.396581273534842 ] } },
{ "type": "Feature", "properties": { "内容": "サンライズさかいの　短期入所生活介護【短期入所生活介護】群馬県桐生市境野町７丁目1788番地の1", "url2": "https://www.kaigokensaku.mhlw.go.jp/10/index.php?action_kouhyou_detail_004_kani=true&JigyosyoCd=1070300700-00&ServiceCd=210&Type=search" }, "geometry": { "type": "Point", "coordinates": [ 139.362514199999964, 36.3777905 ] } },
{ "type": "Feature", "properties": { "内容": "ショートステイふたば【短期入所生活介護】群馬県桐生市広沢町１丁目２６４３番地の１", "url2": "https://www.kaigokensaku.mhlw.go.jp/10/index.php?action_kouhyou_detail_004_kani=true&JigyosyoCd=1070300221-00&ServiceCd=210&Type=search" }, "geometry": { "type": "Point", "coordinates": [ 139.333065499999947, 36.3919753 ] } },
{ "type": "Feature", "properties": { "内容": "医療法人社団三思会　ショート・デイセンタークララ広沢【短期入所生活介護】群馬県桐生市広沢町2-3248-1", "url2": "https://www.kaigokensaku.mhlw.go.jp/10/index.php?action_kouhyou_detail_004_kani=true&JigyosyoCd=1070302128-00&ServiceCd=210&Type=search" }, "geometry": { "type": "Point", "coordinates": [ 139.320252799999906, 36.389545 ] } },
{ "type": "Feature", "properties": { "内容": "社会福祉法人　邦知会　ユートピア広沢【短期入所生活介護】群馬県桐生市広沢町6-307-3", "url2": "https://www.kaigokensaku.mhlw.go.jp/10/index.php?action_kouhyou_detail_004_kani=true&JigyosyoCd=1070300106-00&ServiceCd=210&Type=search" }, "geometry": { "type": "Point", "coordinates": [ 139.359239800000068, 36.3713938 ] } },
{ "type": "Feature", "properties": { "内容": "社会福祉法人　邦知会　ハーモニー広沢【短期入所生活介護】群馬県桐生市広沢町6-332-1", "url2": "https://www.kaigokensaku.mhlw.go.jp/10/index.php?action_kouhyou_detail_004_kani=true&JigyosyoCd=1070300833-00&ServiceCd=210&Type=search" }, "geometry": { "type": "Point", "coordinates": [ 139.361092500000041, 36.3702662 ] } },
{ "type": "Feature", "properties": { "内容": "社会福祉法人　泰和会　しみずの里【短期入所生活介護】群馬県桐生市黒保根町下田沢２５６５－１", "url2": "https://www.kaigokensaku.mhlw.go.jp/10/index.php?action_kouhyou_detail_004_kani=true&JigyosyoCd=1072000050-00&ServiceCd=210&Type=search" }, "geometry": { "type": "Point", "coordinates": [ 139.276081799999929, 36.5101374 ] } },
{ "type": "Feature", "properties": { "内容": "特別養護老人ホームげんき・倶楽部【短期入所生活介護】群馬県桐生市新里町新川1312", "url2": "https://www.kaigokensaku.mhlw.go.jp/10/index.php?action_kouhyou_detail_004_kani=true&JigyosyoCd=1070301237-00&ServiceCd=210&Type=search" }, "geometry": { "type": "Point", "coordinates": [ 139.257483699999966, 36.4123917 ] } },
{ "type": "Feature", "properties": { "内容": "思いやり短期入所生活介護【短期入所生活介護】群馬県桐生市川内町1丁目361-2", "url2": "https://www.kaigokensaku.mhlw.go.jp/10/index.php?action_kouhyou_detail_004_kani=true&JigyosyoCd=1070301740-00&ServiceCd=210&Type=search" }, "geometry": { "type": "Point", "coordinates": [ 139.322918699999946, 36.434115 ] } },
{ "type": "Feature", "properties": { "内容": "ショートステイのぞみの苑【短期入所生活介護】群馬県桐生市相生町５－４９３", "url2": "https://www.kaigokensaku.mhlw.go.jp/10/index.php?action_kouhyou_detail_004_kani=true&JigyosyoCd=1070300460-00&ServiceCd=210&Type=search" }, "geometry": { "type": "Point", "coordinates": [ 139.2855561, 36.4146192 ] } },
{ "type": "Feature", "properties": { "内容": "ショートステイ　瀬々らぎの里【短期入所生活介護】群馬県桐生市梅田町１丁目字724番地1", "url2": "https://www.kaigokensaku.mhlw.go.jp/10/index.php?action_kouhyou_detail_004_kani=true&JigyosyoCd=1070301625-00&ServiceCd=210&Type=search" }, "geometry": { "type": "Point", "coordinates": [ 139.366145374825692, 36.447400855796758 ] } },
{ "type": "Feature", "properties": { "内容": "ショートステイ梅の郷【短期入所生活介護】群馬県桐生市梅田町４丁目１７７４－４", "url2": "https://www.kaigokensaku.mhlw.go.jp/10/index.php?action_kouhyou_detail_004_kani=true&JigyosyoCd=1070300346-00&ServiceCd=210&Type=search" }, "geometry": { "type": "Point", "coordinates": [ 139.40640570000005, 36.4741719 ] } },
{ "type": "Feature", "properties": { "内容": "特別養護老人ホーム菱風園【短期入所生活介護】群馬県桐生市菱町１－３０１６－１", "url2": "https://www.kaigokensaku.mhlw.go.jp/10/index.php?action_kouhyou_detail_004_kani=true&JigyosyoCd=1070301153-00&ServiceCd=210&Type=search" }, "geometry": { "type": "Point", "coordinates": [ 139.362649499999947, 36.3914337 ] } },
{ "type": "Feature", "properties": { "内容": "ショート・デイセンター和奏【短期入所生活介護】群馬県桐生市菱町4-2261-4", "url2": "https://www.kaigokensaku.mhlw.go.jp/10/index.php?action_kouhyou_detail_004_kani=true&JigyosyoCd=1070300957-00&ServiceCd=210&Type=search" }, "geometry": { "type": "Point", "coordinates": [ 139.351679600000011, 36.4191724 ] } },
{ "type": "Feature", "properties": { "内容": "特別養護老人ホームシルクの里【短期入所生活介護】群馬県桐生市宮本町一丁目12番34号", "url2": "https://www.kaigokensaku.mhlw.go.jp/10/index.php?action_kouhyou_detail_004_kani=true&JigyosyoCd=1070302870-00&ServiceCd=210&Type=search" }, "geometry": { "type": "Point", "coordinates": [ 139.339099033729582, 36.414300275874041 ] } },
{ "type": "Feature", "properties": { "内容": "ゆたか（ユニット型地域密着型特別養護老人ホーム）【短期入所生活介護】群馬県伊勢崎市馬見塚町1196番地1", "url2": "https://www.kaigokensaku.mhlw.go.jp/10/index.php?action_kouhyou_detail_004_kani=true&JigyosyoCd=1070403397-00&ServiceCd=210&Type=search" }, "geometry": { "type": "Point", "coordinates": [ 139.211992199999941, 36.2727246 ] } },
{ "type": "Feature", "properties": { "内容": "特別養護老人ホームぶどうの郷【短期入所生活介護】群馬県伊勢崎市宮古町１２８－１", "url2": "https://www.kaigokensaku.mhlw.go.jp/10/index.php?action_kouhyou_detail_004_kani=true&JigyosyoCd=1070402050-00&ServiceCd=210&Type=search" }, "geometry": { "type": "Point", "coordinates": [ 139.15248889999998, 36.3238729 ] } },
{ "type": "Feature", "properties": { "内容": "ショートステイGreen　Rose【短期入所生活介護】群馬県伊勢崎市安堀町789-3", "url2": "https://www.kaigokensaku.mhlw.go.jp/10/index.php?action_kouhyou_detail_004_kani=true&JigyosyoCd=1070404155-00&ServiceCd=210&Type=search" }, "geometry": { "type": "Point", "coordinates": [ 139.183317799999941, 36.3364412 ] } },
{ "type": "Feature", "properties": { "内容": "特別養護老人ホームアミーキ【短期入所生活介護】群馬県伊勢崎市磯町435番地1", "url2": "https://www.kaigokensaku.mhlw.go.jp/10/index.php?action_kouhyou_detail_004_kani=true&JigyosyoCd=1072800509-00&ServiceCd=210&Type=search" }, "geometry": { "type": "Point", "coordinates": [ 139.230736400000069, 36.399534 ] } },
{ "type": "Feature", "properties": { "内容": "特別養護老人ホームいこいの里【短期入所生活介護】群馬県伊勢崎市境上武士1017-1特別養護老人ホームいこいの里", "url2": "https://www.kaigokensaku.mhlw.go.jp/10/index.php?action_kouhyou_detail_004_kani=true&JigyosyoCd=1072800095-00&ServiceCd=210&Type=search" }, "geometry": { "type": "Point", "coordinates": [ 139.229617800000028, 36.2780298 ] } },
{ "type": "Feature", "properties": { "内容": "特別養護老人ホーム銀杏の丘【短期入所生活介護】群馬県伊勢崎市境上渕名1010-1", "url2": "https://www.kaigokensaku.mhlw.go.jp/10/index.php?action_kouhyou_detail_004_kani=true&JigyosyoCd=1070402027-00&ServiceCd=210&Type=search" }, "geometry": { "type": "Point", "coordinates": [ 139.254455499999949, 36.3102908 ] } },
{ "type": "Feature", "properties": { "内容": "特別養護老人ホームサルビア荘【短期入所生活介護】群馬県伊勢崎市国定町二丁目２３４５番地", "url2": "https://www.kaigokensaku.mhlw.go.jp/10/index.php?action_kouhyou_detail_004_kani=true&JigyosyoCd=1072800020-00&ServiceCd=210&Type=search" }, "geometry": { "type": "Point", "coordinates": [ 139.235369499999933, 36.3630455 ] } },
{ "type": "Feature", "properties": { "内容": "あずみ苑　伊勢崎【短期入所生活介護】群馬県伊勢崎市上諏訪町1645-5", "url2": "https://www.kaigokensaku.mhlw.go.jp/10/index.php?action_kouhyou_detail_004_kani=true&JigyosyoCd=1070403876-00&ServiceCd=210&Type=search" }, "geometry": { "type": "Point", "coordinates": [ 139.222790326458721, 36.326890527764633 ] } },
{ "type": "Feature", "properties": { "内容": "特別養護老人ホーム愛老園【短期入所生活介護】群馬県伊勢崎市太田町686", "url2": "https://www.kaigokensaku.mhlw.go.jp/10/index.php?action_kouhyou_detail_004_kani=true&JigyosyoCd=1070400047-00&ServiceCd=210&Type=search" }, "geometry": { "type": "Point", "coordinates": [ 139.187642899999986, 36.3257425 ] } },
{ "type": "Feature", "properties": { "内容": "特別養護老人ホーム　あいの詩【短期入所生活介護】群馬県伊勢崎市田中島町1169", "url2": "https://www.kaigokensaku.mhlw.go.jp/10/index.php?action_kouhyou_detail_004_kani=true&JigyosyoCd=1070401672-00&ServiceCd=210&Type=search" }, "geometry": { "type": "Point", "coordinates": [ 139.161018600000034, 36.3214704 ] } },
{ "type": "Feature", "properties": { "内容": "特別養護老人ホーム　小泉の杜【短期入所生活介護】群馬県伊勢崎市田部井町3丁目2017-2", "url2": "https://www.kaigokensaku.mhlw.go.jp/10/index.php?action_kouhyou_detail_004_kani=true&JigyosyoCd=1070403413-00&ServiceCd=210&Type=search" }, "geometry": { "type": "Point", "coordinates": [ 139.261254799999961, 36.350383 ] } },
{ "type": "Feature", "properties": { "内容": "恵風荘ショートステイサービス【短期入所生活介護】群馬県伊勢崎市韮塚町８４８－１", "url2": "https://www.kaigokensaku.mhlw.go.jp/10/index.php?action_kouhyou_detail_004_kani=true&JigyosyoCd=1070400161-00&ServiceCd=210&Type=search" }, "geometry": { "type": "Point", "coordinates": [ 139.166957700000012, 36.3060165 ] } },
{ "type": "Feature", "properties": { "内容": "社会福祉法人ことぶきの郷居宅サービス事業所【短期入所生活介護】群馬県伊勢崎市波志江町１９７６番地５", "url2": "https://www.kaigokensaku.mhlw.go.jp/10/index.php?action_kouhyou_detail_004_kani=true&JigyosyoCd=1070400104-00&ServiceCd=210&Type=search" }, "geometry": { "type": "Point", "coordinates": [ 139.187667, 36.3473486 ] } },
{ "type": "Feature", "properties": { "内容": "ショートステイ江【短期入所生活介護】群馬県伊勢崎市波志江町782", "url2": "https://www.kaigokensaku.mhlw.go.jp/10/index.php?action_kouhyou_detail_004_kani=true&JigyosyoCd=1070403603-00&ServiceCd=210&Type=search" }, "geometry": { "type": "Point", "coordinates": [ 139.173244766812104, 36.348631959147646 ] } },
{ "type": "Feature", "properties": { "内容": "ゆたか【短期入所生活介護】群馬県伊勢崎市馬見塚町1196-1", "url2": "https://www.kaigokensaku.mhlw.go.jp/10/index.php?action_kouhyou_detail_004_kani=true&JigyosyoCd=1070400054-00&ServiceCd=210&Type=search" }, "geometry": { "type": "Point", "coordinates": [ 139.211954, 36.2727651 ] } },
{ "type": "Feature", "properties": { "内容": "桑原ショートステイ【短期入所生活介護】群馬県伊勢崎市馬見塚町９３３番地", "url2": "https://www.kaigokensaku.mhlw.go.jp/10/index.php?action_kouhyou_detail_004_kani=true&JigyosyoCd=1070401474-00&ServiceCd=210&Type=search" }, "geometry": { "type": "Point", "coordinates": [ 139.218876799999947, 36.2839512 ] } },
{ "type": "Feature", "properties": { "内容": "ショートハウス　銘仙の家【短期入所生活介護】群馬県伊勢崎市平和町19-10", "url2": "https://www.kaigokensaku.mhlw.go.jp/10/index.php?action_kouhyou_detail_004_kani=true&JigyosyoCd=1070401870-00&ServiceCd=210&Type=search" }, "geometry": { "type": "Point", "coordinates": [ 139.202169, 36.3228377 ] } },
{ "type": "Feature", "properties": { "内容": "ロータスヴィレッジショートステイサービス【短期入所生活介護】群馬県伊勢崎市豊城町2780-2", "url2": "https://www.kaigokensaku.mhlw.go.jp/10/index.php?action_kouhyou_detail_004_kani=true&JigyosyoCd=1070400237-00&ServiceCd=210&Type=search" }, "geometry": { "type": "Point", "coordinates": [ 139.222293600000057, 36.3400197 ] } },
{ "type": "Feature", "properties": { "内容": "特別養護老人ホーム　ローズヒル（ユニット型）【短期入所生活介護】群馬県伊勢崎市北千木町１１２６", "url2": "https://www.kaigokensaku.mhlw.go.jp/10/index.php?action_kouhyou_detail_004_kani=true&JigyosyoCd=1070403371-00&ServiceCd=210&Type=search" }, "geometry": { "type": "Point", "coordinates": [ 139.219742200000042, 36.306779 ] } },
{ "type": "Feature", "properties": { "内容": "ローズヒルショートステイサービス【短期入所生活介護】群馬県伊勢崎市北千木町１１２６", "url2": "https://www.kaigokensaku.mhlw.go.jp/10/index.php?action_kouhyou_detail_004_kani=true&JigyosyoCd=1070400591-00&ServiceCd=210&Type=search" }, "geometry": { "type": "Point", "coordinates": [ 139.219742200000042, 36.306779 ] } },
{ "type": "Feature", "properties": { "内容": "特別養護老人ホームなごみ【短期入所生活介護】群馬県伊勢崎市本関町1216-1", "url2": "https://www.kaigokensaku.mhlw.go.jp/10/index.php?action_kouhyou_detail_004_kani=true&JigyosyoCd=1070402456-00&ServiceCd=210&Type=search" }, "geometry": { "type": "Point", "coordinates": [ 139.21190516137699, 36.349513311851183 ] } },
{ "type": "Feature", "properties": { "内容": "ショートステイなごみ【短期入所生活介護】群馬県伊勢崎市本関町1218-6", "url2": "https://www.kaigokensaku.mhlw.go.jp/10/index.php?action_kouhyou_detail_004_kani=true&JigyosyoCd=1070403041-00&ServiceCd=210&Type=search" }, "geometry": { "type": "Point", "coordinates": [ 139.2122223, 36.3501518 ] } },
{ "type": "Feature", "properties": { "内容": "伊勢崎ケアセンターそよ風【短期入所生活介護】群馬県伊勢崎市柳原町19-1", "url2": "https://www.kaigokensaku.mhlw.go.jp/10/index.php?action_kouhyou_detail_004_kani=true&JigyosyoCd=1070403249-00&ServiceCd=210&Type=search" }, "geometry": { "type": "Point", "coordinates": [ 139.196486199999981, 36.3273787 ] } },
{ "type": "Feature", "properties": { "内容": "伊勢崎南ケアセンターそよ風【短期入所生活介護】群馬県伊勢崎市茂呂町２丁目3517-2", "url2": "https://www.kaigokensaku.mhlw.go.jp/10/index.php?action_kouhyou_detail_004_kani=true&JigyosyoCd=1070404551-00&ServiceCd=210&Type=search" }, "geometry": { "type": "Point", "coordinates": [ 139.209251195385889, 36.295553020660051 ] } },
{ "type": "Feature", "properties": { "内容": "特別養護老人ホームみづほの里【短期入所生活介護】群馬県太田市牛沢町156-1", "url2": "https://www.kaigokensaku.mhlw.go.jp/10/index.php?action_kouhyou_detail_004_kani=true&JigyosyoCd=1070500291-00&ServiceCd=210&Type=search" }, "geometry": { "type": "Point", "coordinates": [ 139.358120399999962, 36.2620196 ] } },
{ "type": "Feature", "properties": { "内容": "特別養護老人ホームささら子の里【短期入所生活介護】群馬県太田市新田赤堀町128-1", "url2": "https://www.kaigokensaku.mhlw.go.jp/10/index.php?action_kouhyou_detail_004_kani=true&JigyosyoCd=1070503311-00&ServiceCd=210&Type=search" }, "geometry": { "type": "Point", "coordinates": [ 139.300921799999969, 36.2978287 ] } },
{ "type": "Feature", "properties": { "内容": "特別養護老人ホームゆう愛【短期入所生活介護】群馬県太田市寺井町565", "url2": "https://www.kaigokensaku.mhlw.go.jp/10/index.php?action_kouhyou_detail_004_kani=true&JigyosyoCd=1070501521-00&ServiceCd=210&Type=search" }, "geometry": { "type": "Point", "coordinates": [ 139.335792199999986, 36.3256642 ] } },
{ "type": "Feature", "properties": { "内容": "特別養護老人ホームユニットにらがわの里【短期入所生活介護】群馬県太田市上小林町１４６５－１", "url2": "https://www.kaigokensaku.mhlw.go.jp/10/index.php?action_kouhyou_detail_004_kani=true&JigyosyoCd=1070502354-00&ServiceCd=210&Type=search" }, "geometry": { "type": "Point", "coordinates": [ 139.398549, 36.3152394 ] } },
{ "type": "Feature", "properties": { "内容": "特別養護老人ホーム　愛光園【短期入所生活介護】群馬県太田市新田上江田町1513-1", "url2": "https://www.kaigokensaku.mhlw.go.jp/10/index.php?action_kouhyou_detail_004_kani=true&JigyosyoCd=1072900143-00&ServiceCd=210&Type=search" }, "geometry": { "type": "Point", "coordinates": [ 139.285048299999971, 36.3016918 ] } },
{ "type": "Feature", "properties": { "内容": "ショートステイ　きざきの郷【短期入所生活介護】群馬県太田市新田中江田町58－1", "url2": "https://www.kaigokensaku.mhlw.go.jp/10/index.php?action_kouhyou_detail_004_kani=true&JigyosyoCd=1070502727-00&ServiceCd=210&Type=search" }, "geometry": { "type": "Point", "coordinates": [ 139.299808699999971, 36.2742479 ] } },
{ "type": "Feature", "properties": { "内容": "特別養護老人ホーム清和荘（ユニット型）【短期入所生活介護】群馬県太田市亀岡町280番地", "url2": "https://www.kaigokensaku.mhlw.go.jp/10/index.php?action_kouhyou_detail_004_kani=true&JigyosyoCd=1070502818-00&ServiceCd=210&Type=search" }, "geometry": { "type": "Point", "coordinates": [ 139.318168600000035, 36.2552251 ] } },
{ "type": "Feature", "properties": { "内容": "特別養護老人ホーム　清和荘【短期入所生活介護】群馬県太田市亀岡町280番地", "url2": "https://www.kaigokensaku.mhlw.go.jp/10/index.php?action_kouhyou_detail_004_kani=true&JigyosyoCd=1072900127-00&ServiceCd=210&Type=search" }, "geometry": { "type": "Point", "coordinates": [ 139.318168600000035, 36.2552251 ] } },
{ "type": "Feature", "properties": { "内容": "尾島ショートステイ【短期入所生活介護】群馬県太田市亀岡町４２０－１", "url2": "https://www.kaigokensaku.mhlw.go.jp/10/index.php?action_kouhyou_detail_004_kani=true&JigyosyoCd=1070501539-00&ServiceCd=210&Type=search" }, "geometry": { "type": "Point", "coordinates": [ 139.315982599999984, 36.2578554 ] } },
{ "type": "Feature", "properties": { "内容": "社会福祉法人至誠会清風園【短期入所生活介護】群馬県太田市熊野町38-81", "url2": "https://www.kaigokensaku.mhlw.go.jp/10/index.php?action_kouhyou_detail_004_kani=true&JigyosyoCd=1070500051-00&ServiceCd=210&Type=search" }, "geometry": { "type": "Point", "coordinates": [ 139.383792200000016, 36.3080707 ] } },
{ "type": "Feature", "properties": { "内容": "ショートステイはぴねす【短期入所生活介護】群馬県太田市高林南町283番地25特別養護老人ホームはぴねす", "url2": "https://www.kaigokensaku.mhlw.go.jp/10/index.php?action_kouhyou_detail_004_kani=true&JigyosyoCd=1070503840-00&ServiceCd=210&Type=search" }, "geometry": { "type": "Point", "coordinates": [ 139.371302060188327, 36.252967681112814 ] } },
{ "type": "Feature", "properties": { "内容": "八瀬川の里ショートサービス【短期入所生活介護】群馬県太田市高林北町1185", "url2": "https://www.kaigokensaku.mhlw.go.jp/10/index.php?action_kouhyou_detail_004_kani=true&JigyosyoCd=1070500994-00&ServiceCd=210&Type=search" }, "geometry": { "type": "Point", "coordinates": [ 139.37136380000004, 36.2630417 ] } },
{ "type": "Feature", "properties": { "内容": "特別養護老人ホーム　にらがわの里【短期入所生活介護】群馬県太田市上小林町1465-1", "url2": "https://www.kaigokensaku.mhlw.go.jp/10/index.php?action_kouhyou_detail_004_kani=true&JigyosyoCd=1070500283-00&ServiceCd=210&Type=search" }, "geometry": { "type": "Point", "coordinates": [ 139.398549, 36.3152394 ] } },
{ "type": "Feature", "properties": { "内容": "特別養護老人ホームさくらの里（従来型）【短期入所生活介護】群馬県太田市上田島町185-1", "url2": "https://www.kaigokensaku.mhlw.go.jp/10/index.php?action_kouhyou_detail_004_kani=true&JigyosyoCd=1070502990-00&ServiceCd=210&Type=search" }, "geometry": { "type": "Point", "coordinates": [ 139.327058299999976, 36.2767202 ] } },
{ "type": "Feature", "properties": { "内容": "ショートステイいちの倉【短期入所生活介護】群馬県太田市新田市野倉町220-21", "url2": "https://www.kaigokensaku.mhlw.go.jp/10/index.php?action_kouhyou_detail_004_kani=true&JigyosyoCd=1070501927-00&ServiceCd=210&Type=search" }, "geometry": { "type": "Point", "coordinates": [ 139.310877600000026, 36.3321808 ] } },
{ "type": "Feature", "properties": { "内容": "特別養護老人ホーム愛光園（ユニット型）【短期入所生活介護】群馬県太田市新田上江田町1513-1", "url2": "https://www.kaigokensaku.mhlw.go.jp/10/index.php?action_kouhyou_detail_004_kani=true&JigyosyoCd=1070502826-00&ServiceCd=210&Type=search" }, "geometry": { "type": "Point", "coordinates": [ 139.285048299999971, 36.3016918 ] } },
{ "type": "Feature", "properties": { "内容": "綿打ショートステイ【短期入所生活介護】群馬県太田市新田上田中町784-1", "url2": "https://www.kaigokensaku.mhlw.go.jp/10/index.php?action_kouhyou_detail_004_kani=true&JigyosyoCd=1070501661-00&ServiceCd=210&Type=search" }, "geometry": { "type": "Point", "coordinates": [ 139.278181899999936, 36.3053803 ] } },
{ "type": "Feature", "properties": { "内容": "特別養護老人ホームきざきの郷令和荘（空床利用型）【短期入所生活介護】群馬県太田市新田中江田町58-1", "url2": "https://www.kaigokensaku.mhlw.go.jp/10/index.php?action_kouhyou_detail_004_kani=true&JigyosyoCd=1070503683-00&ServiceCd=210&Type=search" }, "geometry": { "type": "Point", "coordinates": [ 139.300007594967639, 36.274239068705995 ] } },
{ "type": "Feature", "properties": { "内容": "ショートステイききょうの里【短期入所生活介護】群馬県太田市只上町2317番地", "url2": "https://www.kaigokensaku.mhlw.go.jp/10/index.php?action_kouhyou_detail_004_kani=true&JigyosyoCd=1070501968-00&ServiceCd=210&Type=search" }, "geometry": { "type": "Point", "coordinates": [ 139.390088699999978, 36.3435527 ] } },
{ "type": "Feature", "properties": { "内容": "特別養護老人ホーム　鶴生田園【短期入所生活介護】群馬県太田市鶴生田町1970-53", "url2": "https://www.kaigokensaku.mhlw.go.jp/10/index.php?action_kouhyou_detail_004_kani=true&JigyosyoCd=1070500275-00&ServiceCd=210&Type=search" }, "geometry": { "type": "Point", "coordinates": [ 139.364390500000013, 36.32306 ] } },
{ "type": "Feature", "properties": { "内容": "ショートステイ太田いずみの里【短期入所生活介護】群馬県太田市東今泉町６８６太田いずみの里", "url2": "https://www.kaigokensaku.mhlw.go.jp/10/index.php?action_kouhyou_detail_004_kani=true&JigyosyoCd=1070502602-00&ServiceCd=210&Type=search" }, "geometry": { "type": "Point", "coordinates": [ 139.385231, 36.3267574 ] } },
{ "type": "Feature", "properties": { "内容": "あずみ苑グランデ太田【短期入所生活介護】群馬県太田市内ヶ島町９７１番地１", "url2": "https://www.kaigokensaku.mhlw.go.jp/10/index.php?action_kouhyou_detail_004_kani=true&JigyosyoCd=1070501620-00&ServiceCd=210&Type=search" }, "geometry": { "type": "Point", "coordinates": [ 139.3988885, 36.2851871 ] } },
{ "type": "Feature", "properties": { "内容": "ショートステイ八幡【短期入所生活介護】群馬県太田市八幡町27－7", "url2": "https://www.kaigokensaku.mhlw.go.jp/10/index.php?action_kouhyou_detail_004_kani=true&JigyosyoCd=1070502891-00&ServiceCd=210&Type=search" }, "geometry": { "type": "Point", "coordinates": [ 139.368029299999989, 36.2989907 ] } },
{ "type": "Feature", "properties": { "内容": "太田ショートステイそよ風【短期入所生活介護】群馬県太田市飯田町８１４－１", "url2": "https://www.kaigokensaku.mhlw.go.jp/10/index.php?action_kouhyou_detail_004_kani=true&JigyosyoCd=1070501497-00&ServiceCd=210&Type=search" }, "geometry": { "type": "Point", "coordinates": [ 139.383048199999962, 36.2887254 ] } },
{ "type": "Feature", "properties": { "内容": "特別養護老人ホーム毛里田【短期入所生活介護】群馬県太田市矢田堀町361-1", "url2": "https://www.kaigokensaku.mhlw.go.jp/10/index.php?action_kouhyou_detail_004_kani=true&JigyosyoCd=1070503378-00&ServiceCd=210&Type=search" }, "geometry": { "type": "Point", "coordinates": [ 139.378587411778199, 36.337907745969105 ] } },
{ "type": "Feature", "properties": { "内容": "ゆらの里ショートステイ【短期入所生活介護】群馬県太田市由良町104番地7", "url2": "https://www.kaigokensaku.mhlw.go.jp/10/index.php?action_kouhyou_detail_004_kani=true&JigyosyoCd=1070501836-00&ServiceCd=210&Type=search" }, "geometry": { "type": "Point", "coordinates": [ 139.350572599999964, 36.2860613 ] } },
{ "type": "Feature", "properties": { "内容": "ショートステイ高原園【短期入所生活介護】群馬県太田市龍舞町410番地2", "url2": "https://www.kaigokensaku.mhlw.go.jp/10/index.php?action_kouhyou_detail_004_kani=true&JigyosyoCd=1070503360-00&ServiceCd=210&Type=search" }, "geometry": { "type": "Point", "coordinates": [ 139.424516490471547, 36.274963023025286 ] } },
{ "type": "Feature", "properties": { "内容": "太田南ケアセンターそよ風【短期入所生活介護】群馬県太田市南矢島町723-1", "url2": "https://www.kaigokensaku.mhlw.go.jp/10/index.php?action_kouhyou_detail_004_kani=true&JigyosyoCd=1070502529-00&ServiceCd=210&Type=search" }, "geometry": { "type": "Point", "coordinates": [ 139.38191342568669, 36.264478071563808 ] } },
{ "type": "Feature", "properties": { "内容": "ききょうの里短期入所生活介護事業所【短期入所生活介護】群馬県沼田市横塚町９５７番地２", "url2": "https://www.kaigokensaku.mhlw.go.jp/10/index.php?action_kouhyou_detail_004_kani=true&JigyosyoCd=1070600141-00&ServiceCd=210&Type=search" }, "geometry": { "type": "Point", "coordinates": [ 139.100255, 36.6712937 ] } },
{ "type": "Feature", "properties": { "内容": "くやはら短期入所生活介護【短期入所生活介護】群馬県沼田市久屋原町４１４番地１", "url2": "https://www.kaigokensaku.mhlw.go.jp/10/index.php?action_kouhyou_detail_004_kani=true&JigyosyoCd=1070600737-00&ServiceCd=210&Type=search" }, "geometry": { "type": "Point", "coordinates": [ 139.107598899999971, 36.666211 ] } },
{ "type": "Feature", "properties": { "内容": "特別養護老人ホームまごころ【短期入所生活介護】群馬県沼田市戸鹿野町375‐1", "url2": "https://www.kaigokensaku.mhlw.go.jp/10/index.php?action_kouhyou_detail_004_kani=true&JigyosyoCd=1070601149-00&ServiceCd=210&Type=search" }, "geometry": { "type": "Point", "coordinates": [ 139.0369738, 36.6337666 ] } },
{ "type": "Feature", "properties": { "内容": "ショートステイ菜の花館本町通り【短期入所生活介護】群馬県沼田市上之町１１４９番地", "url2": "https://www.kaigokensaku.mhlw.go.jp/10/index.php?action_kouhyou_detail_004_kani=true&JigyosyoCd=1070601107-00&ServiceCd=210&Type=search" }, "geometry": { "type": "Point", "coordinates": [ 139.0467648, 36.6444141 ] } },
{ "type": "Feature", "properties": { "内容": "ショートステイ菜の花館園原【短期入所生活介護】群馬県沼田市利根町園原８７０", "url2": "https://www.kaigokensaku.mhlw.go.jp/10/index.php?action_kouhyou_detail_004_kani=true&JigyosyoCd=1070600679-00&ServiceCd=210&Type=search" }, "geometry": { "type": "Point", "coordinates": [ 139.184309, 36.6561187 ] } },
{ "type": "Feature", "properties": { "内容": "特別養護老人ホーム　ヴィレージュ【短期入所生活介護】群馬県館林市岡野町３３５－１", "url2": "https://www.kaigokensaku.mhlw.go.jp/10/index.php?action_kouhyou_detail_004_kani=true&JigyosyoCd=1070700123-00&ServiceCd=210&Type=search" }, "geometry": { "type": "Point", "coordinates": [ 139.520583, 36.2616008 ] } },
{ "type": "Feature", "properties": { "内容": "あずみ苑館林【短期入所生活介護】群馬県館林市上赤生田町4144-1", "url2": "https://www.kaigokensaku.mhlw.go.jp/10/index.php?action_kouhyou_detail_004_kani=true&JigyosyoCd=1070700628-00&ServiceCd=210&Type=search" }, "geometry": { "type": "Point", "coordinates": [ 139.54414840000004, 36.2319559 ] } },
{ "type": "Feature", "properties": { "内容": "特別養護老人ホーム東毛光生園【短期入所生活介護】群馬県館林市成島町862-4", "url2": "https://www.kaigokensaku.mhlw.go.jp/10/index.php?action_kouhyou_detail_004_kani=true&JigyosyoCd=1070700032-00&ServiceCd=210&Type=search" }, "geometry": { "type": "Point", "coordinates": [ 139.498860400000012, 36.2478574 ] } },
{ "type": "Feature", "properties": { "内容": "赤羽の郷ショートステイ【短期入所生活介護】群馬県館林市赤生田町648-9", "url2": "https://www.kaigokensaku.mhlw.go.jp/10/index.php?action_kouhyou_detail_004_kani=true&JigyosyoCd=1070700602-00&ServiceCd=210&Type=search" }, "geometry": { "type": "Point", "coordinates": [ 139.564898424961939, 36.227539588570146 ] } },
{ "type": "Feature", "properties": { "内容": "特別養護老人ホームあざみ荘【短期入所生活介護】群馬県館林市大手町8-25", "url2": "https://www.kaigokensaku.mhlw.go.jp/10/index.php?action_kouhyou_detail_004_kani=true&JigyosyoCd=1070701287-00&ServiceCd=210&Type=search" }, "geometry": { "type": "Point", "coordinates": [ 139.537487599999963, 36.2478867 ] } },
{ "type": "Feature", "properties": { "内容": "クローバー荘【短期入所生活介護】群馬県館林市田谷町１１８７－１", "url2": "https://www.kaigokensaku.mhlw.go.jp/10/index.php?action_kouhyou_detail_004_kani=true&JigyosyoCd=1070700016-00&ServiceCd=210&Type=search" }, "geometry": { "type": "Point", "coordinates": [ 139.5785899, 36.2579698 ] } },
{ "type": "Feature", "properties": { "内容": "かない苑ショートステイサービス【短期入所生活介護】群馬県渋川市金井２２１２番地１", "url2": "https://www.kaigokensaku.mhlw.go.jp/10/index.php?action_kouhyou_detail_004_kani=true&JigyosyoCd=1070800162-00&ServiceCd=210&Type=search" }, "geometry": { "type": "Point", "coordinates": [ 138.9867097, 36.5163648 ] } },
{ "type": "Feature", "properties": { "内容": "ひかりの里　ショートステイ【短期入所生活介護】群馬県渋川市渋川２２１６－１", "url2": "https://www.kaigokensaku.mhlw.go.jp/10/index.php?action_kouhyou_detail_004_kani=true&JigyosyoCd=1070800576-00&ServiceCd=210&Type=search" }, "geometry": { "type": "Point", "coordinates": [ 138.998798099999931, 36.4975809 ] } },
{ "type": "Feature", "properties": { "内容": "特別養護老人ホーム　カナン（短期入所）【短期入所生活介護】群馬県渋川市渋川3653-1", "url2": "https://www.kaigokensaku.mhlw.go.jp/10/index.php?action_kouhyou_detail_004_kani=true&JigyosyoCd=1070801285-00&ServiceCd=210&Type=search" }, "geometry": { "type": "Point", "coordinates": [ 138.951668255294862, 36.493036485851775 ] } },
{ "type": "Feature", "properties": { "内容": "清流の郷ショートステイ【短期入所生活介護】群馬県渋川市赤城町敷島４４－１", "url2": "https://www.kaigokensaku.mhlw.go.jp/10/index.php?action_kouhyou_detail_004_kani=true&JigyosyoCd=1070800725-00&ServiceCd=210&Type=search" }, "geometry": { "type": "Point", "coordinates": [ 139.029924600663804, 36.535136982140571 ] } },
{ "type": "Feature", "properties": { "内容": "特別養護老人ホーム　春日園【短期入所生活介護】群馬県渋川市中郷２３９９－７", "url2": "https://www.kaigokensaku.mhlw.go.jp/10/index.php?action_kouhyou_detail_004_kani=true&JigyosyoCd=1072200031-00&ServiceCd=210&Type=search" }, "geometry": { "type": "Point", "coordinates": [ 139.009404300000028, 36.5378574 ] } },
{ "type": "Feature", "properties": { "内容": "永光荘ショートステイ【短期入所生活介護】群馬県渋川市半田７８５－５", "url2": "https://www.kaigokensaku.mhlw.go.jp/10/index.php?action_kouhyou_detail_004_kani=true&JigyosyoCd=1070800147-00&ServiceCd=210&Type=search" }, "geometry": { "type": "Point", "coordinates": [ 139.0204893, 36.4590134 ] } },
{ "type": "Feature", "properties": { "内容": "特別養護老人ホーム　ねむの丘【短期入所生活介護】群馬県渋川市北橘町八崎２３６５番地１", "url2": "https://www.kaigokensaku.mhlw.go.jp/10/index.php?action_kouhyou_detail_004_kani=true&JigyosyoCd=1072000258-00&ServiceCd=210&Type=search" }, "geometry": { "type": "Point", "coordinates": [ 139.040105600000061, 36.4945318 ] } },
{ "type": "Feature", "properties": { "内容": "特別養護老人ホームねむの丘（ユニット型）【短期入所生活介護】群馬県渋川市北橘町八崎２３６５番地1", "url2": "https://www.kaigokensaku.mhlw.go.jp/10/index.php?action_kouhyou_detail_004_kani=true&JigyosyoCd=1070801111-00&ServiceCd=210&Type=search" }, "geometry": { "type": "Point", "coordinates": [ 139.040105600000061, 36.4945318 ] } },
{ "type": "Feature", "properties": { "内容": "社会福祉法人伸和会つどい（岡の郷）【短期入所生活介護】群馬県藤岡市岡之郷１２番地４", "url2": "https://www.kaigokensaku.mhlw.go.jp/10/index.php?action_kouhyou_detail_004_kani=true&JigyosyoCd=1070900053-00&ServiceCd=210&Type=search" }, "geometry": { "type": "Point", "coordinates": [ 139.088325700000041, 36.2743531 ] } },
{ "type": "Feature", "properties": { "内容": "御嶽特別養護老人ホーム【短期入所生活介護】群馬県藤岡市浄法寺１８８１－６", "url2": "https://www.kaigokensaku.mhlw.go.jp/10/index.php?action_kouhyou_detail_004_kani=true&JigyosyoCd=1072300088-00&ServiceCd=210&Type=search" }, "geometry": { "type": "Point", "coordinates": [ 139.049604, 36.1879566 ] } },
{ "type": "Feature", "properties": { "内容": "社会福祉法人みやび会ふじの里【短期入所生活介護】群馬県藤岡市中大塚880番地", "url2": "https://www.kaigokensaku.mhlw.go.jp/10/index.php?action_kouhyou_detail_004_kani=true&JigyosyoCd=1070900046-00&ServiceCd=210&Type=search" }, "geometry": { "type": "Point", "coordinates": [ 139.051988299999948, 36.246808 ] } },
{ "type": "Feature", "properties": { "内容": "まほろばショートステイ【短期入所生活介護】群馬県藤岡市藤岡1019-2", "url2": "https://www.kaigokensaku.mhlw.go.jp/10/index.php?action_kouhyou_detail_004_kani=true&JigyosyoCd=1070900533-00&ServiceCd=210&Type=search" }, "geometry": { "type": "Point", "coordinates": [ 139.068281, 36.2550684 ] } },
{ "type": "Feature", "properties": { "内容": "社会福祉法人山紫会音和の園介護支援サービスセンター【短期入所生活介護】群馬県藤岡市藤岡２８７４-２", "url2": "https://www.kaigokensaku.mhlw.go.jp/10/index.php?action_kouhyou_detail_004_kani=true&JigyosyoCd=1070900020-00&ServiceCd=210&Type=search" }, "geometry": { "type": "Point", "coordinates": [ 139.058679699999971, 36.2236164 ] } },
{ "type": "Feature", "properties": { "内容": "ショートステイあんず【短期入所生活介護】群馬県藤岡市藤岡2987", "url2": "https://www.kaigokensaku.mhlw.go.jp/10/index.php?action_kouhyou_detail_004_kani=true&JigyosyoCd=1070901358-00&ServiceCd=210&Type=search" }, "geometry": { "type": "Point", "coordinates": [ 139.069353699999965, 36.2268216 ] } },
{ "type": "Feature", "properties": { "内容": "社会福祉法人　大桐会　天の間園【短期入所生活介護】群馬県富岡市上高瀬1390", "url2": "https://www.kaigokensaku.mhlw.go.jp/10/index.php?action_kouhyou_detail_004_kani=true&JigyosyoCd=1071000101-00&ServiceCd=210&Type=search" }, "geometry": { "type": "Point", "coordinates": [ 138.887821900000063, 36.2491475 ] } },
{ "type": "Feature", "properties": { "内容": "特別養護老人ホーム鏑泉苑ユニット【短期入所生活介護】群馬県富岡市下高瀬724番地", "url2": "https://www.kaigokensaku.mhlw.go.jp/10/index.php?action_kouhyou_detail_004_kani=true&JigyosyoCd=1071000762-00&ServiceCd=210&Type=search" }, "geometry": { "type": "Point", "coordinates": [ 138.886503, 36.2421844 ] } },
{ "type": "Feature", "properties": { "内容": "特別養護老人ホーム　鏑泉苑【短期入所生活介護】群馬県富岡市下高瀬724番地", "url2": "https://www.kaigokensaku.mhlw.go.jp/10/index.php?action_kouhyou_detail_004_kani=true&JigyosyoCd=1071000077-00&ServiceCd=210&Type=search" }, "geometry": { "type": "Point", "coordinates": [ 138.886503, 36.2421844 ] } },
{ "type": "Feature", "properties": { "内容": "特別養護老人ホームふれあいホーム【短期入所生活介護】群馬県富岡市黒川1380番地", "url2": "https://www.kaigokensaku.mhlw.go.jp/10/index.php?action_kouhyou_detail_004_kani=true&JigyosyoCd=1071000192-00&ServiceCd=210&Type=search" }, "geometry": { "type": "Point", "coordinates": [ 138.879610400000047, 36.2682868 ] } },
{ "type": "Feature", "properties": { "内容": "特別養護老人ホーム妙義ショートステイセンター【短期入所生活介護】群馬県富岡市妙義町下高田1888番地１", "url2": "https://www.kaigokensaku.mhlw.go.jp/10/index.php?action_kouhyou_detail_004_kani=true&JigyosyoCd=1071000523-00&ServiceCd=210&Type=search" }, "geometry": { "type": "Point", "coordinates": [ 138.8259703, 36.2816769 ] } },
{ "type": "Feature", "properties": { "内容": "老人短期入所なゆた【短期入所生活介護】群馬県安中市鷺宮字北上平３８９", "url2": "https://www.kaigokensaku.mhlw.go.jp/10/index.php?action_kouhyou_detail_004_kani=true&JigyosyoCd=1071100265-00&ServiceCd=210&Type=search" }, "geometry": { "type": "Point", "coordinates": [ 138.894021599999974, 36.3053529 ] } },
{ "type": "Feature", "properties": { "内容": "特別養護老人ホームうすいの里【短期入所生活介護】群馬県安中市松井田町高梨子1491-1", "url2": "https://www.kaigokensaku.mhlw.go.jp/10/index.php?action_kouhyou_detail_004_kani=true&JigyosyoCd=1072500067-00&ServiceCd=210&Type=search" }, "geometry": { "type": "Point", "coordinates": [ 138.795482, 36.3298489 ] } },
{ "type": "Feature", "properties": { "内容": "特別養護老人ホーム「楽聚」ユニット型【短期入所生活介護】群馬県安中市松井田町二軒在家776番地1", "url2": "https://www.kaigokensaku.mhlw.go.jp/10/index.php?action_kouhyou_detail_004_kani=true&JigyosyoCd=1071100794-00&ServiceCd=210&Type=search" }, "geometry": { "type": "Point", "coordinates": [ 138.814647015344235, 36.302364039235336 ] } },
{ "type": "Feature", "properties": { "内容": "ケアステーション　ピース安中【短期入所生活介護】群馬県安中市中宿2180-2", "url2": "https://www.kaigokensaku.mhlw.go.jp/10/index.php?action_kouhyou_detail_004_kani=true&JigyosyoCd=1071100299-00&ServiceCd=210&Type=search" }, "geometry": { "type": "Point", "coordinates": [ 138.923911545816054, 36.335339369129883 ] } },
{ "type": "Feature", "properties": { "内容": "特別養護老人ホームのどの荘【短期入所生活介護】群馬県安中市野殿1599-1", "url2": "https://www.kaigokensaku.mhlw.go.jp/10/index.php?action_kouhyou_detail_004_kani=true&JigyosyoCd=1071100075-00&ServiceCd=210&Type=search" }, "geometry": { "type": "Point", "coordinates": [ 138.91476590000002, 36.3190715 ] } },
{ "type": "Feature", "properties": { "内容": "特別養護老人ホーム明嶺荘【短期入所生活介護】群馬県安中市嶺２４０", "url2": "https://www.kaigokensaku.mhlw.go.jp/10/index.php?action_kouhyou_detail_004_kani=true&JigyosyoCd=1071100042-00&ServiceCd=210&Type=search" }, "geometry": { "type": "Point", "coordinates": [ 138.849919, 36.3188618 ] } },
{ "type": "Feature", "properties": { "内容": "かさかけの里（ユニット棟）【短期入所生活介護】群馬県みどり市笠懸町鹿3033－1", "url2": "https://www.kaigokensaku.mhlw.go.jp/10/index.php?action_kouhyou_detail_004_kani=true&JigyosyoCd=1071200701-00&ServiceCd=210&Type=search" }, "geometry": { "type": "Point", "coordinates": [ 139.2775686, 36.3976035 ] } },
{ "type": "Feature", "properties": { "内容": "特別養護老人ホームながめの郷（ユニット型養護老人ホームながめの郷）【短期入所生活介護】群馬県みどり市大間々町桐原1511番地1", "url2": "https://www.kaigokensaku.mhlw.go.jp/10/index.php?action_kouhyou_detail_004_kani=true&JigyosyoCd=1071200727-00&ServiceCd=210&Type=search" }, "geometry": { "type": "Point", "coordinates": [ 139.274630053611787, 36.445888046573565 ] } },
{ "type": "Feature", "properties": { "内容": "短期入所生活介護　プロヴァンス笠懸【短期入所生活介護】群馬県みどり市笠懸町阿左美500-3", "url2": "https://www.kaigokensaku.mhlw.go.jp/10/index.php?action_kouhyou_detail_004_kani=true&JigyosyoCd=1071200933-00&ServiceCd=210&Type=search" }, "geometry": { "type": "Point", "coordinates": [ 139.29934795526421, 36.374708048796087 ] } },
{ "type": "Feature", "properties": { "内容": "ショートステイ　サンホープケアヴィレッジ・ソレイユ【短期入所生活介護】群馬県みどり市笠懸町阿左美500-1", "url2": "https://www.kaigokensaku.mhlw.go.jp/10/index.php?action_kouhyou_detail_004_kani=true&JigyosyoCd=1072900853-00&ServiceCd=210&Type=search" }, "geometry": { "type": "Point", "coordinates": [ 139.299302399999988, 36.3751656 ] } },
{ "type": "Feature", "properties": { "内容": "ショートステイ孫の手・かさかけ【短期入所生活介護】群馬県みどり市笠懸町久宮164-1", "url2": "https://www.kaigokensaku.mhlw.go.jp/10/index.php?action_kouhyou_detail_004_kani=true&JigyosyoCd=1071200768-00&ServiceCd=210&Type=search" }, "geometry": { "type": "Point", "coordinates": [ 139.286991992590401, 36.379689246049331 ] } },
{ "type": "Feature", "properties": { "内容": "ショートステイいずみ【短期入所生活介護】群馬県みどり市笠懸町久宮300番地", "url2": "https://www.kaigokensaku.mhlw.go.jp/10/index.php?action_kouhyou_detail_004_kani=true&JigyosyoCd=1071201006-00&ServiceCd=210&Type=search" }, "geometry": { "type": "Point", "coordinates": [ 139.280145800000014, 36.3789286 ] } },
{ "type": "Feature", "properties": { "内容": "かさかけの里【短期入所生活介護】群馬県みどり市笠懸町鹿３０３３－１", "url2": "https://www.kaigokensaku.mhlw.go.jp/10/index.php?action_kouhyou_detail_004_kani=true&JigyosyoCd=1072900077-00&ServiceCd=210&Type=search" }, "geometry": { "type": "Point", "coordinates": [ 139.277337799999941, 36.3975461 ] } },
{ "type": "Feature", "properties": { "内容": "特別養護老人ホームサニーヒル【短期入所生活介護】群馬県みどり市大間々町桐原１４７６－１", "url2": "https://www.kaigokensaku.mhlw.go.jp/10/index.php?action_kouhyou_detail_004_kani=true&JigyosyoCd=1073000075-00&ServiceCd=210&Type=search" }, "geometry": { "type": "Point", "coordinates": [ 139.2636824, 36.437633 ] } },
{ "type": "Feature", "properties": { "内容": "特別養護老人ホーム　ながめの郷【短期入所生活介護】群馬県みどり市大間々町桐原1511番地1", "url2": "https://www.kaigokensaku.mhlw.go.jp/10/index.php?action_kouhyou_detail_004_kani=true&JigyosyoCd=1071200719-00&ServiceCd=210&Type=search" }, "geometry": { "type": "Point", "coordinates": [ 139.274737341972383, 36.445780165601917 ] } },
{ "type": "Feature", "properties": { "内容": "特別養護老人ホームしんとう苑【短期入所生活介護】群馬県北群馬郡榛東村広馬場1797-1", "url2": "https://www.kaigokensaku.mhlw.go.jp/10/index.php?action_kouhyou_detail_004_kani=true&JigyosyoCd=1072200288-00&ServiceCd=210&Type=search" }, "geometry": { "type": "Point", "coordinates": [ 138.966096200000038, 36.4200497 ] } },
{ "type": "Feature", "properties": { "内容": "特別養護老人ホーム船尾苑【短期入所生活介護】群馬県北群馬郡吉岡町大字上野田２１３５番地", "url2": "https://www.kaigokensaku.mhlw.go.jp/10/index.php?action_kouhyou_detail_004_kani=true&JigyosyoCd=1072200106-00&ServiceCd=210&Type=search" }, "geometry": { "type": "Point", "coordinates": [ 138.9669053, 36.4687384 ] } },
{ "type": "Feature", "properties": { "内容": "特別養護老人ホームシェステやまの花【短期入所生活介護】群馬県多野郡神流町大字万場２０７", "url2": "https://www.kaigokensaku.mhlw.go.jp/10/index.php?action_kouhyou_detail_004_kani=true&JigyosyoCd=1072300112-00&ServiceCd=210&Type=search" }, "geometry": { "type": "Point", "coordinates": [ 138.915208300000018, 36.1181303 ] } },
{ "type": "Feature", "properties": { "内容": "特別養護老人ホーム　かぶらの里（ユニット型）【短期入所生活介護】群馬県甘楽郡下仁田町大字下小坂８７７", "url2": "https://www.kaigokensaku.mhlw.go.jp/10/index.php?action_kouhyou_detail_004_kani=true&JigyosyoCd=1072400532-00&ServiceCd=210&Type=search" }, "geometry": { "type": "Point", "coordinates": [ 138.759340400000042, 36.2286876 ] } },
{ "type": "Feature", "properties": { "内容": "特別養護老人ホーム　かぶらの里【短期入所生活介護】群馬県甘楽郡下仁田町大字下小坂８７７", "url2": "https://www.kaigokensaku.mhlw.go.jp/10/index.php?action_kouhyou_detail_004_kani=true&JigyosyoCd=1072400201-00&ServiceCd=210&Type=search" }, "geometry": { "type": "Point", "coordinates": [ 138.759340400000042, 36.2286876 ] } },
{ "type": "Feature", "properties": { "内容": "地域密着型小規模特別養護老人ホームかのか【短期入所生活介護】群馬県甘楽郡南牧村大字小沢1247番地", "url2": "https://www.kaigokensaku.mhlw.go.jp/10/index.php?action_kouhyou_detail_004_kani=true&JigyosyoCd=1072400649-00&ServiceCd=210&Type=search" }, "geometry": { "type": "Point", "coordinates": [ 138.750911860882496, 36.188679098240371 ] } },
{ "type": "Feature", "properties": { "内容": "さわやかホーム【短期入所生活介護】群馬県甘楽郡南牧村大字大日向９２６", "url2": "https://www.kaigokensaku.mhlw.go.jp/10/index.php?action_kouhyou_detail_004_kani=true&JigyosyoCd=1072400060-00&ServiceCd=210&Type=search" }, "geometry": { "type": "Point", "coordinates": [ 138.70374860000004, 36.1576448 ] } },
{ "type": "Feature", "properties": { "内容": "特別養護老人ホーム・シルク【短期入所生活介護】群馬県甘楽郡甘楽町白倉1384-1", "url2": "https://www.kaigokensaku.mhlw.go.jp/10/index.php?action_kouhyou_detail_004_kani=true&JigyosyoCd=1072400110-00&ServiceCd=210&Type=search" }, "geometry": { "type": "Point", "coordinates": [ 138.934491900000012, 36.242613 ] } },
{ "type": "Feature", "properties": { "内容": "特別養護老人ホーム　シルク・おばた【短期入所生活介護】群馬県甘楽郡甘楽町善慶寺1351", "url2": "https://www.kaigokensaku.mhlw.go.jp/10/index.php?action_kouhyou_detail_004_kani=true&JigyosyoCd=1072400441-00&ServiceCd=210&Type=search" }, "geometry": { "type": "Point", "coordinates": [ 138.90802020000001, 36.2380016 ] } },
{ "type": "Feature", "properties": { "内容": "ショートステイやまゆり【短期入所生活介護】群馬県吾妻郡中之条町大字折田２５１５", "url2": "https://www.kaigokensaku.mhlw.go.jp/10/index.php?action_kouhyou_detail_004_kani=true&JigyosyoCd=1072600883-00&ServiceCd=210&Type=search" }, "geometry": { "type": "Point", "coordinates": [ 138.814107799999988, 36.6021819 ] } },
{ "type": "Feature", "properties": { "内容": "ショートステイ　サザン【短期入所生活介護】群馬県吾妻郡中之条町大字中之条町714-1", "url2": "https://www.kaigokensaku.mhlw.go.jp/10/index.php?action_kouhyou_detail_004_kani=true&JigyosyoCd=1072600743-00&ServiceCd=210&Type=search" }, "geometry": { "type": "Point", "coordinates": [ 138.832481700000017, 36.5837013 ] } },
{ "type": "Feature", "properties": { "内容": "社会医療法人輝城会　なかんじょ在宅ケアセンター【短期入所生活介護】群馬県吾妻郡中之条町1869-5なかんじょ在宅ケアセンター", "url2": "https://www.kaigokensaku.mhlw.go.jp/10/index.php?action_kouhyou_detail_004_kani=true&JigyosyoCd=1072600990-00&ServiceCd=210&Type=search" }, "geometry": { "type": "Point", "coordinates": [ 138.850752199999988, 36.5866515 ] } },
{ "type": "Feature", "properties": { "内容": "からまつ荘【短期入所生活介護】群馬県吾妻郡長野原町大字与喜屋1624", "url2": "https://www.kaigokensaku.mhlw.go.jp/10/index.php?action_kouhyou_detail_004_kani=true&JigyosyoCd=1072600081-00&ServiceCd=210&Type=search" }, "geometry": { "type": "Point", "coordinates": [ 138.618579100000034, 36.546954 ] } },
{ "type": "Feature", "properties": { "内容": "特別養護老人ホーム　ひだまりの森白樺荘【短期入所生活介護】群馬県　吾妻郡　嬬恋村　大字　田代　９３８－８", "url2": "https://www.kaigokensaku.mhlw.go.jp/10/index.php?action_kouhyou_detail_004_kani=true&JigyosyoCd=1072600412-00&ServiceCd=210&Type=search" }, "geometry": { "type": "Point", "coordinates": [ 138.461639099999957, 36.4843484 ] } },
{ "type": "Feature", "properties": { "内容": "草津温泉湯治館　そよ風【短期入所生活介護】群馬県吾妻郡草津町大字草津４６４－７０２", "url2": "https://www.kaigokensaku.mhlw.go.jp/10/index.php?action_kouhyou_detail_004_kani=true&JigyosyoCd=1072600826-00&ServiceCd=210&Type=search" }, "geometry": { "type": "Point", "coordinates": [ 138.588334199999963, 36.6193894 ] } },
{ "type": "Feature", "properties": { "内容": "中山の郷ショートステイ【短期入所生活介護】群馬県吾妻郡高山村大字中山2715番地11中山の郷", "url2": "https://www.kaigokensaku.mhlw.go.jp/10/index.php?action_kouhyou_detail_004_kani=true&JigyosyoCd=1072601337-00&ServiceCd=210&Type=search" }, "geometry": { "type": "Point", "coordinates": [ 138.951940199999967, 36.6226336 ] } },
{ "type": "Feature", "properties": { "内容": "東吾妻町立特別養護老人ホームいわびつ荘【短期入所生活介護】群馬県吾妻郡東吾妻町大字原町５０１５", "url2": "https://www.kaigokensaku.mhlw.go.jp/10/index.php?action_kouhyou_detail_004_kani=true&JigyosyoCd=1072601543-00&ServiceCd=210&Type=search" }, "geometry": { "type": "Point", "coordinates": [ 138.819873299999983, 36.5700304 ] } },
{ "type": "Feature", "properties": { "内容": "ショートステイすいせんの里【短期入所生活介護】群馬県吾妻郡東吾妻町大字原町３９", "url2": "https://www.kaigokensaku.mhlw.go.jp/10/index.php?action_kouhyou_detail_004_kani=true&JigyosyoCd=1072601147-00&ServiceCd=210&Type=search" }, "geometry": { "type": "Point", "coordinates": [ 138.835235454444955, 36.578870602425759 ] } },
{ "type": "Feature", "properties": { "内容": "あがつま在宅ケアセンター【短期入所生活介護】群馬県吾妻郡東吾妻町大字原町７０５－１", "url2": "https://www.kaigokensaku.mhlw.go.jp/10/index.php?action_kouhyou_detail_004_kani=true&JigyosyoCd=1072600024-00&ServiceCd=210&Type=search" }, "geometry": { "type": "Point", "coordinates": [ 138.826049300000022, 36.5732774 ] } },
{ "type": "Feature", "properties": { "内容": "特別養護老人ホーム桜花苑【短期入所生活介護】群馬県利根郡片品村大字摺渕340番地", "url2": "https://www.kaigokensaku.mhlw.go.jp/10/index.php?action_kouhyou_detail_004_kani=true&JigyosyoCd=1072700170-00&ServiceCd=210&Type=search" }, "geometry": { "type": "Point", "coordinates": [ 139.221508500000027, 36.7375758 ] } },
{ "type": "Feature", "properties": { "内容": "地域密着型特別養護老人ホーム桜花苑きらり【短期入所生活介護】群馬県利根郡片品村大字摺渕340番地", "url2": "https://www.kaigokensaku.mhlw.go.jp/10/index.php?action_kouhyou_detail_004_kani=true&JigyosyoCd=1072700857-00&ServiceCd=210&Type=search" }, "geometry": { "type": "Point", "coordinates": [ 139.221533499999964, 36.7375397 ] } },
{ "type": "Feature", "properties": { "内容": "特別養護老人ホーム　川場春光園【短期入所生活介護】群馬県利根郡川場村大字生品１８６１番地", "url2": "https://www.kaigokensaku.mhlw.go.jp/10/index.php?action_kouhyou_detail_004_kani=true&JigyosyoCd=1072700097-00&ServiceCd=210&Type=search" }, "geometry": { "type": "Point", "coordinates": [ 139.077634900000021, 36.6683135 ] } },
{ "type": "Feature", "properties": { "内容": "特別養護老人ホーム　川場春光園（ユニット型）【短期入所生活介護】群馬県利根郡川場村大字生品1861番地", "url2": "https://www.kaigokensaku.mhlw.go.jp/10/index.php?action_kouhyou_detail_004_kani=true&JigyosyoCd=1072700808-00&ServiceCd=210&Type=search" }, "geometry": { "type": "Point", "coordinates": [ 139.077275483992025, 36.667801461283766 ] } },
{ "type": "Feature", "properties": { "内容": "ショートステイ菜の花館【短期入所生活介護】群馬県利根郡昭和村大字糸井１７５７－３１１", "url2": "https://www.kaigokensaku.mhlw.go.jp/10/index.php?action_kouhyou_detail_004_kani=true&JigyosyoCd=1072700550-00&ServiceCd=210&Type=search" }, "geometry": { "type": "Point", "coordinates": [ 139.077869, 36.640789 ] } },
{ "type": "Feature", "properties": { "内容": "西嶺の郷ショートステイ【短期入所生活介護】群馬県利根郡みなかみ町西峰須川４７２－１", "url2": "https://www.kaigokensaku.mhlw.go.jp/10/index.php?action_kouhyou_detail_004_kani=true&JigyosyoCd=1072700436-00&ServiceCd=210&Type=search" }, "geometry": { "type": "Point", "coordinates": [ 138.909780700000027, 36.6870728 ] } },
{ "type": "Feature", "properties": { "内容": "やまぶきの苑【短期入所生活介護】群馬県利根郡みなかみ町石倉１５０－１", "url2": "https://www.kaigokensaku.mhlw.go.jp/10/index.php?action_kouhyou_detail_004_kani=true&JigyosyoCd=1072700055-00&ServiceCd=210&Type=search" }, "geometry": { "type": "Point", "coordinates": [ 138.982860800000026, 36.7410602 ] } },
{ "type": "Feature", "properties": { "内容": "特別養護老人ホームタマビレッジ【短期入所生活介護】群馬県佐波郡玉村町上新田６４０－１", "url2": "https://www.kaigokensaku.mhlw.go.jp/10/index.php?action_kouhyou_detail_004_kani=true&JigyosyoCd=1072800665-00&ServiceCd=210&Type=search" }, "geometry": { "type": "Point", "coordinates": [ 139.098285, 36.3093481 ] } },
{ "type": "Feature", "properties": { "内容": "ショートステイ　にしきの園【短期入所生活介護】群馬県佐波郡玉村町大字飯倉５９", "url2": "https://www.kaigokensaku.mhlw.go.jp/10/index.php?action_kouhyou_detail_004_kani=true&JigyosyoCd=1072800244-00&ServiceCd=210&Type=search" }, "geometry": { "type": "Point", "coordinates": [ 139.151282300000048, 36.2891288 ] } },
{ "type": "Feature", "properties": { "内容": "ミモザ荘【短期入所生活介護】群馬県邑楽郡板倉町細谷２１７", "url2": "https://www.kaigokensaku.mhlw.go.jp/10/index.php?action_kouhyou_detail_004_kani=true&JigyosyoCd=1073100016-00&ServiceCd=210&Type=search" }, "geometry": { "type": "Point", "coordinates": [ 139.625201800000013, 36.2480335 ] } },
{ "type": "Feature", "properties": { "内容": "特別養護老人ホーム和の郷【短期入所生活介護】群馬県邑楽郡明和町南大島２５３－１", "url2": "https://www.kaigokensaku.mhlw.go.jp/10/index.php?action_kouhyou_detail_004_kani=true&JigyosyoCd=1073100271-00&ServiceCd=210&Type=search" }, "geometry": { "type": "Point", "coordinates": [ 139.5300919, 36.2145075 ] } },
{ "type": "Feature", "properties": { "内容": "めいわCOMハウスショートステイ【短期入所生活介護】群馬県邑楽郡明和町大輪１７６８番地", "url2": "https://www.kaigokensaku.mhlw.go.jp/10/index.php?action_kouhyou_detail_004_kani=true&JigyosyoCd=1073100743-00&ServiceCd=210&Type=search" }, "geometry": { "type": "Point", "coordinates": [ 139.493085369531286, 36.197064140562638 ] } },
{ "type": "Feature", "properties": { "内容": "特別養護老人ホーム　みどりの風【短期入所生活介護】群馬県邑楽郡千代田町大字瀬戸井３８６", "url2": "https://www.kaigokensaku.mhlw.go.jp/10/index.php?action_kouhyou_detail_004_kani=true&JigyosyoCd=1073100669-00&ServiceCd=210&Type=search" }, "geometry": { "type": "Point", "coordinates": [ 139.45559, 36.1991867 ] } },
{ "type": "Feature", "properties": { "内容": "ちよだＣＯＭハウス【短期入所生活介護】群馬県邑楽郡千代田町赤岩２１１４－２", "url2": "https://www.kaigokensaku.mhlw.go.jp/10/index.php?action_kouhyou_detail_004_kani=true&JigyosyoCd=1073100040-00&ServiceCd=210&Type=search" }, "geometry": { "type": "Point", "coordinates": [ 139.448475700000017, 36.2182814 ] } },
{ "type": "Feature", "properties": { "内容": "ショートステイあいの花【短期入所生活介護】群馬県邑楽郡大泉町吉田2392-3", "url2": "https://www.kaigokensaku.mhlw.go.jp/10/index.php?action_kouhyou_detail_004_kani=true&JigyosyoCd=1073101295-00&ServiceCd=210&Type=search" }, "geometry": { "type": "Point", "coordinates": [ 139.410169799999949, 36.241997 ] } },
{ "type": "Feature", "properties": { "内容": "特別養護老人ホーム　大泉園【短期入所生活介護】群馬県邑楽郡大泉町古海２００１", "url2": "https://www.kaigokensaku.mhlw.go.jp/10/index.php?action_kouhyou_detail_004_kani=true&JigyosyoCd=1073100115-00&ServiceCd=210&Type=search" }, "geometry": { "type": "Point", "coordinates": [ 139.414314399999967, 36.2290569 ] } },
{ "type": "Feature", "properties": { "内容": "ショートステイ　マゼンタ【短期入所生活介護】群馬県邑楽郡大泉町住吉５４－１１", "url2": "https://www.kaigokensaku.mhlw.go.jp/10/index.php?action_kouhyou_detail_004_kani=true&JigyosyoCd=1073100461-00&ServiceCd=210&Type=search" }, "geometry": { "type": "Point", "coordinates": [ 139.407344599999988, 36.2536376 ] } },
{ "type": "Feature", "properties": { "内容": "ショートステイあさひ【短期入所生活介護】群馬県邑楽郡大泉町朝日4-17-30", "url2": "https://www.kaigokensaku.mhlw.go.jp/10/index.php?action_kouhyou_detail_004_kani=true&JigyosyoCd=1073100891-00&ServiceCd=210&Type=search" }, "geometry": { "type": "Point", "coordinates": [ 139.419771099999906, 36.2533546 ] } },
{ "type": "Feature", "properties": { "内容": "ショートステイ愛【短期入所生活介護】群馬県邑楽郡大泉町西小泉5-9-1", "url2": "https://www.kaigokensaku.mhlw.go.jp/10/index.php?action_kouhyou_detail_004_kani=true&JigyosyoCd=1073100347-00&ServiceCd=210&Type=search" }, "geometry": { "type": "Point", "coordinates": [ 139.408113700000058, 36.2611814 ] } },
{ "type": "Feature", "properties": { "内容": "ショートステイ　くるみ【短期入所生活介護】群馬県邑楽郡邑楽町大字狸塚１０３３－１", "url2": "https://www.kaigokensaku.mhlw.go.jp/10/index.php?action_kouhyou_detail_004_kani=true&JigyosyoCd=1073101071-00&ServiceCd=210&Type=search" }, "geometry": { "type": "Point", "coordinates": [ 139.461300474730706, 36.236284985175054 ] } },
{ "type": "Feature", "properties": { "内容": "ショートステイまがたまの里【短期入所生活介護】群馬県邑楽郡邑楽町大字狸塚1040-1", "url2": "https://www.kaigokensaku.mhlw.go.jp/10/index.php?action_kouhyou_detail_004_kani=true&JigyosyoCd=1073101196-00&ServiceCd=210&Type=search" }, "geometry": { "type": "Point", "coordinates": [ 139.461698299999966, 36.2346521 ] } },
{ "type": "Feature", "properties": { "内容": "特別養護老人ホームすずかけ荘ショートステイ【短期入所生活介護】群馬県邑楽郡邑楽町中野5260-1", "url2": "https://www.kaigokensaku.mhlw.go.jp/10/index.php?action_kouhyou_detail_004_kani=true&JigyosyoCd=1073100768-00&ServiceCd=210&Type=search" }, "geometry": { "type": "Point", "coordinates": [ 139.4789783, 36.2670543 ] } },
{ "type": "Feature", "properties": { "内容": "特別養護老人ホーム　やまつつじ【短期入所生活介護】群馬県邑楽郡邑楽町中野２１８－１", "url2": "https://www.kaigokensaku.mhlw.go.jp/10/index.php?action_kouhyou_detail_004_kani=true&JigyosyoCd=1073100198-00&ServiceCd=210&Type=search" }, "geometry": { "type": "Point", "coordinates": [ 139.449209, 36.2664036 ] } }
]
}
