{
"type": "FeatureCollection",
"name": "geo_10_認知症対応型通所介護",
"crs": { "type": "name", "properties": { "name": "urn:ogc:def:crs:OGC:1.3:CRS84" } },
"features": [
{ "type": "Feature", "properties": { "内容": "デイサービスセンターひいらぎの里【認知症対応型通所介護】群馬県前橋市五代町１２０番地１", "url": "https://www.kaigokensaku.mhlw.go.jp/10/index.php?action_kouhyou_detail_004_kani=true&JigyosyoCd=1090100346-00&ServiceCd=720&Type=search", "url2": null }, "geometry": { "type": "Point", "coordinates": [ 139.105819900000029, 36.4077664 ] } },
{ "type": "Feature", "properties": { "内容": "三俣デイサービスセンター【認知症対応型通所介護】群馬県前橋市三俣町１－４０－４", "url": "https://www.kaigokensaku.mhlw.go.jp/10/index.php?action_kouhyou_detail_004_kani=true&JigyosyoCd=1090100015-00&ServiceCd=720&Type=search", "url2": null }, "geometry": { "type": "Point", "coordinates": [ 139.086281500000013, 36.3935038 ] } },
{ "type": "Feature", "properties": { "内容": "グループホームじゃんけんぽん大利根前橋【認知症対応型通所介護】群馬県前橋市上新田町881", "url": "https://www.kaigokensaku.mhlw.go.jp/10/index.php?action_kouhyou_detail_004_kani=true&JigyosyoCd=1090100262-00&ServiceCd=720&Type=search", "url2": "http://www.jankenpon.jp" }, "geometry": { "type": "Point", "coordinates": [ 139.064875900000061, 36.3660737 ] } },
{ "type": "Feature", "properties": { "内容": "デイサービス野のはな【認知症対応型通所介護】群馬県前橋市西片貝町一丁目310-11", "url": "https://www.kaigokensaku.mhlw.go.jp/10/index.php?action_kouhyou_detail_004_kani=true&JigyosyoCd=1070102213-00&ServiceCd=720&Type=search", "url2": "https://www.zaitaku-s.com/" }, "geometry": { "type": "Point", "coordinates": [ 139.093847, 36.3969008 ] } },
{ "type": "Feature", "properties": { "内容": "グループホーム平和【認知症対応型通所介護】群馬県高崎市飯塚町1301-1", "url": "https://www.kaigokensaku.mhlw.go.jp/10/index.php?action_kouhyou_detail_004_kani=true&JigyosyoCd=1090200286-00&ServiceCd=720&Type=search", "url2": "heiwa@bf.wakwak.com" }, "geometry": { "type": "Point", "coordinates": [ 139.013369799999964, 36.34438550000003 ] } },
{ "type": "Feature", "properties": { "内容": "ケアホーム「家族の家」浜川【認知症対応型通所介護】群馬県高崎市浜川町1314", "url": "https://www.kaigokensaku.mhlw.go.jp/10/index.php?action_kouhyou_detail_004_kani=true&JigyosyoCd=1070200934-00&ServiceCd=720&Type=search", "url2": "http://www.kazokunoie.net/" }, "geometry": { "type": "Point", "coordinates": [ 138.9845848, 36.3707572 ] } },
{ "type": "Feature", "properties": { "内容": "グループホーム大清水【認知症対応型通所介護】群馬県高崎市箕郷町柏木沢１５８－２", "url": "https://www.kaigokensaku.mhlw.go.jp/10/index.php?action_kouhyou_detail_004_kani=true&JigyosyoCd=1072100470-00&ServiceCd=720&Type=search", "url2": null }, "geometry": { "type": "Point", "coordinates": [ 138.967049399999951, 36.4075318 ] } },
{ "type": "Feature", "properties": { "内容": "グループホーム榛名荘【認知症対応型通所介護】群馬県高崎市下室田町９６５－１", "url": "https://www.kaigokensaku.mhlw.go.jp/10/index.php?action_kouhyou_detail_004_kani=true&JigyosyoCd=1092100021-00&ServiceCd=720&Type=search", "url2": "http://www.harunaso.or.jp/carecenter/" }, "geometry": { "type": "Point", "coordinates": [ 138.8821825, 36.382314 ] } },
{ "type": "Feature", "properties": { "内容": "スーパーデイようざん小塙【認知症対応型通所介護】群馬県高崎市上小塙町1052", "url": "https://www.kaigokensaku.mhlw.go.jp/10/index.php?action_kouhyou_detail_004_kani=true&JigyosyoCd=1090200138-00&ServiceCd=720&Type=search", "url2": "http://youzan.jp/" }, "geometry": { "type": "Point", "coordinates": [ 138.983284561549311, 36.353146752228461 ] } },
{ "type": "Feature", "properties": { "内容": "もてき介護福祉センター【認知症対応型通所介護】群馬県高崎市上小塙町565番地1", "url": "https://www.kaigokensaku.mhlw.go.jp/10/index.php?action_kouhyou_detail_004_kani=true&JigyosyoCd=1090200468-00&ServiceCd=720&Type=search", "url2": "http://www.suika.or.jp" }, "geometry": { "type": "Point", "coordinates": [ 138.978830737959214, 36.359882302259479 ] } },
{ "type": "Feature", "properties": { "内容": "スーパーデイようざん双葉【認知症対応型通所介護】群馬県高崎市双葉町22-9", "url": "https://www.kaigokensaku.mhlw.go.jp/10/index.php?action_kouhyou_detail_004_kani=true&JigyosyoCd=1090200310-00&ServiceCd=720&Type=search", "url2": "http://www.youzan.jp/" }, "geometry": { "type": "Point", "coordinates": [ 139.022281300000031, 36.3146954 ] } },
{ "type": "Feature", "properties": { "内容": "グループホームじゃんけんぽん群馬町【認知症対応型通所介護】群馬県高崎市足門町1525", "url": "https://www.kaigokensaku.mhlw.go.jp/10/index.php?action_kouhyou_detail_004_kani=true&JigyosyoCd=1072100439-00&ServiceCd=720&Type=search", "url2": "http://www.jankenpon.jp/" }, "geometry": { "type": "Point", "coordinates": [ 138.990365413260292, 36.400398856084045 ] } },
{ "type": "Feature", "properties": { "内容": "グループホームあいあいえす【認知症対応型通所介護】群馬県高崎市足門町1525", "url": "https://www.kaigokensaku.mhlw.go.jp/10/index.php?action_kouhyou_detail_004_kani=true&JigyosyoCd=1090200880-00&ServiceCd=720&Type=search", "url2": null }, "geometry": { "type": "Point", "coordinates": [ 138.990380439659759, 36.400427405014717 ] } },
{ "type": "Feature", "properties": { "内容": "デイサービスセンター「えがお」【認知症対応型通所介護】群馬県高崎市北原町179-1医療法人関越中央病院　介護・福祉村　北原の里", "url": "https://www.kaigokensaku.mhlw.go.jp/10/index.php?action_kouhyou_detail_004_kani=true&JigyosyoCd=1072100504-00&ServiceCd=720&Type=search", "url2": "http://www.kan-etsu-hospital.com/" }, "geometry": { "type": "Point", "coordinates": [ 139.024660017860469, 36.404327541244974 ] } },
{ "type": "Feature", "properties": { "内容": "グループホームいずみ【認知症対応型通所介護】群馬県高崎市箕郷町矢原52番地3", "url": "https://www.kaigokensaku.mhlw.go.jp/10/index.php?action_kouhyou_detail_004_kani=true&JigyosyoCd=1090200229-00&ServiceCd=720&Type=search", "url2": "http://www.izuminosono.com" }, "geometry": { "type": "Point", "coordinates": [ 138.962141699999961, 36.3970553 ] } },
{ "type": "Feature", "properties": { "内容": "認知症対応型通所介護　オレンジデイサービス【認知症対応型通所介護】群馬県高崎市矢島町20", "url": "https://www.kaigokensaku.mhlw.go.jp/10/index.php?action_kouhyou_detail_004_kani=true&JigyosyoCd=1090200419-00&ServiceCd=720&Type=search", "url2": "https://komai-hp.com/corporation/orange/" }, "geometry": { "type": "Point", "coordinates": [ 139.048578200000065, 36.337826 ] } },
{ "type": "Feature", "properties": { "内容": "スーパーデイサービス　パライソ【認知症対応型通所介護】群馬県桐生市新里町鶴ヶ谷257-8", "url": "https://www.kaigokensaku.mhlw.go.jp/10/index.php?action_kouhyou_detail_004_kani=true&JigyosyoCd=1090300391-00&ServiceCd=720&Type=search", "url2": "http://www.sanikukai.com" }, "geometry": { "type": "Point", "coordinates": [ 139.240834599999971, 36.4316111 ] } },
{ "type": "Feature", "properties": { "内容": "グループホームデイコスモス相老【認知症対応型通所介護】群馬県桐生市相生町5丁目572-1", "url": "https://www.kaigokensaku.mhlw.go.jp/10/index.php?action_kouhyou_detail_004_kani=true&JigyosyoCd=1090300326-00&ServiceCd=720&Type=search", "url2": "http://carecosmos.co.jp" }, "geometry": { "type": "Point", "coordinates": [ 139.2908172, 36.4101131 ] } },
{ "type": "Feature", "properties": { "内容": "デイサービスセンターおおいど【認知症対応型通所介護】群馬県伊勢崎市東小保方町4005-1", "url": "https://www.kaigokensaku.mhlw.go.jp/10/index.php?action_kouhyou_detail_004_kani=true&JigyosyoCd=1090400225-00&ServiceCd=720&Type=search", "url2": "http://www.ooido.net/" }, "geometry": { "type": "Point", "coordinates": [ 139.245775346308307, 36.316731696001774 ] } },
{ "type": "Feature", "properties": { "内容": "グループホーム太田サンフラワーⅡ【認知症対応型通所介護】群馬県太田市台之郷町３０７番地", "url": "https://www.kaigokensaku.mhlw.go.jp/10/index.php?action_kouhyou_detail_004_kani=true&JigyosyoCd=1090500081-00&ServiceCd=720&Type=search", "url2": "http://himawari-no1.com/" }, "geometry": { "type": "Point", "coordinates": [ 139.415338600000041, 36.3043602 ] } },
{ "type": "Feature", "properties": { "内容": "さくらの里グループホーム【認知症対応型通所介護】群馬県太田市中根町295番地1", "url": "https://www.kaigokensaku.mhlw.go.jp/10/index.php?action_kouhyou_detail_004_kani=true&JigyosyoCd=1070501166-00&ServiceCd=720&Type=search", "url2": null }, "geometry": { "type": "Point", "coordinates": [ 139.320720199999982, 36.2719205 ] } },
{ "type": "Feature", "properties": { "内容": "グループホームアルプス【認知症対応型通所介護】群馬県太田市薮塚町４１４９－３", "url": "https://www.kaigokensaku.mhlw.go.jp/10/index.php?action_kouhyou_detail_004_kani=true&JigyosyoCd=1072900523-00&ServiceCd=720&Type=search", "url2": "arupusu@khaki.plala.or.jp" }, "geometry": { "type": "Point", "coordinates": [ 139.298769415885886, 36.367834176029035 ] } },
{ "type": "Feature", "properties": { "内容": "デイサービスコスモス彦九郎【認知症対応型通所介護】群馬県太田市細谷町1324-3グループホームコスモス彦九郎", "url": "https://www.kaigokensaku.mhlw.go.jp/10/index.php?action_kouhyou_detail_004_kani=true&JigyosyoCd=1090500404-00&ServiceCd=720&Type=search", "url2": "http://carecosmos.co.jp" }, "geometry": { "type": "Point", "coordinates": [ 139.3473093, 36.2764485 ] } },
{ "type": "Feature", "properties": { "内容": "よらっせ　清水【認知症対応型通所介護】群馬県太田市西長岡町736-2", "url": "https://www.kaigokensaku.mhlw.go.jp/10/index.php?action_kouhyou_detail_004_kani=true&JigyosyoCd=1090500289-00&ServiceCd=720&Type=search", "url2": "https://www.team-shimizu.com" }, "geometry": { "type": "Point", "coordinates": [ 139.331306, 36.3499652 ] } },
{ "type": "Feature", "properties": { "内容": "きやっせ　清水【認知症対応型通所介護】群馬県太田市西長岡町８４８－１", "url": "https://www.kaigokensaku.mhlw.go.jp/10/index.php?action_kouhyou_detail_004_kani=true&JigyosyoCd=1090500164-00&ServiceCd=720&Type=search", "url2": null }, "geometry": { "type": "Point", "coordinates": [ 139.330703299999982, 36.350318 ] } },
{ "type": "Feature", "properties": { "内容": "共生ホームあかり【認知症対応型通所介護】群馬県太田市東長岡町1829－1", "url": "https://www.kaigokensaku.mhlw.go.jp/10/index.php?action_kouhyou_detail_004_kani=true&JigyosyoCd=1090500255-00&ServiceCd=720&Type=search", "url2": "akari@mori-no-ie.jp" }, "geometry": { "type": "Point", "coordinates": [ 139.399990500000058, 36.3037991 ] } },
{ "type": "Feature", "properties": { "内容": "デイサービスセンターnico【認知症対応型通所介護】群馬県太田市八幡町27－7", "url": "https://www.kaigokensaku.mhlw.go.jp/10/index.php?action_kouhyou_detail_004_kani=true&JigyosyoCd=1090500396-00&ServiceCd=720&Type=search", "url2": "http://gunma-doujinkai.or.jp" }, "geometry": { "type": "Point", "coordinates": [ 139.368029299999989, 36.2989907 ] } },
{ "type": "Feature", "properties": { "内容": "浜町デイプラス【認知症対応型通所介護】群馬県太田市浜町45－4", "url": "https://www.kaigokensaku.mhlw.go.jp/10/index.php?action_kouhyou_detail_004_kani=true&JigyosyoCd=1090500677-00&ServiceCd=720&Type=search", "url2": "http://www.hamachou.jp/" }, "geometry": { "type": "Point", "coordinates": [ 139.3666436, 36.2911865 ] } },
{ "type": "Feature", "properties": { "内容": "ぬまたとね総合在宅ケアセンター【認知症対応型通所介護】群馬県沼田市戸鹿野町２３８－１", "url": "https://www.kaigokensaku.mhlw.go.jp/10/index.php?action_kouhyou_detail_004_kani=true&JigyosyoCd=1070600240-00&ServiceCd=720&Type=search", "url2": "https://kijokai.or.jp/numata-zaitaku/" }, "geometry": { "type": "Point", "coordinates": [ 139.043791700000043, 36.636092 ] } },
{ "type": "Feature", "properties": { "内容": "菜の花館本町通り【認知症対応型通所介護】群馬県沼田市上之町1149", "url": "https://www.kaigokensaku.mhlw.go.jp/10/index.php?action_kouhyou_detail_004_kani=true&JigyosyoCd=1090600212-00&ServiceCd=720&Type=search", "url2": "htt://kijokai.or.jp/nanohanakan-honchodori/" }, "geometry": { "type": "Point", "coordinates": [ 139.0467645, 36.6444628 ] } },
{ "type": "Feature", "properties": { "内容": "サンコミュニティーデイ【認知症対応型通所介護】群馬県沼田市新町452-1　1Ｆ", "url": "https://www.kaigokensaku.mhlw.go.jp/10/index.php?action_kouhyou_detail_004_kani=true&JigyosyoCd=1090600246-00&ServiceCd=720&Type=search", "url2": null }, "geometry": { "type": "Point", "coordinates": [ 139.044348899999932, 36.6242559 ] } },
{ "type": "Feature", "properties": { "内容": "グループホーム沼田公園前【認知症対応型通所介護】群馬県沼田市西倉内町658", "url": "https://www.kaigokensaku.mhlw.go.jp/10/index.php?action_kouhyou_detail_004_kani=true&JigyosyoCd=1070600539-00&ServiceCd=720&Type=search", "url2": "http.//kijokai.or.jp/numata-kouenmae/" }, "geometry": { "type": "Point", "coordinates": [ 139.03956740000001, 36.6463072 ] } },
{ "type": "Feature", "properties": { "内容": "沼田公園前デイサービスセンター【認知症対応型通所介護】群馬県沼田市西倉内町658", "url": "https://www.kaigokensaku.mhlw.go.jp/10/index.php?action_kouhyou_detail_004_kani=true&JigyosyoCd=1070600554-00&ServiceCd=720&Type=search", "url2": "http://kijokai.or.jp/numata-kouenmae/" }, "geometry": { "type": "Point", "coordinates": [ 139.039963899999947, 36.646449 ] } },
{ "type": "Feature", "properties": { "内容": "うすねデイサービスセンター【認知症対応型通所介護】群馬県沼田市薄根町3300-1", "url": "https://www.kaigokensaku.mhlw.go.jp/10/index.php?action_kouhyou_detail_004_kani=true&JigyosyoCd=1090600030-00&ServiceCd=720&Type=search", "url2": "http://www.hidaka-kai.com/mws/index.html" }, "geometry": { "type": "Point", "coordinates": [ 139.031973099999959, 36.6441351 ] } },
{ "type": "Feature", "properties": { "内容": "みんなんち園原【認知症対応型通所介護】群馬県沼田市利根町園原８７１番地", "url": "https://www.kaigokensaku.mhlw.go.jp/10/index.php?action_kouhyou_detail_004_kani=true&JigyosyoCd=1090600196-00&ServiceCd=720&Type=search", "url2": "https://ssl.kijokai.or.jp/minnanchi-sonohara" }, "geometry": { "type": "Point", "coordinates": [ 139.184820100000024, 36.6560632 ] } },
{ "type": "Feature", "properties": { "内容": "菜の花館園原【認知症対応型通所介護】群馬県沼田市利根町園原870", "url": "https://www.kaigokensaku.mhlw.go.jp/10/index.php?action_kouhyou_detail_004_kani=true&JigyosyoCd=1092700028-00&ServiceCd=720&Type=search", "url2": "https://kijokai.or.jp/nanohanakan-sonohara/" }, "geometry": { "type": "Point", "coordinates": [ 139.1777779, 36.6617845 ] } },
{ "type": "Feature", "properties": { "内容": "認知症デイサービス　あんず【認知症対応型通所介護】群馬県館林市代官町８－１５", "url": "https://www.kaigokensaku.mhlw.go.jp/10/index.php?action_kouhyou_detail_004_kani=true&JigyosyoCd=1090700087-00&ServiceCd=720&Type=search", "url2": "spmp3879@beetle.ocn.ne.jp" }, "geometry": { "type": "Point", "coordinates": [ 139.534362800000054, 36.2526443 ] } },
{ "type": "Feature", "properties": { "内容": "脳活性化センターあざみ【認知症対応型通所介護】群馬県館林市大手町８－２５", "url": "https://www.kaigokensaku.mhlw.go.jp/10/index.php?action_kouhyou_detail_004_kani=true&JigyosyoCd=1090700012-00&ServiceCd=720&Type=search", "url2": "www.popurakai.or.jp" }, "geometry": { "type": "Point", "coordinates": [ 139.537487599999963, 36.2478867 ] } },
{ "type": "Feature", "properties": { "内容": "認知症共用デイの喜楽【認知症対応型通所介護】群馬県館林市北成島町1829-5グループホーム喜楽", "url": "https://www.kaigokensaku.mhlw.go.jp/10/index.php?action_kouhyou_detail_004_kani=true&JigyosyoCd=1090700137-00&ServiceCd=720&Type=search", "url2": "https://otagaisamaegao/net/" }, "geometry": { "type": "Point", "coordinates": [ 139.51959439999996, 36.2534826 ] } },
{ "type": "Feature", "properties": { "内容": "デイサービスセンター喜楽【認知症対応型通所介護】群馬県館林市北成島1829-1", "url": "https://www.kaigokensaku.mhlw.go.jp/10/index.php?action_kouhyou_detail_004_kani=true&JigyosyoCd=1070700438-00&ServiceCd=720&Type=search", "url2": "https://otagaisamaegao.net/" }, "geometry": { "type": "Point", "coordinates": [ 139.519518098741855, 36.253066822085614 ] } },
{ "type": "Feature", "properties": { "内容": "グループホーム一番星金井【認知症対応型通所介護】群馬県", "url": "https://www.kaigokensaku.mhlw.go.jp/10/index.php?action_kouhyou_detail_004_kani=true&JigyosyoCd=1070800204-00&ServiceCd=720&Type=search", "url2": null }, "geometry": { "type": "Point", "coordinates": [ 138.8799972, 36.5605388 ] } },
{ "type": "Feature", "properties": { "内容": "デイサービス一番星渋川【認知症対応型通所介護】群馬県渋川市半田934-2", "url": "https://www.kaigokensaku.mhlw.go.jp/10/index.php?action_kouhyou_detail_004_kani=true&JigyosyoCd=1090800085-00&ServiceCd=720&Type=search", "url2": "ichibanboshishibukawa@gmail.com" }, "geometry": { "type": "Point", "coordinates": [ 139.02540810000005, 36.4620491 ] } },
{ "type": "Feature", "properties": { "内容": "シルバークラブ金井デイサービス【認知症対応型通所介護】群馬県渋川市金井484番地1", "url": "https://www.kaigokensaku.mhlw.go.jp/10/index.php?action_kouhyou_detail_004_kani=true&JigyosyoCd=1090800051-00&ServiceCd=720&Type=search", "url2": null }, "geometry": { "type": "Point", "coordinates": [ 138.999542, 36.5149651 ] } },
{ "type": "Feature", "properties": { "内容": "北牧デイサービス【認知症対応型通所介護】群馬県渋川市北牧１１６８－３", "url": "https://www.kaigokensaku.mhlw.go.jp/10/index.php?action_kouhyou_detail_004_kani=true&JigyosyoCd=1072200387-00&ServiceCd=720&Type=search", "url2": "hp.kaipoke.biz/87y/index.html" }, "geometry": { "type": "Point", "coordinates": [ 138.990103500000032, 36.5296966 ] } },
{ "type": "Feature", "properties": { "内容": "ありまの心宅【認知症対応型通所介護】群馬県渋川市有馬1779-2", "url": "https://www.kaigokensaku.mhlw.go.jp/10/index.php?action_kouhyou_detail_004_kani=true&JigyosyoCd=1090800077-00&ServiceCd=720&Type=search", "url2": "https://kk-csm.jp" }, "geometry": { "type": "Point", "coordinates": [ 138.995274600000016, 36.4632315 ] } },
{ "type": "Feature", "properties": { "内容": "美土里福祉会株式会社デイサービスセンターみやびの里【認知症対応型通所介護】群馬県藤岡市中大塚889-1みやびの里", "url": "https://www.kaigokensaku.mhlw.go.jp/10/index.php?action_kouhyou_detail_004_kani=true&JigyosyoCd=1090900083-00&ServiceCd=720&Type=search", "url2": null }, "geometry": { "type": "Point", "coordinates": [ 139.051084925794953, 36.247161944656085 ] } },
{ "type": "Feature", "properties": { "内容": "グループホームゆうゆう【認知症対応型通所介護】群馬県安中市中宿1-9-6", "url": "https://www.kaigokensaku.mhlw.go.jp/10/index.php?action_kouhyou_detail_004_kani=true&JigyosyoCd=1091100246-00&ServiceCd=720&Type=search", "url2": null }, "geometry": { "type": "Point", "coordinates": [ 138.919771200000014, 36.3359238 ] } },
{ "type": "Feature", "properties": { "内容": "グループホーム　桐の家【認知症対応型通所介護】群馬県みどり市大間々町桐原634", "url": "https://www.kaigokensaku.mhlw.go.jp/10/index.php?action_kouhyou_detail_004_kani=true&JigyosyoCd=1073000174-00&ServiceCd=720&Type=search", "url2": "https://www.printemps-oomama.com/" }, "geometry": { "type": "Point", "coordinates": [ 139.274063899999987, 36.4405664 ] } },
{ "type": "Feature", "properties": { "内容": "スーパーデイサービス　ヴェルデ【認知症対応型通所介護】群馬県みどり市東町神戸９５－２", "url": "https://www.kaigokensaku.mhlw.go.jp/10/index.php?action_kouhyou_detail_004_kani=true&JigyosyoCd=1091200053-00&ServiceCd=720&Type=search", "url2": "http://www.tokusyoukai358.com/verude-dey/index.php" }, "geometry": { "type": "Point", "coordinates": [ -8.24389, 53.41291 ] } },
{ "type": "Feature", "properties": { "内容": "グループホーム一番星【認知症対応型通所介護】群馬県北群馬郡吉岡町漆原１４２－４", "url": "https://www.kaigokensaku.mhlw.go.jp/10/index.php?action_kouhyou_detail_004_kani=true&JigyosyoCd=1072200213-00&ServiceCd=720&Type=search", "url2": null }, "geometry": { "type": "Point", "coordinates": [ 139.028580599999941, 36.4535502 ] } },
{ "type": "Feature", "properties": { "内容": "グループホームめぐみ【認知症対応型通所介護】群馬県甘楽郡甘楽町善慶寺900番地12", "url": "https://www.kaigokensaku.mhlw.go.jp/10/index.php?action_kouhyou_detail_004_kani=true&JigyosyoCd=1072400243-00&ServiceCd=720&Type=search", "url2": null }, "geometry": { "type": "Point", "coordinates": [ 138.912707399999988, 36.242203 ] } },
{ "type": "Feature", "properties": { "内容": "みんなの家なかんじょ【認知症対応型通所介護】群馬県吾妻郡中之条町大字中之条町９６７番地", "url": "https://www.kaigokensaku.mhlw.go.jp/10/index.php?action_kouhyou_detail_004_kani=true&JigyosyoCd=1092600020-00&ServiceCd=720&Type=search", "url2": "http://kijoukai-gr.jp/nakanjyo/" }, "geometry": { "type": "Point", "coordinates": [ 138.843869400000017, 36.5892204 ] } },
{ "type": "Feature", "properties": { "内容": "あがつま在宅ケアセンター【認知症対応型通所介護】群馬県吾妻郡東吾妻町大字原町７０５－１", "url": "https://www.kaigokensaku.mhlw.go.jp/10/index.php?action_kouhyou_detail_004_kani=true&JigyosyoCd=1072600024-00&ServiceCd=720&Type=search", "url2": "https://kijokai.or.jp/agatsuma-zaitaku/" }, "geometry": { "type": "Point", "coordinates": [ 138.826049300000022, 36.5732774 ] } },
{ "type": "Feature", "properties": { "内容": "デイサービスりんどう【認知症対応型通所介護】群馬県邑楽郡板倉町細谷202", "url": "https://www.kaigokensaku.mhlw.go.jp/10/index.php?action_kouhyou_detail_004_kani=true&JigyosyoCd=1073100537-00&ServiceCd=720&Type=search", "url2": "hattp://www．popurakai．ｇｏ．ｊｐ/" }, "geometry": { "type": "Point", "coordinates": [ 139.625676699999985, 36.2490695 ] } },
{ "type": "Feature", "properties": { "内容": "あんしんケアデイサービスセンター【認知症対応型通所介護】群馬県邑楽郡千代田町大字赤岩975", "url": "https://www.kaigokensaku.mhlw.go.jp/10/index.php?action_kouhyou_detail_004_kani=true&JigyosyoCd=1073100354-00&ServiceCd=720&Type=search", "url2": "http://www.ansincare.com" }, "geometry": { "type": "Point", "coordinates": [ 139.441737900000021, 36.2096573 ] } },
{ "type": "Feature", "properties": { "内容": "つむぎの里　デイサービス【認知症対応型通所介護】群馬県邑楽郡邑楽町大字中野字久保林２２０４－7", "url": "https://www.kaigokensaku.mhlw.go.jp/10/index.php?action_kouhyou_detail_004_kani=true&JigyosyoCd=1073100370-00&ServiceCd=720&Type=search", "url2": "https://kokorominokai.net/tsumugi" }, "geometry": { "type": "Point", "coordinates": [ 139.454589172721967, 36.26085770856065 ] } }
]
}
