{
"type": "FeatureCollection",
"name": "geo_10_特定施設入居者生活介護（有料老人ホーム（サービス付き高齢者向け住宅））",
"crs": { "type": "name", "properties": { "name": "urn:ogc:def:crs:OGC:1.3:CRS84" } },
"features": [
{ "type": "Feature", "properties": { "内容": "はなことば高崎【特定施設入居者生活介護（有料老人ホーム（サービス付き高齢者向け住宅））】群馬県高崎市貝沢町字問屋町東704番地", "url2": "https://www.kaigokensaku.mhlw.go.jp/10/index.php?action_kouhyou_detail_004_kani=true&JigyosyoCd=1070206154-00&ServiceCd=&Type=search" }, "geometry": { "type": "Point", "coordinates": [ 139.016533, 36.346526 ] } },
{ "type": "Feature", "properties": { "内容": "介護付き有料老人ホーム　ほかほかライフ【特定施設入居者生活介護（有料老人ホーム（サービス付き高齢者向け住宅））】群馬県高崎市上豊岡町910-1", "url2": "https://www.kaigokensaku.mhlw.go.jp/10/index.php?action_kouhyou_detail_004_kani=true&JigyosyoCd=1070207111-00&ServiceCd=&Type=search" }, "geometry": { "type": "Point", "coordinates": [ 138.9684212, 36.342646 ] } },
{ "type": "Feature", "properties": { "内容": "サービス付き高齢者向け住宅オアシス【特定施設入居者生活介護（有料老人ホーム（サービス付き高齢者向け住宅））】群馬県高崎市田町71番地１オアシス高崎ビル５・６階", "url2": "https://www.kaigokensaku.mhlw.go.jp/10/index.php?action_kouhyou_detail_004_kani=true&JigyosyoCd=1070206691-00&ServiceCd=&Type=search" }, "geometry": { "type": "Point", "coordinates": [ 139.00733901653291, 36.325635313709888 ] } },
{ "type": "Feature", "properties": { "内容": "カーサ・デ・ヴェルデ黒沢【特定施設入居者生活介護（有料老人ホーム（サービス付き高齢者向け住宅））】群馬県高崎市矢中町192", "url2": "https://www.kaigokensaku.mhlw.go.jp/10/index.php?action_kouhyou_detail_004_kani=true&JigyosyoCd=1070206675-00&ServiceCd=&Type=search" }, "geometry": { "type": "Point", "coordinates": [ 139.048402447221406, 36.312379735429744 ] } },
{ "type": "Feature", "properties": { "内容": "介護付高齢者住宅　松寿園【特定施設入居者生活介護（有料老人ホーム（サービス付き高齢者向け住宅））】群馬県太田市熊野町３８‐８１", "url2": "https://www.kaigokensaku.mhlw.go.jp/10/index.php?action_kouhyou_detail_004_kani=true&JigyosyoCd=1070501984-00&ServiceCd=&Type=search" }, "geometry": { "type": "Point", "coordinates": [ 139.383792200000016, 36.3080707 ] } },
{ "type": "Feature", "properties": { "内容": "シニアライフ白岩【特定施設入居者生活介護（有料老人ホーム（サービス付き高齢者向け住宅））】群馬県富岡市白岩703", "url2": "https://www.kaigokensaku.mhlw.go.jp/10/index.php?action_kouhyou_detail_004_kani=true&JigyosyoCd=1071000648-00&ServiceCd=&Type=search" }, "geometry": { "type": "Point", "coordinates": [ 138.925233299999945, 36.282269 ] } }
]
}
