{
"type": "FeatureCollection",
"name": "geo_10_4",
"crs": { "type": "name", "properties": { "name": "urn:ogc:def:crs:OGC:1.3:CRS84" } },
"features": [
{ "type": "Feature", "properties": { "ID": 1046101000012, "正式名称": "石田助産所", "機関区分": 4, "都道府県コード": 10, "市区町村コード": 201, "所在地": "群馬県前橋市下川町１７－４", "緯度": 36.32959, "経度": 139.087539, "url": "https://www.iryou.teikyouseido.mhlw.go.jp/znk-web/juminkanja/S2430/initialize?prefCd=10&kikanCd=6101000012&kikanKbn=4", "url2": "http://www.gsd.syask.jp/ishida-jj/", "内容": "石田助産所【4:助産院】群馬県前橋市下川町１７－４" }, "geometry": { "type": "Point", "coordinates": [ 139.087539, 36.32959 ] } },
{ "type": "Feature", "properties": { "ID": 1046101000014, "正式名称": "山本助産所", "機関区分": 4, "都道府県コード": 10, "市区町村コード": 201, "所在地": "群馬県前橋市総社町総社１２９９－６", "緯度": 36.411914, "経度": 139.045233, "url": "https://www.iryou.teikyouseido.mhlw.go.jp/znk-web/juminkanja/S2430/initialize?prefCd=10&kikanCd=6101000014&kikanKbn=4", "url2": null, "内容": "山本助産所【4:助産院】群馬県前橋市総社町総社１２９９－６" }, "geometry": { "type": "Point", "coordinates": [ 139.045233, 36.411914 ] } },
{ "type": "Feature", "properties": { "ID": 1046101000016, "正式名称": "すこやか助産院", "機関区分": 4, "都道府県コード": 10, "市区町村コード": 211, "所在地": "群馬県安中市原市３２９０－１０", "緯度": 36.322039, "経度": 138.860199, "url": "https://www.iryou.teikyouseido.mhlw.go.jp/znk-web/juminkanja/S2430/initialize?prefCd=10&kikanCd=6101000016&kikanKbn=4", "url2": "https://www.sukoyakazyosan.com", "内容": "すこやか助産院【4:助産院】群馬県安中市原市３２９０－１０" }, "geometry": { "type": "Point", "coordinates": [ 138.860199, 36.322039 ] } },
{ "type": "Feature", "properties": { "ID": 1046101000020, "正式名称": "雅子助産所", "機関区分": 4, "都道府県コード": 10, "市区町村コード": 429, "所在地": "群馬県吾妻郡東吾妻町大字矢倉６ー１", "緯度": 36.551174, "経度": 138.78624, "url": "https://www.iryou.teikyouseido.mhlw.go.jp/znk-web/juminkanja/S2430/initialize?prefCd=10&kikanCd=6101000020&kikanKbn=4", "url2": null, "内容": "雅子助産所【4:助産院】群馬県吾妻郡東吾妻町大字矢倉６ー１" }, "geometry": { "type": "Point", "coordinates": [ 138.78624, 36.551174 ] } },
{ "type": "Feature", "properties": { "ID": 1046101000022, "正式名称": "Ｓａｇｅ　Ｆｅｍｍｅ", "機関区分": 4, "都道府県コード": 10, "市区町村コード": 202, "所在地": "群馬県高崎市八島町９３ー１　サンクレイドル高崎駅前１２０４", "緯度": 36.321964, "経度": 139.01125, "url": "https://www.iryou.teikyouseido.mhlw.go.jp/znk-web/juminkanja/S2430/initialize?prefCd=10&kikanCd=6101000022&kikanKbn=4", "url2": null, "内容": "Ｓａｇｅ　Ｆｅｍｍｅ【4:助産院】群馬県高崎市八島町９３ー１　サンクレイドル高崎駅前１２０４" }, "geometry": { "type": "Point", "coordinates": [ 139.01125, 36.321964 ] } },
{ "type": "Feature", "properties": { "ID": 1046101000029, "正式名称": "寿助産所", "機関区分": 4, "都道府県コード": 10, "市区町村コード": 202, "所在地": "群馬県高崎市上里見町９００ー５", "緯度": 36.375332, "経度": 138.888998, "url": "https://www.iryou.teikyouseido.mhlw.go.jp/znk-web/juminkanja/S2430/initialize?prefCd=10&kikanCd=6101000029&kikanKbn=4", "url2": null, "内容": "寿助産所【4:助産院】群馬県高崎市上里見町９００ー５" }, "geometry": { "type": "Point", "coordinates": [ 138.888998, 36.375332 ] } },
{ "type": "Feature", "properties": { "ID": 1046101000031, "正式名称": "コスモファミリー助産院", "機関区分": 4, "都道府県コード": 10, "市区町村コード": 202, "所在地": "群馬県高崎市足門町１５９８", "緯度": 36.39872, "経度": 138.995377, "url": "https://www.iryou.teikyouseido.mhlw.go.jp/znk-web/juminkanja/S2430/initialize?prefCd=10&kikanCd=6101000031&kikanKbn=4", "url2": null, "内容": "コスモファミリー助産院【4:助産院】群馬県高崎市足門町１５９８" }, "geometry": { "type": "Point", "coordinates": [ 138.995377, 36.39872 ] } },
{ "type": "Feature", "properties": { "ID": 1046101000038, "正式名称": "れい助産院", "機関区分": 4, "都道府県コード": 10, "市区町村コード": 208, "所在地": "群馬県渋川市半田６８２番地３", "緯度": 36.456909, "経度": 139.019289, "url": "https://www.iryou.teikyouseido.mhlw.go.jp/znk-web/juminkanja/S2430/initialize?prefCd=10&kikanCd=6101000038&kikanKbn=4", "url2": null, "内容": "れい助産院【4:助産院】群馬県渋川市半田６８２番地３" }, "geometry": { "type": "Point", "coordinates": [ 139.019289, 36.456909 ] } },
{ "type": "Feature", "properties": { "ID": 1046101000039, "正式名称": "飯田助産所", "機関区分": 4, "都道府県コード": 10, "市区町村コード": 208, "所在地": "群馬県渋川市北橘町下箱田１１３－５", "緯度": 36.467075, "経度": 139.042453, "url": "https://www.iryou.teikyouseido.mhlw.go.jp/znk-web/juminkanja/S2430/initialize?prefCd=10&kikanCd=6101000039&kikanKbn=4", "url2": null, "内容": "飯田助産所【4:助産院】群馬県渋川市北橘町下箱田１１３－５" }, "geometry": { "type": "Point", "coordinates": [ 139.042453, 36.467075 ] } },
{ "type": "Feature", "properties": { "ID": 1046101000041, "正式名称": "佐藤助産院", "機関区分": 4, "都道府県コード": 10, "市区町村コード": 209, "所在地": "群馬県藤岡市岡之郷７０８－３", "緯度": 36.269319, "経度": 139.098541, "url": "https://www.iryou.teikyouseido.mhlw.go.jp/znk-web/juminkanja/S2430/initialize?prefCd=10&kikanCd=6101000041&kikanKbn=4", "url2": null, "内容": "佐藤助産院【4:助産院】群馬県藤岡市岡之郷７０８－３" }, "geometry": { "type": "Point", "coordinates": [ 139.098541, 36.269319 ] } },
{ "type": "Feature", "properties": { "ID": 1046101000043, "正式名称": "安原助産所", "機関区分": 4, "都道府県コード": 10, "市区町村コード": 421, "所在地": "群馬県吾妻郡中之条町大字折田４２１－１", "緯度": 36.599342, "経度": 138.81104, "url": "https://www.iryou.teikyouseido.mhlw.go.jp/znk-web/juminkanja/S2430/initialize?prefCd=10&kikanCd=6101000043&kikanKbn=4", "url2": null, "内容": "安原助産所【4:助産院】群馬県吾妻郡中之条町大字折田４２１－１" }, "geometry": { "type": "Point", "coordinates": [ 138.81104, 36.599342 ] } },
{ "type": "Feature", "properties": { "ID": 1046101000044, "正式名称": "ａｍｍａ助産院", "機関区分": 4, "都道府県コード": 10, "市区町村コード": 203, "所在地": "群馬県桐生市新里町新川３６５２－４", "緯度": 36.416964, "経度": 139.259819, "url": "https://www.iryou.teikyouseido.mhlw.go.jp/znk-web/juminkanja/S2430/initialize?prefCd=10&kikanCd=6101000044&kikanKbn=4", "url2": "http://midwifemap.com/amma/mysite", "内容": "ａｍｍａ助産院【4:助産院】群馬県桐生市新里町新川３６５２－４" }, "geometry": { "type": "Point", "coordinates": [ 139.259819, 36.416964 ] } },
{ "type": "Feature", "properties": { "ID": 1046101000045, "正式名称": "滝澤助産所", "機関区分": 4, "都道府県コード": 10, "市区町村コード": 425, "所在地": "群馬県吾妻郡嬬恋村鎌原５７５－１", "緯度": 36.519921, "経度": 138.549992, "url": "https://www.iryou.teikyouseido.mhlw.go.jp/znk-web/juminkanja/S2430/initialize?prefCd=10&kikanCd=6101000045&kikanKbn=4", "url2": "https://midwife.jp/takizawa", "内容": "滝澤助産所【4:助産院】群馬県吾妻郡嬬恋村鎌原５７５－１" }, "geometry": { "type": "Point", "coordinates": [ 138.549992, 36.519921 ] } },
{ "type": "Feature", "properties": { "ID": 1046101000049, "正式名称": "さげはし助産院", "機関区分": 4, "都道府県コード": 10, "市区町村コード": 204, "所在地": "群馬県伊勢崎市赤堀今井町２－１０６７－３３１", "緯度": 36.384692, "経度": 139.220144, "url": "https://www.iryou.teikyouseido.mhlw.go.jp/znk-web/juminkanja/S2430/initialize?prefCd=10&kikanCd=6101000049&kikanKbn=4", "url2": null, "内容": "さげはし助産院【4:助産院】群馬県伊勢崎市赤堀今井町２－１０６７－３３１" }, "geometry": { "type": "Point", "coordinates": [ 139.220144, 36.384692 ] } },
{ "type": "Feature", "properties": { "ID": 1046101000050, "正式名称": "すいせん母乳相談室", "機関区分": 4, "都道府県コード": 10, "市区町村コード": 429, "所在地": "群馬県吾妻郡東吾妻町原町１０７７－２", "緯度": 36.567838, "経度": 138.818301, "url": "https://www.iryou.teikyouseido.mhlw.go.jp/znk-web/juminkanja/S2430/initialize?prefCd=10&kikanCd=6101000050&kikanKbn=4", "url2": null, "内容": "すいせん母乳相談室【4:助産院】群馬県吾妻郡東吾妻町原町１０７７－２" }, "geometry": { "type": "Point", "coordinates": [ 138.818301, 36.567838 ] } },
{ "type": "Feature", "properties": { "ID": 1046101000051, "正式名称": "母の芽助産院", "機関区分": 4, "都道府県コード": 10, "市区町村コード": 206, "所在地": "群馬県沼田市横塚町１１５４－８", "緯度": 36.665054, "経度": 139.084469, "url": "https://www.iryou.teikyouseido.mhlw.go.jp/znk-web/juminkanja/S2430/initialize?prefCd=10&kikanCd=6101000051&kikanKbn=4", "url2": "http://www.just.st/308234", "内容": "母の芽助産院【4:助産院】群馬県沼田市横塚町１１５４－８" }, "geometry": { "type": "Point", "coordinates": [ 139.084469, 36.665054 ] } },
{ "type": "Feature", "properties": { "ID": 1046101000052, "正式名称": "百海母乳育児相談室", "機関区分": 4, "都道府県コード": 10, "市区町村コード": 204, "所在地": "群馬県伊勢崎市連取町", "緯度": 36.324564, "経度": 139.172033, "url": "https://www.iryou.teikyouseido.mhlw.go.jp/znk-web/juminkanja/S2430/initialize?prefCd=10&kikanCd=6101000052&kikanKbn=4", "url2": null, "内容": "百海母乳育児相談室【4:助産院】群馬県伊勢崎市連取町" }, "geometry": { "type": "Point", "coordinates": [ 139.172033, 36.324564 ] } },
{ "type": "Feature", "properties": { "ID": 1046101000053, "正式名称": "真下助産院", "機関区分": 4, "都道府県コード": 10, "市区町村コード": 204, "所在地": "群馬県伊勢崎市柳原町４２－３", "緯度": 36.329425, "経度": 139.197891, "url": "https://www.iryou.teikyouseido.mhlw.go.jp/znk-web/juminkanja/S2430/initialize?prefCd=10&kikanCd=6101000053&kikanKbn=4", "url2": null, "内容": "真下助産院【4:助産院】群馬県伊勢崎市柳原町４２－３" }, "geometry": { "type": "Point", "coordinates": [ 139.197891, 36.329425 ] } },
{ "type": "Feature", "properties": { "ID": 1046101000055, "正式名称": "長谷川助産院", "機関区分": 4, "都道府県コード": 10, "市区町村コード": 464, "所在地": "群馬県佐波郡玉村町五料９４６－３", "緯度": 36.283013, "経度": 139.161535, "url": "https://www.iryou.teikyouseido.mhlw.go.jp/znk-web/juminkanja/S2430/initialize?prefCd=10&kikanCd=6101000055&kikanKbn=4", "url2": null, "内容": "長谷川助産院【4:助産院】群馬県佐波郡玉村町五料９４６－３" }, "geometry": { "type": "Point", "coordinates": [ 139.161535, 36.283013 ] } },
{ "type": "Feature", "properties": { "ID": 1046101000056, "正式名称": "ようこ助産院", "機関区分": 4, "都道府県コード": 10, "市区町村コード": 211, "所在地": "群馬県安中市秋間みのりが丘４ー６", "緯度": 36.36073, "経度": 138.84819, "url": "https://www.iryou.teikyouseido.mhlw.go.jp/znk-web/juminkanja/S2430/initialize?prefCd=10&kikanCd=6101000056&kikanKbn=4", "url2": null, "内容": "ようこ助産院【4:助産院】群馬県安中市秋間みのりが丘４ー６" }, "geometry": { "type": "Point", "coordinates": [ 138.84819, 36.36073 ] } },
{ "type": "Feature", "properties": { "ID": 1046101000057, "正式名称": "阿部助産所", "機関区分": 4, "都道府県コード": 10, "市区町村コード": 203, "所在地": "群馬県桐生市梅田町１－４６６－３", "緯度": 36.440972, "経度": 139.363261, "url": "https://www.iryou.teikyouseido.mhlw.go.jp/znk-web/juminkanja/S2430/initialize?prefCd=10&kikanCd=6101000057&kikanKbn=4", "url2": "http://abekiryu.com/", "内容": "阿部助産所【4:助産院】群馬県桐生市梅田町１－４６６－３" }, "geometry": { "type": "Point", "coordinates": [ 139.363261, 36.440972 ] } },
{ "type": "Feature", "properties": { "ID": 1046101000058, "正式名称": "いだ助産院", "機関区分": 4, "都道府県コード": 10, "市区町村コード": 464, "所在地": "群馬県佐波郡玉村町上新田１６２７", "緯度": 36.303017, "経度": 139.1082, "url": "https://www.iryou.teikyouseido.mhlw.go.jp/znk-web/juminkanja/S2430/initialize?prefCd=10&kikanCd=6101000058&kikanKbn=4", "url2": null, "内容": "いだ助産院【4:助産院】群馬県佐波郡玉村町上新田１６２７" }, "geometry": { "type": "Point", "coordinates": [ 139.1082, 36.303017 ] } },
{ "type": "Feature", "properties": { "ID": 1046101000059, "正式名称": "あざみ助産所", "機関区分": 4, "都道府県コード": 10, "市区町村コード": 212, "所在地": "群馬県みどり市笠懸町阿左美２５１３－１０", "緯度": 36.397475, "経度": 139.293464, "url": "https://www.iryou.teikyouseido.mhlw.go.jp/znk-web/juminkanja/S2430/initialize?prefCd=10&kikanCd=6101000059&kikanKbn=4", "url2": null, "内容": "あざみ助産所【4:助産院】群馬県みどり市笠懸町阿左美２５１３－１０" }, "geometry": { "type": "Point", "coordinates": [ 139.293464, 36.397475 ] } },
{ "type": "Feature", "properties": { "ID": 1046101000060, "正式名称": "アルモア助産所", "機関区分": 4, "都道府県コード": 10, "市区町村コード": 212, "所在地": "群馬県みどり市大間々町桐原３６４－１", "緯度": 36.436304, "経度": 139.26938, "url": "https://www.iryou.teikyouseido.mhlw.go.jp/znk-web/juminkanja/S2430/initialize?prefCd=10&kikanCd=6101000060&kikanKbn=4", "url2": null, "内容": "アルモア助産所【4:助産院】群馬県みどり市大間々町桐原３６４－１" }, "geometry": { "type": "Point", "coordinates": [ 139.26938, 36.436304 ] } },
{ "type": "Feature", "properties": { "ID": 1046101000061, "正式名称": "鈴木助産院", "機関区分": 4, "都道府県コード": 10, "市区町村コード": 205, "所在地": "群馬県太田市丸山町２５０－７", "緯度": 36.340316, "経度": 139.378126, "url": "https://www.iryou.teikyouseido.mhlw.go.jp/znk-web/juminkanja/S2430/initialize?prefCd=10&kikanCd=6101000061&kikanKbn=4", "url2": "https://suzuki-jyosanin.com/", "内容": "鈴木助産院【4:助産院】群馬県太田市丸山町２５０－７" }, "geometry": { "type": "Point", "coordinates": [ 139.378126, 36.340316 ] } },
{ "type": "Feature", "properties": { "ID": 1046101000066, "正式名称": "マタニティーケア　堀口", "機関区分": 4, "都道府県コード": 10, "市区町村コード": 384, "所在地": "群馬県甘楽郡甘楽町天引", "緯度": 36.237553, "経度": 138.94934, "url": "https://www.iryou.teikyouseido.mhlw.go.jp/znk-web/juminkanja/S2430/initialize?prefCd=10&kikanCd=6101000066&kikanKbn=4", "url2": null, "内容": "マタニティーケア　堀口【4:助産院】群馬県甘楽郡甘楽町天引" }, "geometry": { "type": "Point", "coordinates": [ 138.94934, 36.237553 ] } },
{ "type": "Feature", "properties": { "ID": 1046101000069, "正式名称": "まつうら助産院", "機関区分": 4, "都道府県コード": 10, "市区町村コード": 204, "所在地": "群馬県伊勢崎市ひろせ町４０８９－２９", "緯度": 36.300762, "経度": 139.19481, "url": "https://www.iryou.teikyouseido.mhlw.go.jp/znk-web/juminkanja/S2430/initialize?prefCd=10&kikanCd=6101000069&kikanKbn=4", "url2": "https://matsuura-josan.com", "内容": "まつうら助産院【4:助産院】群馬県伊勢崎市ひろせ町４０８９－２９" }, "geometry": { "type": "Point", "coordinates": [ 139.19481, 36.300762 ] } },
{ "type": "Feature", "properties": { "ID": 1046101000073, "正式名称": "公益社団法人群馬県助産師会立すずの音助産院", "機関区分": 4, "都道府県コード": 10, "市区町村コード": 201, "所在地": "群馬県前橋市六供町二丁目５１番地１１", "緯度": 36.361218, "経度": 139.11252, "url": "https://www.iryou.teikyouseido.mhlw.go.jp/znk-web/juminkanja/S2430/initialize?prefCd=10&kikanCd=6101000073&kikanKbn=4", "url2": null, "内容": "公益社団法人群馬県助産師会立すずの音助産院【4:助産院】群馬県前橋市六供町二丁目５１番地１１" }, "geometry": { "type": "Point", "coordinates": [ 139.11252, 36.361218 ] } },
{ "type": "Feature", "properties": { "ID": 1046101000074, "正式名称": "こまくさ助産院", "機関区分": 4, "都道府県コード": 10, "市区町村コード": 203, "所在地": "群馬県桐生市相生町１ー３２６ー１７", "緯度": 36.4151, "経度": 139.31291, "url": "https://www.iryou.teikyouseido.mhlw.go.jp/znk-web/juminkanja/S2430/initialize?prefCd=10&kikanCd=6101000074&kikanKbn=4", "url2": null, "内容": "こまくさ助産院【4:助産院】群馬県桐生市相生町１ー３２６ー１７" }, "geometry": { "type": "Point", "coordinates": [ 139.31291, 36.4151 ] } },
{ "type": "Feature", "properties": { "ID": 1046101000076, "正式名称": "五十嵐助産院", "機関区分": 4, "都道府県コード": 10, "市区町村コード": 210, "所在地": "群馬県富岡市蕨１０４６ー１", "緯度": 36.27979, "経度": 138.934511, "url": "https://www.iryou.teikyouseido.mhlw.go.jp/znk-web/juminkanja/S2430/initialize?prefCd=10&kikanCd=6101000076&kikanKbn=4", "url2": null, "内容": "五十嵐助産院【4:助産院】群馬県富岡市蕨１０４６ー１" }, "geometry": { "type": "Point", "coordinates": [ 138.934511, 36.27979 ] } },
{ "type": "Feature", "properties": { "ID": 1046101000077, "正式名称": "まどか助産院", "機関区分": 4, "都道府県コード": 10, "市区町村コード": 449, "所在地": "群馬県利根郡みなかみ町真庭３０ー２", "緯度": 36.667971, "経度": 139.009499, "url": "https://www.iryou.teikyouseido.mhlw.go.jp/znk-web/juminkanja/S2430/initialize?prefCd=10&kikanCd=6101000077&kikanKbn=4", "url2": null, "内容": "まどか助産院【4:助産院】群馬県利根郡みなかみ町真庭３０ー２" }, "geometry": { "type": "Point", "coordinates": [ 139.009499, 36.667971 ] } },
{ "type": "Feature", "properties": { "ID": 1046101000078, "正式名称": "いわせ助産院", "機関区分": 4, "都道府県コード": 10, "市区町村コード": 524, "所在地": "群馬県邑楽郡大泉町富士一丁目９番１号", "緯度": 36.248908, "経度": 139.416294, "url": "https://www.iryou.teikyouseido.mhlw.go.jp/znk-web/juminkanja/S2430/initialize?prefCd=10&kikanCd=6101000078&kikanKbn=4", "url2": null, "内容": "いわせ助産院【4:助産院】群馬県邑楽郡大泉町富士一丁目９番１号" }, "geometry": { "type": "Point", "coordinates": [ 139.416294, 36.248908 ] } },
{ "type": "Feature", "properties": { "ID": 1046101000079, "正式名称": "みどり助産院", "機関区分": 4, "都道府県コード": 10, "市区町村コード": 345, "所在地": "群馬県北群馬郡吉岡町２０３０－１６－１６", "緯度": 36.447685, "経度": 139.00946, "url": "https://www.iryou.teikyouseido.mhlw.go.jp/znk-web/juminkanja/S2430/initialize?prefCd=10&kikanCd=6101000079&kikanKbn=4", "url2": null, "内容": "みどり助産院【4:助産院】群馬県北群馬郡吉岡町２０３０－１６－１６" }, "geometry": { "type": "Point", "coordinates": [ 139.00946, 36.447685 ] } },
{ "type": "Feature", "properties": { "ID": 1046101000080, "正式名称": "野村助産院", "機関区分": 4, "都道府県コード": 10, "市区町村コード": 345, "所在地": "群馬県北群馬郡吉岡町漆原８３９ー１", "緯度": 36.440006, "経度": 139.02759, "url": "https://www.iryou.teikyouseido.mhlw.go.jp/znk-web/juminkanja/S2430/initialize?prefCd=10&kikanCd=6101000080&kikanKbn=4", "url2": null, "内容": "野村助産院【4:助産院】群馬県北群馬郡吉岡町漆原８３９ー１" }, "geometry": { "type": "Point", "coordinates": [ 139.02759, 36.440006 ] } },
{ "type": "Feature", "properties": { "ID": 1046101000081, "正式名称": "たなか助産院", "機関区分": 4, "都道府県コード": 10, "市区町村コード": 208, "所在地": "群馬県渋川市伊香保町湯中子１０７－６９", "緯度": 36.515588, "経度": 138.9327, "url": "https://www.iryou.teikyouseido.mhlw.go.jp/znk-web/juminkanja/S2430/initialize?prefCd=10&kikanCd=6101000081&kikanKbn=4", "url2": null, "内容": "たなか助産院【4:助産院】群馬県渋川市伊香保町湯中子１０７－６９" }, "geometry": { "type": "Point", "coordinates": [ 138.9327, 36.515588 ] } },
{ "type": "Feature", "properties": { "ID": 1046101000082, "正式名称": "喜咲助産院", "機関区分": 4, "都道府県コード": 10, "市区町村コード": 202, "所在地": "群馬県高崎市八千代町１ー６ー１２", "緯度": 36.322854, "経度": 138.992808, "url": "https://www.iryou.teikyouseido.mhlw.go.jp/znk-web/juminkanja/S2430/initialize?prefCd=10&kikanCd=6101000082&kikanKbn=4", "url2": null, "内容": "喜咲助産院【4:助産院】群馬県高崎市八千代町１ー６ー１２" }, "geometry": { "type": "Point", "coordinates": [ 138.992808, 36.322854 ] } },
{ "type": "Feature", "properties": { "ID": 1046101000095, "正式名称": "つばめ助産院", "機関区分": 4, "都道府県コード": 10, "市区町村コード": 205, "所在地": "群馬県太田市末広町５３９－７", "緯度": 36.257447, "経度": 139.382569, "url": "https://www.iryou.teikyouseido.mhlw.go.jp/znk-web/juminkanja/S2430/initialize?prefCd=10&kikanCd=6101000095&kikanKbn=4", "url2": null, "内容": "つばめ助産院【4:助産院】群馬県太田市末広町５３９－７" }, "geometry": { "type": "Point", "coordinates": [ 139.382569, 36.257447 ] } }
]
}
