{
"type": "FeatureCollection",
"name": "geo_10_特定福祉用具販売",
"crs": { "type": "name", "properties": { "name": "urn:ogc:def:crs:OGC:1.3:CRS84" } },
"features": [
{ "type": "Feature", "properties": { "内容": "シルバーサポート前橋店【特定福祉用具販売】群馬県前橋市元総社町2-8-11", "url2": "https://www.kaigokensaku.mhlw.go.jp/10/index.php?action_kouhyou_detail_004_kani=true&JigyosyoCd=1070106537-00&ServiceCd=410&Type=search" }, "geometry": { "type": "Point", "coordinates": [ 139.038422133065779, 36.391184523002842 ] } },
{ "type": "Feature", "properties": { "内容": "ケアセンター富士たちばな【特定福祉用具販売】群馬県前橋市大友町３丁目24-1ホテル1-2-3前橋マーキュリーEAST7階", "url2": "https://www.kaigokensaku.mhlw.go.jp/10/index.php?action_kouhyou_detail_004_kani=true&JigyosyoCd=1070108640-00&ServiceCd=410&Type=search" }, "geometry": { "type": "Point", "coordinates": [ 139.044495500000011, 36.3922892 ] } },
{ "type": "Feature", "properties": { "内容": "CSS福祉用具レンタルサービス前橋事業所【特定福祉用具販売】群馬県前橋市天川原町2-46-22五十嵐ビル２０５号室", "url2": "https://www.kaigokensaku.mhlw.go.jp/10/index.php?action_kouhyou_detail_004_kani=true&JigyosyoCd=1070108855-00&ServiceCd=410&Type=search" }, "geometry": { "type": "Point", "coordinates": [ 139.084148779762273, 36.369029310525555 ] } },
{ "type": "Feature", "properties": { "内容": "株式会社ポケット【特定福祉用具販売】群馬県前橋市山王町1丁目1-3コモンヒロセ1-2", "url2": "https://www.kaigokensaku.mhlw.go.jp/10/index.php?action_kouhyou_detail_004_kani=true&JigyosyoCd=1070109044-00&ServiceCd=410&Type=search" }, "geometry": { "type": "Point", "coordinates": [ 139.1148944, 36.3542003 ] } },
{ "type": "Feature", "properties": { "内容": "株式会社　栗原医療器械店　前橋支店オフィス【特定福祉用具販売】群馬県前橋市荒牧町2丁目39番地7", "url2": "https://www.kaigokensaku.mhlw.go.jp/10/index.php?action_kouhyou_detail_004_kani=true&JigyosyoCd=1070103351-00&ServiceCd=410&Type=search" }, "geometry": { "type": "Point", "coordinates": [ 139.053040030966145, 36.426675196527647 ] } },
{ "type": "Feature", "properties": { "内容": "ライフ・リレーション福祉用具事業部【特定福祉用具販売】群馬県前橋市昭和町3-12-15", "url2": "https://www.kaigokensaku.mhlw.go.jp/10/index.php?action_kouhyou_detail_004_kani=true&JigyosyoCd=1070107030-00&ServiceCd=410&Type=search" }, "geometry": { "type": "Point", "coordinates": [ 139.062291032654116, 36.405878769523689 ] } },
{ "type": "Feature", "properties": { "内容": "エスアール【特定福祉用具販売】群馬県前橋市総社町桜が丘1035-3", "url2": "https://www.kaigokensaku.mhlw.go.jp/10/index.php?action_kouhyou_detail_004_kani=true&JigyosyoCd=1070101462-00&ServiceCd=410&Type=search" }, "geometry": { "type": "Point", "coordinates": [ 139.031848699999955, 36.4233845 ] } },
{ "type": "Feature", "properties": { "内容": "株式会社フロンティア群馬営業所【特定福祉用具販売】群馬県前橋市大渡町１－７ー１", "url2": "https://www.kaigokensaku.mhlw.go.jp/10/index.php?action_kouhyou_detail_004_kani=true&JigyosyoCd=1070104953-00&ServiceCd=410&Type=search" }, "geometry": { "type": "Point", "coordinates": [ 139.051974010589532, 36.395482473521312 ] } },
{ "type": "Feature", "properties": { "内容": "ソネット【特定福祉用具販売】群馬県前橋市大友町2-6-1", "url2": "https://www.kaigokensaku.mhlw.go.jp/10/index.php?action_kouhyou_detail_004_kani=true&JigyosyoCd=1070201288-00&ServiceCd=410&Type=search" }, "geometry": { "type": "Point", "coordinates": [ 139.045501899999977, 36.3903283 ] } },
{ "type": "Feature", "properties": { "内容": "あおば薬局【特定福祉用具販売】群馬県前橋市朝倉町839番地6", "url2": "https://www.kaigokensaku.mhlw.go.jp/10/index.php?action_kouhyou_detail_004_kani=true&JigyosyoCd=1070107642-00&ServiceCd=410&Type=search" }, "geometry": { "type": "Point", "coordinates": [ 139.086653941139303, 36.370304197183536 ] } },
{ "type": "Feature", "properties": { "内容": "株式会社ヤマシタ群馬営業所【特定福祉用具販売】群馬県前橋市朝倉町3-12-6", "url2": "https://www.kaigokensaku.mhlw.go.jp/10/index.php?action_kouhyou_detail_004_kani=true&JigyosyoCd=1070100415-00&ServiceCd=410&Type=search" }, "geometry": { "type": "Point", "coordinates": [ 139.097302469030751, 36.37096323280975 ] } },
{ "type": "Feature", "properties": { "内容": "ウェルケア優【特定福祉用具販売】群馬県前橋市朝倉町2-36-17", "url2": "https://www.kaigokensaku.mhlw.go.jp/10/index.php?action_kouhyou_detail_004_kani=true&JigyosyoCd=1070108095-00&ServiceCd=410&Type=search" }, "geometry": { "type": "Point", "coordinates": [ 139.090800499999972, 36.3713684 ] } },
{ "type": "Feature", "properties": { "内容": "ケアセンターあかね【特定福祉用具販売】群馬県前橋市南町3-35-3", "url2": "https://www.kaigokensaku.mhlw.go.jp/10/index.php?action_kouhyou_detail_004_kani=true&JigyosyoCd=1070104011-00&ServiceCd=410&Type=search" }, "geometry": { "type": "Point", "coordinates": [ 139.072577499999966, 36.3812023 ] } },
{ "type": "Feature", "properties": { "内容": "株式会社　ほほえみプランニング【特定福祉用具販売】群馬県前橋市二之宮町869番地7", "url2": "https://www.kaigokensaku.mhlw.go.jp/10/index.php?action_kouhyou_detail_004_kani=true&JigyosyoCd=1070102866-00&ServiceCd=410&Type=search" }, "geometry": { "type": "Point", "coordinates": [ 139.167325839564427, 36.368206341231719 ] } },
{ "type": "Feature", "properties": { "内容": "エフビー介護サービス株式会社　前橋営業所【特定福祉用具販売】群馬県前橋市六供町1-41-3", "url2": "https://www.kaigokensaku.mhlw.go.jp/10/index.php?action_kouhyou_detail_004_kani=true&JigyosyoCd=1070106065-00&ServiceCd=410&Type=search" }, "geometry": { "type": "Point", "coordinates": [ 139.0693225, 36.3745171 ] } },
{ "type": "Feature", "properties": { "内容": "ダスキンヘルスレントまえばしステーション【特定福祉用具販売】群馬県前橋市後家町69-1", "url2": "https://www.kaigokensaku.mhlw.go.jp/10/index.php?action_kouhyou_detail_004_kani=true&JigyosyoCd=1070109119-00&ServiceCd=410&Type=search" }, "geometry": { "type": "Point", "coordinates": [ 139.056391699999978, 36.366268500000018 ] } },
{ "type": "Feature", "properties": { "内容": "株式会社群馬中央義肢【特定福祉用具販売】群馬県高崎市小八木町304-1", "url2": "https://www.kaigokensaku.mhlw.go.jp/10/index.php?action_kouhyou_detail_004_kani=true&JigyosyoCd=1070207210-00&ServiceCd=410&Type=search" }, "geometry": { "type": "Point", "coordinates": [ 139.0079165, 36.3635773 ] } },
{ "type": "Feature", "properties": { "内容": "アイケイ福祉用具レンタルサービス【特定福祉用具販売】群馬県高崎市中居町4-17-12アイケイ薬局", "url2": "https://www.kaigokensaku.mhlw.go.jp/10/index.php?action_kouhyou_detail_004_kani=true&JigyosyoCd=1070200538-00&ServiceCd=410&Type=search" }, "geometry": { "type": "Point", "coordinates": [ 139.04108789999998, 36.313696 ] } },
{ "type": "Feature", "properties": { "内容": "サザンカケアサービス【特定福祉用具販売】群馬県高崎市吉井町長根1458-13", "url2": "https://www.kaigokensaku.mhlw.go.jp/10/index.php?action_kouhyou_detail_004_kani=true&JigyosyoCd=1070205123-00&ServiceCd=410&Type=search" }, "geometry": { "type": "Point", "coordinates": [ 138.973949400000038, 36.25815 ] } },
{ "type": "Feature", "properties": { "内容": "ヘルスサポート【特定福祉用具販売】群馬県高崎市山名町1589-19", "url2": "https://www.kaigokensaku.mhlw.go.jp/10/index.php?action_kouhyou_detail_004_kani=true&JigyosyoCd=1070207418-00&ServiceCd=410&Type=search" }, "geometry": { "type": "Point", "coordinates": [ 139.037215955819704, 36.280560515063385 ] } },
{ "type": "Feature", "properties": { "内容": "株式会社そうあい【特定福祉用具販売】群馬県高崎市石原町1503-5", "url2": "https://www.kaigokensaku.mhlw.go.jp/10/index.php?action_kouhyou_detail_004_kani=true&JigyosyoCd=1070208036-00&ServiceCd=410&Type=search" }, "geometry": { "type": "Point", "coordinates": [ 138.9980066, 36.3076836 ] } },
{ "type": "Feature", "properties": { "内容": "エムズケアサービス【特定福祉用具販売】群馬県高崎市浜川町681-2", "url2": "https://www.kaigokensaku.mhlw.go.jp/10/index.php?action_kouhyou_detail_004_kani=true&JigyosyoCd=1070208085-00&ServiceCd=410&Type=search" }, "geometry": { "type": "Point", "coordinates": [ 138.975821, 36.3765135 ] } },
{ "type": "Feature", "properties": { "内容": "フランスベッド株式会社メディカル群馬営業所【特定福祉用具販売】群馬県高崎市新保町675-1", "url2": "https://www.kaigokensaku.mhlw.go.jp/10/index.php?action_kouhyou_detail_004_kani=true&JigyosyoCd=1070103252-00&ServiceCd=410&Type=search" }, "geometry": { "type": "Point", "coordinates": [ 139.043269799999962, 36.3544327 ] } },
{ "type": "Feature", "properties": { "内容": "エフビー介護サービス株式会社　高崎営業所【特定福祉用具販売】群馬県高崎市新保町75-1", "url2": "https://www.kaigokensaku.mhlw.go.jp/10/index.php?action_kouhyou_detail_004_kani=true&JigyosyoCd=1070200926-00&ServiceCd=410&Type=search" }, "geometry": { "type": "Point", "coordinates": [ 139.036645799999974, 36.3416059 ] } },
{ "type": "Feature", "properties": { "内容": "パナケア真中株式会社　福祉用具サービス【特定福祉用具販売】群馬県高崎市足門町１５０－１", "url2": "https://www.kaigokensaku.mhlw.go.jp/10/index.php?action_kouhyou_detail_004_kani=true&JigyosyoCd=1070202294-00&ServiceCd=410&Type=search" }, "geometry": { "type": "Point", "coordinates": [ 138.980673799999977, 36.4017635 ] } },
{ "type": "Feature", "properties": { "内容": "有限会社アイワ産業介護事業部【特定福祉用具販売】群馬県高崎市東貝沢町4-6-3横山ハイツA103号", "url2": "https://www.kaigokensaku.mhlw.go.jp/10/index.php?action_kouhyou_detail_004_kani=true&JigyosyoCd=1070204803-00&ServiceCd=410&Type=search" }, "geometry": { "type": "Point", "coordinates": [ 139.0304856, 36.3491661 ] } },
{ "type": "Feature", "properties": { "内容": "カクタスヒューマンケア【特定福祉用具販売】群馬県高崎市箕郷町生原1502-1", "url2": "https://www.kaigokensaku.mhlw.go.jp/10/index.php?action_kouhyou_detail_004_kani=true&JigyosyoCd=1070207707-00&ServiceCd=410&Type=search" }, "geometry": { "type": "Point", "coordinates": [ 138.9781945, 36.390344 ] } },
{ "type": "Feature", "properties": { "内容": "有限会社イッシキ電機福祉用具貸与事業所【特定福祉用具販売】群馬県高崎市箕郷町矢原394-3", "url2": "https://www.kaigokensaku.mhlw.go.jp/10/index.php?action_kouhyou_detail_004_kani=true&JigyosyoCd=1072100553-00&ServiceCd=410&Type=search" }, "geometry": { "type": "Point", "coordinates": [ 138.9658551, 36.4037591 ] } },
{ "type": "Feature", "properties": { "内容": "丸善株式会社【特定福祉用具販売】群馬県高崎市問屋町三丁目7番地１", "url2": "https://www.kaigokensaku.mhlw.go.jp/10/index.php?action_kouhyou_detail_004_kani=true&JigyosyoCd=1070203417-00&ServiceCd=410&Type=search" }, "geometry": { "type": "Point", "coordinates": [ 139.012956495834743, 36.347566337002974 ] } },
{ "type": "Feature", "properties": { "内容": "ダスキンヘルスレントたかさきステーション【特定福祉用具販売】群馬県高崎市小八木町1478-1", "url2": "https://www.kaigokensaku.mhlw.go.jp/10/index.php?action_kouhyou_detail_004_kani=true&JigyosyoCd=1070208119-00&ServiceCd=410&Type=search" }, "geometry": { "type": "Point", "coordinates": [ 139.02016611719668, 36.362639457548163 ] } },
{ "type": "Feature", "properties": { "内容": "ケミー在宅支援事業所【特定福祉用具販売】群馬県桐生市東７丁目５番１５号", "url2": "https://www.kaigokensaku.mhlw.go.jp/10/index.php?action_kouhyou_detail_004_kani=true&JigyosyoCd=1070300544-00&ServiceCd=410&Type=search" }, "geometry": { "type": "Point", "coordinates": [ 139.345480599999973, 36.4042159 ] } },
{ "type": "Feature", "properties": { "内容": "株式会社　ケア・アシストHONDA【特定福祉用具販売】群馬県桐生市錦町2-10-34家具のホンダ桐生店3F", "url2": "https://www.kaigokensaku.mhlw.go.jp/10/index.php?action_kouhyou_detail_004_kani=true&JigyosyoCd=1070303290-00&ServiceCd=410&Type=search" }, "geometry": { "type": "Point", "coordinates": [ 139.331359, 36.404699 ] } },
{ "type": "Feature", "properties": { "内容": "有限会社　ライフネット【特定福祉用具販売】群馬県桐生市元宿町10-16", "url2": "https://www.kaigokensaku.mhlw.go.jp/10/index.php?action_kouhyou_detail_004_kani=true&JigyosyoCd=1070300379-00&ServiceCd=410&Type=search" }, "geometry": { "type": "Point", "coordinates": [ 139.32856270000002, 36.4105429 ] } },
{ "type": "Feature", "properties": { "内容": "ふれあい苑幸【特定福祉用具販売】桐生市川内町5丁目26-1", "url2": "https://www.kaigokensaku.mhlw.go.jp/10/index.php?action_kouhyou_detail_004_kani=true&JigyosyoCd=1070301468-00&ServiceCd=410&Type=search" }, "geometry": { "type": "Point", "coordinates": [ 139.3080062, 36.435965 ] } },
{ "type": "Feature", "properties": { "内容": "介護用品トマト【特定福祉用具販売】群馬県桐生市相生町三丁目５７３－９", "url2": "https://www.kaigokensaku.mhlw.go.jp/10/index.php?action_kouhyou_detail_004_kani=true&JigyosyoCd=1070300148-00&ServiceCd=410&Type=search" }, "geometry": { "type": "Point", "coordinates": [ 139.3015292, 36.4245211 ] } },
{ "type": "Feature", "properties": { "内容": "福祉用具スタイル【特定福祉用具販売】群馬県桐生市川内町2丁目84-10", "url2": "https://www.kaigokensaku.mhlw.go.jp/10/index.php?action_kouhyou_detail_004_kani=true&JigyosyoCd=1070303530-00&ServiceCd=410&Type=search" }, "geometry": { "type": "Point", "coordinates": [ 139.3095332, 36.4260277 ] } },
{ "type": "Feature", "properties": { "内容": "パナソニックエイジフリーショップ桐生【特定福祉用具販売】群馬県桐生市境野町6-429-1", "url2": "https://www.kaigokensaku.mhlw.go.jp/10/index.php?action_kouhyou_detail_004_kani=true&JigyosyoCd=1070300783-00&ServiceCd=410&Type=search" }, "geometry": { "type": "Point", "coordinates": [ 139.357516900000064, 36.3842121 ] } },
{ "type": "Feature", "properties": { "内容": "ダスキンヘルスレント桐生ステーション【特定福祉用具販売】群馬県桐生市広沢町２丁目3425-1", "url2": "https://www.kaigokensaku.mhlw.go.jp/10/index.php?action_kouhyou_detail_004_kani=true&JigyosyoCd=1070301492-00&ServiceCd=410&Type=search" }, "geometry": { "type": "Point", "coordinates": [ 139.333485200000041, 36.386162 ] } },
{ "type": "Feature", "properties": { "内容": "株式会社　クロスボーダーサポート【特定福祉用具販売】群馬県桐生市相生町5-572-1", "url2": "https://www.kaigokensaku.mhlw.go.jp/10/index.php?action_kouhyou_detail_004_kani=true&JigyosyoCd=1070303043-00&ServiceCd=410&Type=search" }, "geometry": { "type": "Point", "coordinates": [ 139.2908172, 36.4101131 ] } },
{ "type": "Feature", "properties": { "内容": "コムケアセンター【特定福祉用具販売】群馬県桐生市末広町2-14", "url2": "https://www.kaigokensaku.mhlw.go.jp/10/index.php?action_kouhyou_detail_004_kani=true&JigyosyoCd=1070300338-00&ServiceCd=410&Type=search" }, "geometry": { "type": "Point", "coordinates": [ 139.3362180556976, 36.411376922379283 ] } },
{ "type": "Feature", "properties": { "内容": "フェリーチェひまわり【特定福祉用具販売】群馬県伊勢崎市国定町1丁目632番地２", "url2": "https://www.kaigokensaku.mhlw.go.jp/10/index.php?action_kouhyou_detail_004_kani=true&JigyosyoCd=1070404254-00&ServiceCd=410&Type=search" }, "geometry": { "type": "Point", "coordinates": [ 139.259991288360681, 36.363328194809746 ] } },
{ "type": "Feature", "properties": { "内容": "有限会社ベストライフ福祉用具サービス【特定福祉用具販売】群馬県伊勢崎市堤下町72番地1", "url2": "https://www.kaigokensaku.mhlw.go.jp/10/index.php?action_kouhyou_detail_004_kani=true&JigyosyoCd=1070404676-00&ServiceCd=410&Type=search" }, "geometry": { "type": "Point", "coordinates": [ 139.1961245, 36.3386596 ] } },
{ "type": "Feature", "properties": { "内容": "有限会社ライフライン【特定福祉用具販売】群馬県伊勢崎市境東新井576-1", "url2": "https://www.kaigokensaku.mhlw.go.jp/10/index.php?action_kouhyou_detail_004_kani=true&JigyosyoCd=1072800327-00&ServiceCd=410&Type=search" }, "geometry": { "type": "Point", "coordinates": [ 139.264913799999988, 36.3120194 ] } },
{ "type": "Feature", "properties": { "内容": "株式会社　星医療酸器　北関東事業所【特定福祉用具販売】群馬県伊勢崎市八斗島町1622-1", "url2": "https://www.kaigokensaku.mhlw.go.jp/10/index.php?action_kouhyou_detail_004_kani=true&JigyosyoCd=1070400823-00&ServiceCd=410&Type=search" }, "geometry": { "type": "Point", "coordinates": [ 139.190161699999976, 36.2701548 ] } },
{ "type": "Feature", "properties": { "内容": "エフビー介護サービス株式会社伊勢崎営業所【特定福祉用具販売】群馬県伊勢崎市下触町1001-1", "url2": "https://www.kaigokensaku.mhlw.go.jp/10/index.php?action_kouhyou_detail_004_kani=true&JigyosyoCd=1070400989-00&ServiceCd=410&Type=search" }, "geometry": { "type": "Point", "coordinates": [ 139.202642981353705, 36.365057050313673 ] } },
{ "type": "Feature", "properties": { "内容": "パナソニックエイジフリーショップ伊勢崎【特定福祉用具販売】群馬県伊勢崎市下触町803番地1", "url2": "https://www.kaigokensaku.mhlw.go.jp/10/index.php?action_kouhyou_detail_004_kani=true&JigyosyoCd=1070401854-00&ServiceCd=410&Type=search" }, "geometry": { "type": "Point", "coordinates": [ 139.203161765606609, 36.368094376039352 ] } },
{ "type": "Feature", "properties": { "内容": "ケアサプライサービス【特定福祉用具販売】群馬県伊勢崎市境上渕名１１３１－１", "url2": "https://www.kaigokensaku.mhlw.go.jp/10/index.php?action_kouhyou_detail_004_kani=true&JigyosyoCd=1072800319-00&ServiceCd=410&Type=search" }, "geometry": { "type": "Point", "coordinates": [ 139.247197699999987, 36.3129986 ] } },
{ "type": "Feature", "properties": { "内容": "東洋ケアサービス株式会社　伊勢崎支店【特定福祉用具販売】群馬県伊勢崎市富塚町279-1", "url2": "https://www.kaigokensaku.mhlw.go.jp/10/index.php?action_kouhyou_detail_004_kani=true&JigyosyoCd=1070404601-00&ServiceCd=410&Type=search" }, "geometry": { "type": "Point", "coordinates": [ 139.199274800000012, 36.273073 ] } },
{ "type": "Feature", "properties": { "内容": "シルバーサポート群馬店【特定福祉用具販売】群馬県伊勢崎市連取元町160-1", "url2": "https://www.kaigokensaku.mhlw.go.jp/10/index.php?action_kouhyou_detail_004_kani=true&JigyosyoCd=1070402530-00&ServiceCd=410&Type=search" }, "geometry": { "type": "Point", "coordinates": [ 139.185854740483336, 36.316541375517197 ] } },
{ "type": "Feature", "properties": { "内容": "ケアアドバンス【特定福祉用具販売】群馬県伊勢崎市西久保町3丁目762-1", "url2": "https://www.kaigokensaku.mhlw.go.jp/10/index.php?action_kouhyou_detail_004_kani=true&JigyosyoCd=1070404981-00&ServiceCd=410&Type=search" }, "geometry": { "type": "Point", "coordinates": [ 139.233231, 36.370299 ] } },
{ "type": "Feature", "properties": { "内容": "ＡＫＡＯ　ＡＵＴＯ　ＬＩＦＥ【特定福祉用具販売】群馬県太田市東本町38-1", "url2": "https://www.kaigokensaku.mhlw.go.jp/10/index.php?action_kouhyou_detail_004_kani=true&JigyosyoCd=1070503774-00&ServiceCd=410&Type=search" }, "geometry": { "type": "Point", "coordinates": [ 139.3771898, 36.297969200000011 ] } },
{ "type": "Feature", "properties": { "内容": "株式会社　ケイ・サポート【特定福祉用具販売】群馬県太田市大原町1050-1", "url2": "https://www.kaigokensaku.mhlw.go.jp/10/index.php?action_kouhyou_detail_004_kani=true&JigyosyoCd=1070503220-00&ServiceCd=410&Type=search" }, "geometry": { "type": "Point", "coordinates": [ 139.291482553651491, 36.367534844054354 ] } },
{ "type": "Feature", "properties": { "内容": "福祉用具ふる里【特定福祉用具販売】群馬県太田市只上町1319-6", "url2": "https://www.kaigokensaku.mhlw.go.jp/10/index.php?action_kouhyou_detail_004_kani=true&JigyosyoCd=1070503907-00&ServiceCd=410&Type=search" }, "geometry": { "type": "Point", "coordinates": [ 139.400063, 36.3339555 ] } },
{ "type": "Feature", "properties": { "内容": "サン・メディカルケア【特定福祉用具販売】群馬県太田市東金井町917", "url2": "https://www.kaigokensaku.mhlw.go.jp/10/index.php?action_kouhyou_detail_004_kani=true&JigyosyoCd=1070502214-00&ServiceCd=410&Type=search" }, "geometry": { "type": "Point", "coordinates": [ 139.3949328, 36.3135591 ] } },
{ "type": "Feature", "properties": { "内容": "あいあい福祉用具サポート【特定福祉用具販売】群馬県太田市熊野町15番地18", "url2": "https://www.kaigokensaku.mhlw.go.jp/10/index.php?action_kouhyou_detail_004_kani=true&JigyosyoCd=1070503568-00&ServiceCd=410&Type=search" }, "geometry": { "type": "Point", "coordinates": [ 139.381927549609713, 36.303138637198352 ] } },
{ "type": "Feature", "properties": { "内容": "太田ケアサービス【特定福祉用具販売】群馬県太田市熊野町9-15", "url2": "https://www.kaigokensaku.mhlw.go.jp/10/index.php?action_kouhyou_detail_004_kani=true&JigyosyoCd=1070500564-00&ServiceCd=410&Type=search" }, "geometry": { "type": "Point", "coordinates": [ 139.379214700000034, 36.3023629 ] } },
{ "type": "Feature", "properties": { "内容": "関東メディカル株式会社【特定福祉用具販売】群馬県太田市新田小金井町３１２", "url2": "https://www.kaigokensaku.mhlw.go.jp/10/index.php?action_kouhyou_detail_004_kani=true&JigyosyoCd=1070500168-00&ServiceCd=410&Type=search" }, "geometry": { "type": "Point", "coordinates": [ 139.324666100000059, 36.302801 ] } },
{ "type": "Feature", "properties": { "内容": "ウェルサポート・エレノア【特定福祉用具販売】群馬県太田市只上町９１０番地１", "url2": "https://www.kaigokensaku.mhlw.go.jp/10/index.php?action_kouhyou_detail_004_kani=true&JigyosyoCd=1070504053-00&ServiceCd=410&Type=search" }, "geometry": { "type": "Point", "coordinates": [ 139.388009673269124, 36.333469706587785 ] } },
{ "type": "Feature", "properties": { "内容": "株式会社　栗原医療器械店　太田オフィス【特定福祉用具販売】群馬県太田市東今泉町464-1", "url2": "https://www.kaigokensaku.mhlw.go.jp/10/index.php?action_kouhyou_detail_004_kani=true&JigyosyoCd=1070501687-00&ServiceCd=410&Type=search" }, "geometry": { "type": "Point", "coordinates": [ 139.389064860684528, 36.328319443531278 ] } },
{ "type": "Feature", "properties": { "内容": "ホームコンフォート　ラクティ【特定福祉用具販売】群馬県太田市内ケ島町1430-4", "url2": "https://www.kaigokensaku.mhlw.go.jp/10/index.php?action_kouhyou_detail_004_kani=true&JigyosyoCd=1073101014-00&ServiceCd=410&Type=search" }, "geometry": { "type": "Point", "coordinates": [ 139.398802155221148, 36.288322961752414 ] } },
{ "type": "Feature", "properties": { "内容": "ヨシヒロプラン・ウエルフエア【特定福祉用具販売】群馬県太田市内ヶ島町1480-1", "url2": "https://www.kaigokensaku.mhlw.go.jp/10/index.php?action_kouhyou_detail_004_kani=true&JigyosyoCd=1070500804-00&ServiceCd=410&Type=search" }, "geometry": { "type": "Point", "coordinates": [ 139.39414755956102, 36.289938446398551 ] } },
{ "type": "Feature", "properties": { "内容": "ソネット太田【特定福祉用具販売】群馬県太田市龍舞町1685-1", "url2": "https://www.kaigokensaku.mhlw.go.jp/10/index.php?action_kouhyou_detail_004_kani=true&JigyosyoCd=1070501463-00&ServiceCd=410&Type=search" }, "geometry": { "type": "Point", "coordinates": [ 139.40454909999994, 36.2848456 ] } },
{ "type": "Feature", "properties": { "内容": "笑顔の未来ＥＭＩＲＡＩ【特定福祉用具販売】群馬県沼田市西原新町９６番地2", "url2": "https://www.kaigokensaku.mhlw.go.jp/10/index.php?action_kouhyou_detail_004_kani=true&JigyosyoCd=1070600851-00&ServiceCd=410&Type=search" }, "geometry": { "type": "Point", "coordinates": [ 139.052932199999987, 36.6479798 ] } },
{ "type": "Feature", "properties": { "内容": "株式会社リンサン介護福祉サービス【特定福祉用具販売】群馬県沼田市西原新町1372-5", "url2": "https://www.kaigokensaku.mhlw.go.jp/10/index.php?action_kouhyou_detail_004_kani=true&JigyosyoCd=1070600646-00&ServiceCd=410&Type=search" }, "geometry": { "type": "Point", "coordinates": [ 139.055471, 36.6424249 ] } },
{ "type": "Feature", "properties": { "内容": "マツシマ介護サービス【特定福祉用具販売】群馬県館林市本町一丁目2番10号", "url2": "https://www.kaigokensaku.mhlw.go.jp/10/index.php?action_kouhyou_detail_004_kani=true&JigyosyoCd=1070700800-00&ServiceCd=410&Type=search" }, "geometry": { "type": "Point", "coordinates": [ 139.5343045, 36.2488865 ] } },
{ "type": "Feature", "properties": { "内容": "シルバーサポートあおぞら店【特定福祉用具販売】群馬県館林市東美園町3-17101", "url2": "https://www.kaigokensaku.mhlw.go.jp/10/index.php?action_kouhyou_detail_004_kani=true&JigyosyoCd=1070701451-00&ServiceCd=410&Type=search" }, "geometry": { "type": "Point", "coordinates": [ 139.5400919, 36.2330607 ] } },
{ "type": "Feature", "properties": { "内容": "ちよだ介護レンタル【特定福祉用具販売】群馬県館林市富士見町８番２１号", "url2": "https://www.kaigokensaku.mhlw.go.jp/10/index.php?action_kouhyou_detail_004_kani=true&JigyosyoCd=1070701097-00&ServiceCd=410&Type=search" }, "geometry": { "type": "Point", "coordinates": [ 139.520989, 36.2456449 ] } },
{ "type": "Feature", "properties": { "内容": "あおぞらケアサービス【特定福祉用具販売】群馬県渋川市渋川1521-1", "url2": "https://www.kaigokensaku.mhlw.go.jp/10/index.php?action_kouhyou_detail_004_kani=true&JigyosyoCd=1070800899-00&ServiceCd=410&Type=search" }, "geometry": { "type": "Point", "coordinates": [ 139.010611199999971, 36.4895624 ] } },
{ "type": "Feature", "properties": { "内容": "株式会社丸福家具店福祉用具貸与事業所【特定福祉用具販売】群馬県渋川市渋川1238-3", "url2": "https://www.kaigokensaku.mhlw.go.jp/10/index.php?action_kouhyou_detail_004_kani=true&JigyosyoCd=1070800246-00&ServiceCd=410&Type=search" }, "geometry": { "type": "Point", "coordinates": [ 139.011436293921406, 36.495450826252046 ] } },
{ "type": "Feature", "properties": { "内容": "サンヨー介護【特定福祉用具販売】群馬県藤岡市立石１５１０番地", "url2": "https://www.kaigokensaku.mhlw.go.jp/10/index.php?action_kouhyou_detail_004_kani=true&JigyosyoCd=1070900236-00&ServiceCd=410&Type=search" }, "geometry": { "type": "Point", "coordinates": [ 139.08937, 36.284094 ] } },
{ "type": "Feature", "properties": { "内容": "メリィすこやかLABO【特定福祉用具販売】群馬県富岡市中高瀬675", "url2": "https://www.kaigokensaku.mhlw.go.jp/10/index.php?action_kouhyou_detail_004_kani=true&JigyosyoCd=1071001158-00&ServiceCd=410&Type=search" }, "geometry": { "type": "Point", "coordinates": [ 138.879001194134531, 36.247153100028775 ] } },
{ "type": "Feature", "properties": { "内容": "のざき有限会社【特定福祉用具販売】群馬県　富岡市　後賀　740", "url2": "https://www.kaigokensaku.mhlw.go.jp/10/index.php?action_kouhyou_detail_004_kani=true&JigyosyoCd=1071000119-00&ServiceCd=410&Type=search" }, "geometry": { "type": "Point", "coordinates": [ 138.93401659999995, 36.2671512 ] } },
{ "type": "Feature", "properties": { "内容": "メディケア【特定福祉用具販売】群馬県富岡市田島2-8", "url2": "https://www.kaigokensaku.mhlw.go.jp/10/index.php?action_kouhyou_detail_004_kani=true&JigyosyoCd=1071000820-00&ServiceCd=410&Type=search" }, "geometry": { "type": "Point", "coordinates": [ 138.85841880000001, 36.2465058 ] } },
{ "type": "Feature", "properties": { "内容": "ＣＳＳ福祉用具レンタルサービス笠懸事業所【特定福祉用具販売】群馬県みどり市笠懸町阿左美1321", "url2": "https://www.kaigokensaku.mhlw.go.jp/10/index.php?action_kouhyou_detail_004_kani=true&JigyosyoCd=1071201154-00&ServiceCd=410&Type=search" }, "geometry": { "type": "Point", "coordinates": [ 139.3038904, 36.3896695 ] } },
{ "type": "Feature", "properties": { "内容": "ニコットツール【特定福祉用具販売】群馬県北群馬郡榛東村新井2435-3　2階", "url2": "https://www.kaigokensaku.mhlw.go.jp/10/index.php?action_kouhyou_detail_004_kani=true&JigyosyoCd=1072201088-00&ServiceCd=410&Type=search" }, "geometry": { "type": "Point", "coordinates": [ 138.9914043, 36.4244141 ] } },
{ "type": "Feature", "properties": { "内容": "東洋ケアサービス株式会社【特定福祉用具販売】群馬県北群馬郡吉岡町大久保582", "url2": "https://www.kaigokensaku.mhlw.go.jp/10/index.php?action_kouhyou_detail_004_kani=true&JigyosyoCd=1072200346-00&ServiceCd=410&Type=search" }, "geometry": { "type": "Point", "coordinates": [ 139.02021620000005, 36.4271894 ] } },
{ "type": "Feature", "properties": { "内容": "ウェルパートナー【特定福祉用具販売】群馬県吾妻郡中之条町伊勢町942-3", "url2": "https://www.kaigokensaku.mhlw.go.jp/10/index.php?action_kouhyou_detail_004_kani=true&JigyosyoCd=1072601329-00&ServiceCd=410&Type=search" }, "geometry": { "type": "Point", "coordinates": [ 138.854261447221347, 36.587950708476754 ] } },
{ "type": "Feature", "properties": { "内容": "みずほヘルスケア【特定福祉用具販売】群馬県利根郡昭和村糸井1223", "url2": "https://www.kaigokensaku.mhlw.go.jp/10/index.php?action_kouhyou_detail_004_kani=true&JigyosyoCd=1070600174-00&ServiceCd=410&Type=search" }, "geometry": { "type": "Point", "coordinates": [ 139.072394047645844, 36.640550921365474 ] } },
{ "type": "Feature", "properties": { "内容": "有限会社　ウェルサポート・オギ【特定福祉用具販売】群馬県佐波郡玉村町樋越172-3", "url2": "https://www.kaigokensaku.mhlw.go.jp/10/index.php?action_kouhyou_detail_004_kani=true&JigyosyoCd=1072800566-00&ServiceCd=410&Type=search" }, "geometry": { "type": "Point", "coordinates": [ 139.126958785935528, 36.320834694071806 ] } },
{ "type": "Feature", "properties": { "内容": "ライフサポート【特定福祉用具販売】群馬県邑楽郡大泉町富士3-1-17", "url2": "https://www.kaigokensaku.mhlw.go.jp/10/index.php?action_kouhyou_detail_004_kani=true&JigyosyoCd=1073100834-00&ServiceCd=410&Type=search" }, "geometry": { "type": "Point", "coordinates": [ 139.410525199999938, 36.2452801 ] } }
]
}
