{
"type": "FeatureCollection",
"name": "geo_10_義務教育学校",
"crs": { "type": "name", "properties": { "name": "urn:ogc:def:crs:EPSG::6668" } },
"features": [
{ "type": "Feature", "properties": { "P29_001": "10205", "P29_002": "C210210000014", "P29_003": "16014", "P29_004": "太田市立北の杜学園", "P29_005": "群馬県太田市熊野町2-1", "P29_006": "3", "P29_007": "1", "P29_008": "00", "P29_009": null }, "geometry": { "type": "Point", "coordinates": [ 139.38544578505352, 36.303869462622771 ] } },
{ "type": "Feature", "properties": { "P29_001": "10203", "P29_002": "C210210000023", "P29_003": "16014", "P29_004": "桐生市立黒保根学園", "P29_005": "群馬県桐生市黒保根町400", "P29_006": "3", "P29_007": "1", "P29_008": "00", "P29_009": null }, "geometry": { "type": "Point", "coordinates": [ 139.284899490804065, 36.507248305914828 ] } },
{ "type": "Feature", "properties": { "P29_001": "10212", "P29_002": "C210210000032", "P29_003": "16014", "P29_004": "みどり市立あずま小中学校", "P29_005": "群馬県みどり市東町神戸10", "P29_006": "3", "P29_007": "1", "P29_008": "00", "P29_009": null }, "geometry": { "type": "Point", "coordinates": [ 139.351641869998787, 36.53857418035772 ] } }
]
}
