{
"type": "FeatureCollection",
"name": "geo_10_福祉用具貸与",
"crs": { "type": "name", "properties": { "name": "urn:ogc:def:crs:OGC:1.3:CRS84" } },
"features": [
{ "type": "Feature", "properties": { "内容": "株式会社ポケット【福祉用具貸与】群馬県前橋市山王町1丁目1-3コモンヒロセ1-2", "url2": "https://www.kaigokensaku.mhlw.go.jp/10/index.php?action_kouhyou_detail_004_kani=true&JigyosyoCd=1070109044-00&ServiceCd=170&Type=search" }, "geometry": { "type": "Point", "coordinates": [ 139.1148944, 36.3542003 ] } },
{ "type": "Feature", "properties": { "内容": "シルバーサポート前橋店【福祉用具貸与】群馬県前橋市元総社町2-8-11", "url2": "https://www.kaigokensaku.mhlw.go.jp/10/index.php?action_kouhyou_detail_004_kani=true&JigyosyoCd=1070106537-00&ServiceCd=170&Type=search" }, "geometry": { "type": "Point", "coordinates": [ 139.038422133065751, 36.391188841279423 ] } },
{ "type": "Feature", "properties": { "内容": "株式会社　セリオ　前橋営業所【福祉用具貸与】群馬県前橋市荒牧町1丁目10番14‐2", "url2": "https://www.kaigokensaku.mhlw.go.jp/10/index.php?action_kouhyou_detail_004_kani=true&JigyosyoCd=1070101777-00&ServiceCd=170&Type=search" }, "geometry": { "type": "Point", "coordinates": [ 139.057292275679885, 36.426074007863981 ] } },
{ "type": "Feature", "properties": { "内容": "株式会社　栗原医療器械店　前橋オフィス【福祉用具貸与】群馬県前橋市荒牧町2丁目39番地7", "url2": "https://www.kaigokensaku.mhlw.go.jp/10/index.php?action_kouhyou_detail_004_kani=true&JigyosyoCd=1070103351-00&ServiceCd=170&Type=search" }, "geometry": { "type": "Point", "coordinates": [ 139.053018573294025, 36.426649298697846 ] } },
{ "type": "Feature", "properties": { "内容": "ライフ・リレーション福祉用具事業部【福祉用具貸与】群馬県前橋市昭和町三丁目12-15", "url2": "https://www.kaigokensaku.mhlw.go.jp/10/index.php?action_kouhyou_detail_004_kani=true&JigyosyoCd=1070107030-00&ServiceCd=170&Type=search" }, "geometry": { "type": "Point", "coordinates": [ 139.062447269381664, 36.405863356798726 ] } },
{ "type": "Feature", "properties": { "内容": "すずらん福祉用具【福祉用具貸与】群馬県前橋市上泉町1857-6", "url2": "https://www.kaigokensaku.mhlw.go.jp/10/index.php?action_kouhyou_detail_004_kani=true&JigyosyoCd=1070106388-00&ServiceCd=170&Type=search" }, "geometry": { "type": "Point", "coordinates": [ 139.12327691349185, 36.407500547448656 ] } },
{ "type": "Feature", "properties": { "内容": "エスアール【福祉用具貸与】群馬県前橋市総社町桜が丘1035-3", "url2": "https://www.kaigokensaku.mhlw.go.jp/10/index.php?action_kouhyou_detail_004_kani=true&JigyosyoCd=1070101462-00&ServiceCd=170&Type=search" }, "geometry": { "type": "Point", "coordinates": [ 139.031848699999955, 36.4233845 ] } },
{ "type": "Feature", "properties": { "内容": "株式会社フロンティア群馬営業所【福祉用具貸与】群馬県前橋市大渡町１－７－１", "url2": "https://www.kaigokensaku.mhlw.go.jp/10/index.php?action_kouhyou_detail_004_kani=true&JigyosyoCd=1070104953-00&ServiceCd=170&Type=search" }, "geometry": { "type": "Point", "coordinates": [ 139.052008879306726, 36.395479234997197 ] } },
{ "type": "Feature", "properties": { "内容": "ソネット【福祉用具貸与】群馬県前橋市大友町2-6-1", "url2": "https://www.kaigokensaku.mhlw.go.jp/10/index.php?action_kouhyou_detail_004_kani=true&JigyosyoCd=1070201288-00&ServiceCd=170&Type=search" }, "geometry": { "type": "Point", "coordinates": [ 139.045501899999977, 36.3903283 ] } },
{ "type": "Feature", "properties": { "内容": "ＪＡ前橋市福祉用具事業所【福祉用具貸与】群馬県前橋市中内町40-4", "url2": "https://www.kaigokensaku.mhlw.go.jp/10/index.php?action_kouhyou_detail_004_kani=true&JigyosyoCd=1070106511-00&ServiceCd=170&Type=search" }, "geometry": { "type": "Point", "coordinates": [ 139.119970652114802, 36.345200296374273 ] } },
{ "type": "Feature", "properties": { "内容": "あおば薬局【福祉用具貸与】群馬県前橋市朝倉町839番地6", "url2": "https://www.kaigokensaku.mhlw.go.jp/10/index.php?action_kouhyou_detail_004_kani=true&JigyosyoCd=1070107642-00&ServiceCd=170&Type=search" }, "geometry": { "type": "Point", "coordinates": [ 139.086605661377035, 36.370351710966304 ] } },
{ "type": "Feature", "properties": { "内容": "株式会社ヤマシタ　群馬営業所【福祉用具貸与】群馬県前橋市朝倉町3-12-6", "url2": "https://www.kaigokensaku.mhlw.go.jp/10/index.php?action_kouhyou_detail_004_kani=true&JigyosyoCd=1070100415-00&ServiceCd=170&Type=search" }, "geometry": { "type": "Point", "coordinates": [ 139.097385880947826, 36.370988578291907 ] } },
{ "type": "Feature", "properties": { "内容": "ウェルケア優【福祉用具貸与】群馬県前橋市朝倉町2-36-17", "url2": "https://www.kaigokensaku.mhlw.go.jp/10/index.php?action_kouhyou_detail_004_kani=true&JigyosyoCd=1070108095-00&ServiceCd=170&Type=search" }, "geometry": { "type": "Point", "coordinates": [ 139.0908005, 36.3713684 ] } },
{ "type": "Feature", "properties": { "内容": "ケアセンターあかね【福祉用具貸与】群馬県前橋市南町3-35-3", "url2": "https://www.kaigokensaku.mhlw.go.jp/10/index.php?action_kouhyou_detail_004_kani=true&JigyosyoCd=1070104011-00&ServiceCd=170&Type=search" }, "geometry": { "type": "Point", "coordinates": [ 139.072577499999966, 36.3812023 ] } },
{ "type": "Feature", "properties": { "内容": "株式会社　ほほえみプランニング【福祉用具貸与】群馬県前橋市二之宮町869番地7", "url2": "https://www.kaigokensaku.mhlw.go.jp/10/index.php?action_kouhyou_detail_004_kani=true&JigyosyoCd=1070102866-00&ServiceCd=170&Type=search" }, "geometry": { "type": "Point", "coordinates": [ 139.167320475146425, 36.368210660784435 ] } },
{ "type": "Feature", "properties": { "内容": "エフビー介護サービス株式会社　前橋営業所【福祉用具貸与】群馬県前橋市六供町1-41-3", "url2": "https://www.kaigokensaku.mhlw.go.jp/10/index.php?action_kouhyou_detail_004_kani=true&JigyosyoCd=1070106065-00&ServiceCd=170&Type=search" }, "geometry": { "type": "Point", "coordinates": [ 139.0693225, 36.3745171 ] } },
{ "type": "Feature", "properties": { "内容": "CSS福祉用具レンタルサービス前橋事業所【福祉用具貸与】群馬県前橋市天川原町2-46-22五十嵐ビル２０６号室", "url2": "https://www.kaigokensaku.mhlw.go.jp/10/index.php?action_kouhyou_detail_004_kani=true&JigyosyoCd=1070108855-00&ServiceCd=170&Type=search" }, "geometry": { "type": "Point", "coordinates": [ 139.0841005, 36.3692928 ] } },
{ "type": "Feature", "properties": { "内容": "ケアセンター富士たちばな【福祉用具貸与】群馬県前橋市大友町３丁目24-1ホテル1-2-3前橋マーキュリーEAST7階", "url2": "https://www.kaigokensaku.mhlw.go.jp/10/index.php?action_kouhyou_detail_004_kani=true&JigyosyoCd=1070108640-00&ServiceCd=170&Type=search" }, "geometry": { "type": "Point", "coordinates": [ 139.044495500000011, 36.3922892 ] } },
{ "type": "Feature", "properties": { "内容": "ダスキンヘルスレントまえばしステーション【福祉用具貸与】群馬県前橋市後家町69-1", "url2": "https://www.kaigokensaku.mhlw.go.jp/10/index.php?action_kouhyou_detail_004_kani=true&JigyosyoCd=1070109119-00&ServiceCd=170&Type=search" }, "geometry": { "type": "Point", "coordinates": [ 139.056391699999978, 36.366268500000018 ] } },
{ "type": "Feature", "properties": { "内容": "株式会社　友愛【福祉用具貸与】群馬県高崎市下小鳥町1310", "url2": "https://www.kaigokensaku.mhlw.go.jp/10/index.php?action_kouhyou_detail_004_kani=true&JigyosyoCd=1070200322-00&ServiceCd=170&Type=search" }, "geometry": { "type": "Point", "coordinates": [ 139.000012199999986, 36.3485403 ] } },
{ "type": "Feature", "properties": { "内容": "中央ライフウェル株式会社【福祉用具貸与】群馬県高崎市岩鼻町２３０－１高田コーポ1F", "url2": "https://www.kaigokensaku.mhlw.go.jp/10/index.php?action_kouhyou_detail_004_kani=true&JigyosyoCd=1070206444-00&ServiceCd=170&Type=search" }, "geometry": { "type": "Point", "coordinates": [ 139.075226899999961, 36.2967924 ] } },
{ "type": "Feature", "properties": { "内容": "サザンカケアサービス【福祉用具貸与】群馬県高崎市吉井町長根1458-13", "url2": "https://www.kaigokensaku.mhlw.go.jp/10/index.php?action_kouhyou_detail_004_kani=true&JigyosyoCd=1070205123-00&ServiceCd=170&Type=search" }, "geometry": { "type": "Point", "coordinates": [ 138.966744610710037, 36.253777678768266 ] } },
{ "type": "Feature", "properties": { "内容": "ヘルスサポート【福祉用具貸与】群馬県高崎市上並榎町626-5", "url2": "https://www.kaigokensaku.mhlw.go.jp/10/index.php?action_kouhyou_detail_004_kani=true&JigyosyoCd=1070207418-00&ServiceCd=170&Type=search" }, "geometry": { "type": "Point", "coordinates": [ 138.989742634573872, 36.337346291664488 ] } },
{ "type": "Feature", "properties": { "内容": "株式会社そうあい【福祉用具貸与】群馬県高崎市石原町1503-5", "url2": "https://www.kaigokensaku.mhlw.go.jp/10/index.php?action_kouhyou_detail_004_kani=true&JigyosyoCd=1070208036-00&ServiceCd=170&Type=search" }, "geometry": { "type": "Point", "coordinates": [ 138.9980066, 36.3076836 ] } },
{ "type": "Feature", "properties": { "内容": "エムズケアサービス【福祉用具貸与】群馬県高崎市浜川町681-2", "url2": "https://www.kaigokensaku.mhlw.go.jp/10/index.php?action_kouhyou_detail_004_kani=true&JigyosyoCd=1070208085-00&ServiceCd=170&Type=search" }, "geometry": { "type": "Point", "coordinates": [ 138.975821, 36.3765135 ] } },
{ "type": "Feature", "properties": { "内容": "有限会社マツモト【福祉用具貸与】群馬県高崎市新町2145番地2", "url2": "https://www.kaigokensaku.mhlw.go.jp/10/index.php?action_kouhyou_detail_004_kani=true&JigyosyoCd=1072300179-00&ServiceCd=170&Type=search" }, "geometry": { "type": "Point", "coordinates": [ 139.109631400000012, 36.27364 ] } },
{ "type": "Feature", "properties": { "内容": "フランスベッド株式会社　メディカル群馬営業所【福祉用具貸与】群馬県高崎市新保町675-1", "url2": "https://www.kaigokensaku.mhlw.go.jp/10/index.php?action_kouhyou_detail_004_kani=true&JigyosyoCd=1070103252-00&ServiceCd=170&Type=search" }, "geometry": { "type": "Point", "coordinates": [ 139.043269799999962, 36.3544327 ] } },
{ "type": "Feature", "properties": { "内容": "エフビー介護サービス株式会社　高崎営業所【福祉用具貸与】群馬県高崎市新保町75-1", "url2": "https://www.kaigokensaku.mhlw.go.jp/10/index.php?action_kouhyou_detail_004_kani=true&JigyosyoCd=1070200926-00&ServiceCd=170&Type=search" }, "geometry": { "type": "Point", "coordinates": [ 139.036645799999974, 36.3416059 ] } },
{ "type": "Feature", "properties": { "内容": "パナケア真中株式会社　福祉用具サービス【福祉用具貸与】群馬県高崎市足門町150-1", "url2": "https://www.kaigokensaku.mhlw.go.jp/10/index.php?action_kouhyou_detail_004_kani=true&JigyosyoCd=1072100413-00&ServiceCd=170&Type=search" }, "geometry": { "type": "Point", "coordinates": [ 138.980673799999977, 36.401763500000015 ] } },
{ "type": "Feature", "properties": { "内容": "アイケイ福祉用具レンタルサービス【福祉用具貸与】群馬県高崎市中居町4-17-12アイケイ薬局", "url2": "https://www.kaigokensaku.mhlw.go.jp/10/index.php?action_kouhyou_detail_004_kani=true&JigyosyoCd=1070200538-00&ServiceCd=170&Type=search" }, "geometry": { "type": "Point", "coordinates": [ 139.04108789999998, 36.313696 ] } },
{ "type": "Feature", "properties": { "内容": "有限会社アイワ産業介護事業部【福祉用具貸与】群馬県高崎市東貝沢町4-6-3横山ハイツA103号", "url2": "https://www.kaigokensaku.mhlw.go.jp/10/index.php?action_kouhyou_detail_004_kani=true&JigyosyoCd=1070204803-00&ServiceCd=170&Type=search" }, "geometry": { "type": "Point", "coordinates": [ 139.030493400000069, 36.3491467 ] } },
{ "type": "Feature", "properties": { "内容": "有限会社イッシキ電機福祉用具貸与事業所【福祉用具貸与】群馬県高崎市箕郷町矢原394-3", "url2": "https://www.kaigokensaku.mhlw.go.jp/10/index.php?action_kouhyou_detail_004_kani=true&JigyosyoCd=1072100553-00&ServiceCd=170&Type=search" }, "geometry": { "type": "Point", "coordinates": [ 138.965799699999934, 36.4037433 ] } },
{ "type": "Feature", "properties": { "内容": "丸善株式会社【福祉用具貸与】群馬県高崎市問屋町三丁目7番地1", "url2": "https://www.kaigokensaku.mhlw.go.jp/10/index.php?action_kouhyou_detail_004_kani=true&JigyosyoCd=1070203417-00&ServiceCd=170&Type=search" }, "geometry": { "type": "Point", "coordinates": [ 139.012979291485294, 36.347565603521922 ] } },
{ "type": "Feature", "properties": { "内容": "ダスキンヘルスレントたかさきステーション【福祉用具貸与】群馬県高崎市小八木町1478-1", "url2": "https://www.kaigokensaku.mhlw.go.jp/10/index.php?action_kouhyou_detail_004_kani=true&JigyosyoCd=1070208119-00&ServiceCd=170&Type=search" }, "geometry": { "type": "Point", "coordinates": [ 139.020155388360621, 36.362635137686432 ] } },
{ "type": "Feature", "properties": { "内容": "介護用品ライブリー【福祉用具貸与】群馬県高崎市和田町10-11", "url2": "https://www.kaigokensaku.mhlw.go.jp/10/index.php?action_kouhyou_detail_004_kani=true&JigyosyoCd=1070207764-00&ServiceCd=170&Type=search" }, "geometry": { "type": "Point", "coordinates": [ 139.011236599999989, 36.3164234 ] } },
{ "type": "Feature", "properties": { "内容": "カクタスヒューマンケア【福祉用具貸与】群馬県高崎市箕郷町生原1502-1", "url2": "https://www.kaigokensaku.mhlw.go.jp/10/index.php?action_kouhyou_detail_004_kani=true&JigyosyoCd=1070207707-00&ServiceCd=170&Type=search" }, "geometry": { "type": "Point", "coordinates": [ 138.9781945, 36.390344 ] } },
{ "type": "Feature", "properties": { "内容": "福祉用具スタイル【福祉用具貸与】群馬県桐生市川内町2丁目84-10", "url2": "https://www.kaigokensaku.mhlw.go.jp/10/index.php?action_kouhyou_detail_004_kani=true&JigyosyoCd=1070303530-00&ServiceCd=170&Type=search" }, "geometry": { "type": "Point", "coordinates": [ 139.3095332, 36.4260277 ] } },
{ "type": "Feature", "properties": { "内容": "パナソニックエイジフリーショップ桐生【福祉用具貸与】群馬県桐生市境野町６‐４２９‐１", "url2": "https://www.kaigokensaku.mhlw.go.jp/10/index.php?action_kouhyou_detail_004_kani=true&JigyosyoCd=1070300783-00&ServiceCd=170&Type=search" }, "geometry": { "type": "Point", "coordinates": [ 139.357516900000064, 36.3842121 ] } },
{ "type": "Feature", "properties": { "内容": "有限会社　ライフネット【福祉用具貸与】群馬県桐生市元宿町10-16", "url2": "https://www.kaigokensaku.mhlw.go.jp/10/index.php?action_kouhyou_detail_004_kani=true&JigyosyoCd=1070300379-00&ServiceCd=170&Type=search" }, "geometry": { "type": "Point", "coordinates": [ 139.32856270000002, 36.4105429 ] } },
{ "type": "Feature", "properties": { "内容": "ダスキンヘルスレント桐生ステーション【福祉用具貸与】群馬県桐生市広沢町２丁目3425-1", "url2": "https://www.kaigokensaku.mhlw.go.jp/10/index.php?action_kouhyou_detail_004_kani=true&JigyosyoCd=1070301492-00&ServiceCd=170&Type=search" }, "geometry": { "type": "Point", "coordinates": [ 139.333485200000041, 36.386162 ] } },
{ "type": "Feature", "properties": { "内容": "ふれあい苑　　幸【福祉用具貸与】群馬県桐生市川内町5丁目26-1", "url2": "https://www.kaigokensaku.mhlw.go.jp/10/index.php?action_kouhyou_detail_004_kani=true&JigyosyoCd=1070301468-00&ServiceCd=170&Type=search" }, "geometry": { "type": "Point", "coordinates": [ 139.307939600000026, 36.4360422 ] } },
{ "type": "Feature", "properties": { "内容": "介護用品トマト【福祉用具貸与】群馬県桐生市相生町三丁目５７３－９", "url2": "https://www.kaigokensaku.mhlw.go.jp/10/index.php?action_kouhyou_detail_004_kani=true&JigyosyoCd=1070300148-00&ServiceCd=170&Type=search" }, "geometry": { "type": "Point", "coordinates": [ 139.3015292, 36.4245211 ] } },
{ "type": "Feature", "properties": { "内容": "株式会社クロスボーダーサポート【福祉用具貸与】群馬県桐生市相生町5丁目572-1", "url2": "https://www.kaigokensaku.mhlw.go.jp/10/index.php?action_kouhyou_detail_004_kani=true&JigyosyoCd=1070303043-00&ServiceCd=170&Type=search" }, "geometry": { "type": "Point", "coordinates": [ 139.291071699125524, 36.409854700990977 ] } },
{ "type": "Feature", "properties": { "内容": "ケミー在宅支援事業所【福祉用具貸与】群馬県桐生市東７丁目５番１５号", "url2": "https://www.kaigokensaku.mhlw.go.jp/10/index.php?action_kouhyou_detail_004_kani=true&JigyosyoCd=1070300544-00&ServiceCd=170&Type=search" }, "geometry": { "type": "Point", "coordinates": [ 139.345480599999973, 36.4042159 ] } },
{ "type": "Feature", "properties": { "内容": "コムケアセンター【福祉用具貸与】群馬県桐生市末広町2－14", "url2": "https://www.kaigokensaku.mhlw.go.jp/10/index.php?action_kouhyou_detail_004_kani=true&JigyosyoCd=1070300338-00&ServiceCd=170&Type=search" }, "geometry": { "type": "Point", "coordinates": [ 139.336230614593092, 36.411386972173347 ] } },
{ "type": "Feature", "properties": { "内容": "エフビー介護サービス株式会社　伊勢崎営業所【福祉用具貸与】群馬県伊勢崎市下触町1001-1", "url2": "https://www.kaigokensaku.mhlw.go.jp/10/index.php?action_kouhyou_detail_004_kani=true&JigyosyoCd=1070400989-00&ServiceCd=170&Type=search" }, "geometry": { "type": "Point", "coordinates": [ 139.202632252517645, 36.365061370043122 ] } },
{ "type": "Feature", "properties": { "内容": "パナソニックエイジフリーショップ伊勢崎【福祉用具貸与】群馬県伊勢崎市下触町803番地1", "url2": "https://www.kaigokensaku.mhlw.go.jp/10/index.php?action_kouhyou_detail_004_kani=true&JigyosyoCd=1070401854-00&ServiceCd=170&Type=search" }, "geometry": { "type": "Point", "coordinates": [ 139.203172494442668, 36.368094376038961 ] } },
{ "type": "Feature", "properties": { "内容": "ケアサプライサービス【福祉用具貸与】群馬県伊勢崎市境上渕名１１３１－１", "url2": "https://www.kaigokensaku.mhlw.go.jp/10/index.php?action_kouhyou_detail_004_kani=true&JigyosyoCd=1072800319-00&ServiceCd=170&Type=search" }, "geometry": { "type": "Point", "coordinates": [ 139.247197699999987, 36.3129986 ] } },
{ "type": "Feature", "properties": { "内容": "有限会社　ライフライン【福祉用具貸与】群馬県伊勢崎市境東新井576-1", "url2": "https://www.kaigokensaku.mhlw.go.jp/10/index.php?action_kouhyou_detail_004_kani=true&JigyosyoCd=1072800327-00&ServiceCd=170&Type=search" }, "geometry": { "type": "Point", "coordinates": [ 139.26489360000005, 36.3120351 ] } },
{ "type": "Feature", "properties": { "内容": "フェリーチェ　ひまわり【福祉用具貸与】群馬県伊勢崎市国定町1丁目632番地２", "url2": "https://www.kaigokensaku.mhlw.go.jp/10/index.php?action_kouhyou_detail_004_kani=true&JigyosyoCd=1070404254-00&ServiceCd=170&Type=search" }, "geometry": { "type": "Point", "coordinates": [ 139.259969830688561, 36.363328194809746 ] } },
{ "type": "Feature", "properties": { "内容": "有限会社　ワンライト【福祉用具貸与】群馬県伊勢崎市市場町一丁目１５０３", "url2": "https://www.kaigokensaku.mhlw.go.jp/10/index.php?action_kouhyou_detail_004_kani=true&JigyosyoCd=1070401441-00&ServiceCd=170&Type=search" }, "geometry": { "type": "Point", "coordinates": [ 139.225792400000046, 36.3703364 ] } },
{ "type": "Feature", "properties": { "内容": "有限会社ベストライフ福祉用具サービス【福祉用具貸与】群馬県伊勢崎市堤下町72番1ケアライフ華蔵寺", "url2": "https://www.kaigokensaku.mhlw.go.jp/10/index.php?action_kouhyou_detail_004_kani=true&JigyosyoCd=1070404676-00&ServiceCd=170&Type=search" }, "geometry": { "type": "Point", "coordinates": [ 139.1961245, 36.3386596 ] } },
{ "type": "Feature", "properties": { "内容": "リリーフスティション【福祉用具貸与】群馬県伊勢崎市日乃出町４２４番地１", "url2": "https://www.kaigokensaku.mhlw.go.jp/10/index.php?action_kouhyou_detail_004_kani=true&JigyosyoCd=1070401052-00&ServiceCd=170&Type=search" }, "geometry": { "type": "Point", "coordinates": [ 139.224094946349396, 36.319837904544961 ] } },
{ "type": "Feature", "properties": { "内容": "東洋ケアサービス株式会社　伊勢崎支店【福祉用具貸与】群馬県伊勢崎市富塚町279-1", "url2": "https://www.kaigokensaku.mhlw.go.jp/10/index.php?action_kouhyou_detail_004_kani=true&JigyosyoCd=1070404601-00&ServiceCd=170&Type=search" }, "geometry": { "type": "Point", "coordinates": [ 139.199274800000012, 36.273073 ] } },
{ "type": "Feature", "properties": { "内容": "介護センターななくさ株式会社【福祉用具貸与】群馬県伊勢崎市豊城町1866番地1", "url2": "https://www.kaigokensaku.mhlw.go.jp/10/index.php?action_kouhyou_detail_004_kani=true&JigyosyoCd=1070401656-00&ServiceCd=170&Type=search" }, "geometry": { "type": "Point", "coordinates": [ 139.224168700000064, 36.3320984 ] } },
{ "type": "Feature", "properties": { "内容": "シルバーサポート群馬店【福祉用具貸与】群馬県伊勢崎市連取元町160-1", "url2": "https://www.kaigokensaku.mhlw.go.jp/10/index.php?action_kouhyou_detail_004_kani=true&JigyosyoCd=1070402530-00&ServiceCd=170&Type=search" }, "geometry": { "type": "Point", "coordinates": [ 139.185908073016293, 36.316599443094233 ] } },
{ "type": "Feature", "properties": { "内容": "おーえっくす【福祉用具貸与】群馬県伊勢崎市連取本町2番2", "url2": "https://www.kaigokensaku.mhlw.go.jp/10/index.php?action_kouhyou_detail_004_kani=true&JigyosyoCd=1070400310-00&ServiceCd=170&Type=search" }, "geometry": { "type": "Point", "coordinates": [ 139.176030500000024, 36.3244842 ] } },
{ "type": "Feature", "properties": { "内容": "ケアアドバンス【福祉用具貸与】群馬県伊勢崎市西久保町3丁目762-1", "url2": "https://www.kaigokensaku.mhlw.go.jp/10/index.php?action_kouhyou_detail_004_kani=true&JigyosyoCd=1070404981-00&ServiceCd=170&Type=search" }, "geometry": { "type": "Point", "coordinates": [ 139.233231, 36.370299 ] } },
{ "type": "Feature", "properties": { "内容": "あいあい福祉用具サポート【福祉用具貸与】群馬県太田市熊野町15番地18", "url2": "https://www.kaigokensaku.mhlw.go.jp/10/index.php?action_kouhyou_detail_004_kani=true&JigyosyoCd=1070503568-00&ServiceCd=170&Type=search" }, "geometry": { "type": "Point", "coordinates": [ 139.381624460220337, 36.303237372584327 ] } },
{ "type": "Feature", "properties": { "内容": "太田ケアサービス【福祉用具貸与】群馬県太田市熊野町9-15", "url2": "https://www.kaigokensaku.mhlw.go.jp/10/index.php?action_kouhyou_detail_004_kani=true&JigyosyoCd=1070500564-00&ServiceCd=170&Type=search" }, "geometry": { "type": "Point", "coordinates": [ 139.379214700000034, 36.3023629 ] } },
{ "type": "Feature", "properties": { "内容": "関東メディカル株式会社【福祉用具貸与】群馬県太田市新田小金井町３１２", "url2": "https://www.kaigokensaku.mhlw.go.jp/10/index.php?action_kouhyou_detail_004_kani=true&JigyosyoCd=1070500168-00&ServiceCd=170&Type=search" }, "geometry": { "type": "Point", "coordinates": [ 139.324666100000059, 36.302801 ] } },
{ "type": "Feature", "properties": { "内容": "株式会社　ケイ・サポート【福祉用具貸与】群馬県太田市大原町1050-1", "url2": "https://www.kaigokensaku.mhlw.go.jp/10/index.php?action_kouhyou_detail_004_kani=true&JigyosyoCd=1070503220-00&ServiceCd=170&Type=search" }, "geometry": { "type": "Point", "coordinates": [ 139.291530833413759, 36.367491648143641 ] } },
{ "type": "Feature", "properties": { "内容": "福祉用具ふる里【福祉用具貸与】群馬県太田市只上町1319-6", "url2": "https://www.kaigokensaku.mhlw.go.jp/10/index.php?action_kouhyou_detail_004_kani=true&JigyosyoCd=1070503907-00&ServiceCd=170&Type=search" }, "geometry": { "type": "Point", "coordinates": [ 139.400063, 36.3339555 ] } },
{ "type": "Feature", "properties": { "内容": "ウェルサポート・エレノア【福祉用具貸与】群馬県太田市只上町９１０番地１", "url2": "https://www.kaigokensaku.mhlw.go.jp/10/index.php?action_kouhyou_detail_004_kani=true&JigyosyoCd=1070504053-00&ServiceCd=170&Type=search" }, "geometry": { "type": "Point", "coordinates": [ 139.388015670755777, 36.333469625751647 ] } },
{ "type": "Feature", "properties": { "内容": "株式会社　栗原医療器械店　太田オフィス【福祉用具貸与】群馬県太田市東今泉町464-1太田ディストリビューションセンター", "url2": "https://www.kaigokensaku.mhlw.go.jp/10/index.php?action_kouhyou_detail_004_kani=true&JigyosyoCd=1070501687-00&ServiceCd=170&Type=search" }, "geometry": { "type": "Point", "coordinates": [ 139.389073821067512, 36.328365043547024 ] } },
{ "type": "Feature", "properties": { "内容": "ホームコンフォート　ラクティ【福祉用具貸与】群馬県太田市内ケ島町1430-4", "url2": "https://www.kaigokensaku.mhlw.go.jp/10/index.php?action_kouhyou_detail_004_kani=true&JigyosyoCd=1073101014-00&ServiceCd=170&Type=search" }, "geometry": { "type": "Point", "coordinates": [ 139.398776281599311, 36.288276079370142 ] } },
{ "type": "Feature", "properties": { "内容": "ヨシヒロプラン・ウエルフエア【福祉用具貸与】群馬県太田市内ヶ島町1480-1", "url2": "https://www.kaigokensaku.mhlw.go.jp/10/index.php?action_kouhyou_detail_004_kani=true&JigyosyoCd=1070500804-00&ServiceCd=170&Type=search" }, "geometry": { "type": "Point", "coordinates": [ 139.3941059761963, 36.289899025993535 ] } },
{ "type": "Feature", "properties": { "内容": "ソネット太田【福祉用具貸与】群馬県太田市龍舞町1685-1", "url2": "https://www.kaigokensaku.mhlw.go.jp/10/index.php?action_kouhyou_detail_004_kani=true&JigyosyoCd=1070501463-00&ServiceCd=170&Type=search" }, "geometry": { "type": "Point", "coordinates": [ 139.40454909999994, 36.2848456 ] } },
{ "type": "Feature", "properties": { "内容": "笑顔の未来ＥＭＩＲＡＩ【福祉用具貸与】群馬県沼田市西原新町９６番地2", "url2": "https://www.kaigokensaku.mhlw.go.jp/10/index.php?action_kouhyou_detail_004_kani=true&JigyosyoCd=1070600851-00&ServiceCd=170&Type=search" }, "geometry": { "type": "Point", "coordinates": [ 139.052932199999987, 36.6479798 ] } },
{ "type": "Feature", "properties": { "内容": "有限会社　タハラ家具介護支援センター【福祉用具貸与】群馬県沼田市高橋場町2071-17", "url2": "https://www.kaigokensaku.mhlw.go.jp/10/index.php?action_kouhyou_detail_004_kani=true&JigyosyoCd=1070600166-00&ServiceCd=170&Type=search" }, "geometry": { "type": "Point", "coordinates": [ 139.065816899999959, 36.6549012 ] } },
{ "type": "Feature", "properties": { "内容": "株式会社リンサン介護福祉サービス【福祉用具貸与】群馬県沼田市西原新町1372-5", "url2": "https://www.kaigokensaku.mhlw.go.jp/10/index.php?action_kouhyou_detail_004_kani=true&JigyosyoCd=1070600646-00&ServiceCd=170&Type=search" }, "geometry": { "type": "Point", "coordinates": [ 139.055471, 36.6424249 ] } },
{ "type": "Feature", "properties": { "内容": "シルバーサポートあおぞら店【福祉用具貸与】群馬県館林市東美園町3-17101", "url2": "https://www.kaigokensaku.mhlw.go.jp/10/index.php?action_kouhyou_detail_004_kani=true&JigyosyoCd=1070701451-00&ServiceCd=170&Type=search" }, "geometry": { "type": "Point", "coordinates": [ 139.5400919, 36.2330607 ] } },
{ "type": "Feature", "properties": { "内容": "ちよだ介護レンタル【福祉用具貸与】群馬県館林市富士見町８番２１号", "url2": "https://www.kaigokensaku.mhlw.go.jp/10/index.php?action_kouhyou_detail_004_kani=true&JigyosyoCd=1070701097-00&ServiceCd=170&Type=search" }, "geometry": { "type": "Point", "coordinates": [ 139.520989, 36.2456449 ] } },
{ "type": "Feature", "properties": { "内容": "マツシマ介護サービス【福祉用具貸与】群馬県館林市大手町8番5号", "url2": "https://www.kaigokensaku.mhlw.go.jp/10/index.php?action_kouhyou_detail_004_kani=true&JigyosyoCd=1070700800-00&ServiceCd=170&Type=search" }, "geometry": { "type": "Point", "coordinates": [ 139.536776940980474, 36.24801452735629 ] } },
{ "type": "Feature", "properties": { "内容": "株式会社丸福家具店福祉用具貸与事業所【福祉用具貸与】群馬県渋川市渋川1238-3", "url2": "https://www.kaigokensaku.mhlw.go.jp/10/index.php?action_kouhyou_detail_004_kani=true&JigyosyoCd=1070800246-00&ServiceCd=170&Type=search" }, "geometry": { "type": "Point", "coordinates": [ 139.011466978399085, 36.495472345535823 ] } },
{ "type": "Feature", "properties": { "内容": "あおぞらケアサービス【福祉用具貸与】群馬県渋川市渋川1521-1", "url2": "https://www.kaigokensaku.mhlw.go.jp/10/index.php?action_kouhyou_detail_004_kani=true&JigyosyoCd=1070800899-00&ServiceCd=170&Type=search" }, "geometry": { "type": "Point", "coordinates": [ 139.010611199999971, 36.4895624 ] } },
{ "type": "Feature", "properties": { "内容": "フジ建装福祉事業部【福祉用具貸与】群馬県渋川市北橘町八崎３９４－２", "url2": "https://www.kaigokensaku.mhlw.go.jp/10/index.php?action_kouhyou_detail_004_kani=true&JigyosyoCd=1070800766-00&ServiceCd=170&Type=search" }, "geometry": { "type": "Point", "coordinates": [ 139.020176799999945, 36.496345 ] } },
{ "type": "Feature", "properties": { "内容": "サンヨー介護【福祉用具貸与】群馬県藤岡市立石1510番地", "url2": "https://www.kaigokensaku.mhlw.go.jp/10/index.php?action_kouhyou_detail_004_kani=true&JigyosyoCd=1070900236-00&ServiceCd=170&Type=search" }, "geometry": { "type": "Point", "coordinates": [ 139.08937, 36.284094 ] } },
{ "type": "Feature", "properties": { "内容": "メリィすこやかLABO【福祉用具貸与】群馬県富岡市中高瀬675", "url2": "https://www.kaigokensaku.mhlw.go.jp/10/index.php?action_kouhyou_detail_004_kani=true&JigyosyoCd=1071001158-00&ServiceCd=170&Type=search" }, "geometry": { "type": "Point", "coordinates": [ 138.879039723591404, 36.247094695497232 ] } },
{ "type": "Feature", "properties": { "内容": "のざき有限会社【福祉用具貸与】群馬県富岡市後賀740番地", "url2": "https://www.kaigokensaku.mhlw.go.jp/10/index.php?action_kouhyou_detail_004_kani=true&JigyosyoCd=1071000119-00&ServiceCd=170&Type=search" }, "geometry": { "type": "Point", "coordinates": [ 138.93401659999995, 36.2671512 ] } },
{ "type": "Feature", "properties": { "内容": "メディケア【福祉用具貸与】群馬県富岡市田島2-8", "url2": "https://www.kaigokensaku.mhlw.go.jp/10/index.php?action_kouhyou_detail_004_kani=true&JigyosyoCd=1071000820-00&ServiceCd=170&Type=search" }, "geometry": { "type": "Point", "coordinates": [ 138.858684217196668, 36.246317710348976 ] } },
{ "type": "Feature", "properties": { "内容": "サムエス福祉用具【福祉用具貸与】群馬県安中市安中1-16-38", "url2": "https://www.kaigokensaku.mhlw.go.jp/10/index.php?action_kouhyou_detail_004_kani=true&JigyosyoCd=1071101107-00&ServiceCd=170&Type=search" }, "geometry": { "type": "Point", "coordinates": [ 138.885827, 36.322348793492083 ] } },
{ "type": "Feature", "properties": { "内容": "愛敬サービス【福祉用具貸与】群馬県安中市安中３５０５－１", "url2": "https://www.kaigokensaku.mhlw.go.jp/10/index.php?action_kouhyou_detail_004_kani=true&JigyosyoCd=1071100224-00&ServiceCd=170&Type=search" }, "geometry": { "type": "Point", "coordinates": [ 138.898089300000038, 36.330414799999936 ] } },
{ "type": "Feature", "properties": { "内容": "プロメディカル　株式会社【福祉用具貸与】群馬県みどり市笠懸町阿左美１８２２番地", "url2": "https://www.kaigokensaku.mhlw.go.jp/10/index.php?action_kouhyou_detail_004_kani=true&JigyosyoCd=1070300361-00&ServiceCd=170&Type=search" }, "geometry": { "type": "Point", "coordinates": [ 139.28628873594397, 36.408914298512641 ] } },
{ "type": "Feature", "properties": { "内容": "ＣＳＳ福祉用具レンタルサービス笠懸事業所【福祉用具貸与】群馬県みどり市笠懸町阿左美１３２１", "url2": "https://www.kaigokensaku.mhlw.go.jp/10/index.php?action_kouhyou_detail_004_kani=true&JigyosyoCd=1071201154-00&ServiceCd=170&Type=search" }, "geometry": { "type": "Point", "coordinates": [ 139.303745560713224, 36.389647908193581 ] } },
{ "type": "Feature", "properties": { "内容": "ニコットツール【福祉用具貸与】群馬県北群馬郡榛東村新井2435-32階", "url2": "https://www.kaigokensaku.mhlw.go.jp/10/index.php?action_kouhyou_detail_004_kani=true&JigyosyoCd=1072201088-00&ServiceCd=170&Type=search" }, "geometry": { "type": "Point", "coordinates": [ 138.9914043, 36.4244141 ] } },
{ "type": "Feature", "properties": { "内容": "株式会社アンティム【福祉用具貸与】群馬県北群馬郡吉岡町上野田1238", "url2": "https://www.kaigokensaku.mhlw.go.jp/10/index.php?action_kouhyou_detail_004_kani=true&JigyosyoCd=1070202385-00&ServiceCd=170&Type=search" }, "geometry": { "type": "Point", "coordinates": [ 138.986051, 36.4556988 ] } },
{ "type": "Feature", "properties": { "内容": "東洋ケアサービス株式会社【福祉用具貸与】群馬県北群馬郡吉岡町大久保582", "url2": "https://www.kaigokensaku.mhlw.go.jp/10/index.php?action_kouhyou_detail_004_kani=true&JigyosyoCd=1072200346-00&ServiceCd=170&Type=search" }, "geometry": { "type": "Point", "coordinates": [ 139.02021620000005, 36.4271894 ] } },
{ "type": "Feature", "properties": { "内容": "ウェルパートナー【福祉用具貸与】群馬県吾妻郡中之条町伊勢町942-3", "url2": "https://www.kaigokensaku.mhlw.go.jp/10/index.php?action_kouhyou_detail_004_kani=true&JigyosyoCd=1072601329-00&ServiceCd=170&Type=search" }, "geometry": { "type": "Point", "coordinates": [ 138.854256082803346, 36.587948554817423 ] } },
{ "type": "Feature", "properties": { "内容": "みずほヘルスケア【福祉用具貸与】群馬県利根郡昭和村糸井1223", "url2": "https://www.kaigokensaku.mhlw.go.jp/10/index.php?action_kouhyou_detail_004_kani=true&JigyosyoCd=1070600174-00&ServiceCd=170&Type=search" }, "geometry": { "type": "Point", "coordinates": [ 139.072401957233353, 36.640553536468367 ] } },
{ "type": "Feature", "properties": { "内容": "やさしいちから【福祉用具貸与】群馬県佐波郡玉村町斎田３１１ー１", "url2": "https://www.kaigokensaku.mhlw.go.jp/10/index.php?action_kouhyou_detail_004_kani=true&JigyosyoCd=1070404833-00&ServiceCd=170&Type=search" }, "geometry": { "type": "Point", "coordinates": [ 139.109407077270362, 36.311935983222241 ] } },
{ "type": "Feature", "properties": { "内容": "ハッピー介護レンタルサービス【福祉用具貸与】群馬県佐波郡玉村町大字上新田1882－1井野住宅４号棟", "url2": "https://www.kaigokensaku.mhlw.go.jp/10/index.php?action_kouhyou_detail_004_kani=true&JigyosyoCd=1072801010-00&ServiceCd=170&Type=search" }, "geometry": { "type": "Point", "coordinates": [ 139.101899877462756, 36.30175091488676 ] } },
{ "type": "Feature", "properties": { "内容": "有限会社　ウェルサポート・オギ【福祉用具貸与】群馬県佐波郡玉村町樋越172-3", "url2": "https://www.kaigokensaku.mhlw.go.jp/10/index.php?action_kouhyou_detail_004_kani=true&JigyosyoCd=1072800566-00&ServiceCd=170&Type=search" }, "geometry": { "type": "Point", "coordinates": [ 139.127309870651942, 36.320371188418633 ] } },
{ "type": "Feature", "properties": { "内容": "ライフサポート【福祉用具貸与】群馬県邑楽郡大泉町富士3-1-17", "url2": "https://www.kaigokensaku.mhlw.go.jp/10/index.php?action_kouhyou_detail_004_kani=true&JigyosyoCd=1073100834-00&ServiceCd=170&Type=search" }, "geometry": { "type": "Point", "coordinates": [ 139.410500206884734, 36.245388749439691 ] } }
]
}
