{
"type": "FeatureCollection",
"name": "geo_10_看護小規模多機能型居宅介護（複合型サービス）",
"crs": { "type": "name", "properties": { "name": "urn:ogc:def:crs:OGC:1.3:CRS84" } },
"features": [
{ "type": "Feature", "properties": { "内容": "こぐま舘【看護小規模多機能型居宅介護（複合型サービス）】群馬県前橋市日吉町二丁目８番地３", "url": "https://www.kaigokensaku.mhlw.go.jp/10/index.php?action_kouhyou_detail_004_kani=true&JigyosyoCd=1090100817-00&ServiceCd=&Type=search", "url2": "http://gunken.org" }, "geometry": { "type": "Point", "coordinates": [ 139.078493950926173, 36.397920243226451 ] } },
{ "type": "Feature", "properties": { "内容": "複合型サービス　玉まゆ【看護小規模多機能型居宅介護（複合型サービス）】群馬県高崎市下室田町965-1", "url": "https://www.kaigokensaku.mhlw.go.jp/10/index.php?action_kouhyou_detail_004_kani=true&JigyosyoCd=1090200559-00&ServiceCd=&Type=search", "url2": "http://www.harunaso.or.jp/carecenter/" }, "geometry": { "type": "Point", "coordinates": [ 138.881849906082152, 36.382421969156205 ] } },
{ "type": "Feature", "properties": { "内容": "看護・小規模多機能の家じゃんけんぽん金井淵【看護小規模多機能型居宅介護（複合型サービス）】群馬県高崎市金井淵町137-5", "url": "https://www.kaigokensaku.mhlw.go.jp/10/index.php?action_kouhyou_detail_004_kani=true&JigyosyoCd=1090200724-00&ServiceCd=&Type=search", "url2": "http://www.jankenpon.jp/" }, "geometry": { "type": "Point", "coordinates": [ 138.956870946265099, 36.349821868897763 ] } },
{ "type": "Feature", "properties": { "内容": "看護小規模多機能つむぎ【看護小規模多機能型居宅介護（複合型サービス）】群馬県高崎市上中居町1455-7看護小規模多機能つむぎ", "url": "https://www.kaigokensaku.mhlw.go.jp/10/index.php?action_kouhyou_detail_004_kani=true&JigyosyoCd=1090201318-00&ServiceCd=&Type=search", "url2": "http://www.harunacoop.jp" }, "geometry": { "type": "Point", "coordinates": [ 139.033149692065422, 36.325468794672446 ] } },
{ "type": "Feature", "properties": { "内容": "複合型サービスじゃんけんぽん観音寺【看護小規模多機能型居宅介護（複合型サービス）】群馬県高崎市棟高町220-1", "url": "https://www.kaigokensaku.mhlw.go.jp/10/index.php?action_kouhyou_detail_004_kani=true&JigyosyoCd=1090200658-00&ServiceCd=&Type=search", "url2": "http://www.jankenpon.jp" }, "geometry": { "type": "Point", "coordinates": [ 138.996567822137422, 36.38855268310887 ] } },
{ "type": "Feature", "properties": { "内容": "看護小規模多機能型居宅介護ローズヴィレッジ【看護小規模多機能型居宅介護（複合型サービス）】群馬県桐生市新里町新川町584番地３", "url": "https://www.kaigokensaku.mhlw.go.jp/10/index.php?action_kouhyou_detail_004_kani=true&JigyosyoCd=1090300318-00&ServiceCd=&Type=search", "url2": "http//wwwgrand-love.co.jp" }, "geometry": { "type": "Point", "coordinates": [ 139.264719099999979, 36.418107 ] } },
{ "type": "Feature", "properties": { "内容": "みんなの家つつみ【看護小規模多機能型居宅介護（複合型サービス）】群馬県桐生市堤町２丁目１１－３", "url": "https://www.kaigokensaku.mhlw.go.jp/10/index.php?action_kouhyou_detail_004_kani=true&JigyosyoCd=1090300342-00&ServiceCd=&Type=search", "url2": "http://www.kyouritsu.org/kaigojigyo.htm" }, "geometry": { "type": "Point", "coordinates": [ 139.326065699999958, 36.4175643 ] } },
{ "type": "Feature", "properties": { "内容": "複合型サービスはなき　サテライト国定　令和の家【看護小規模多機能型居宅介護（複合型サービス）】群馬県伊勢崎市国定町2-1969-8", "url": "https://www.kaigokensaku.mhlw.go.jp/10/index.php?action_kouhyou_detail_004_kani=true&JigyosyoCd=1090400407-00&ServiceCd=&Type=search", "url2": "http://hanaki2012.inho/" }, "geometry": { "type": "Point", "coordinates": [ 139.24119174959867, 36.365546162733267 ] } },
{ "type": "Feature", "properties": { "内容": "複合型サービスはなき【看護小規模多機能型居宅介護（複合型サービス）】群馬県伊勢崎市田部井町一丁目１６３９-2", "url": "https://www.kaigokensaku.mhlw.go.jp/10/index.php?action_kouhyou_detail_004_kani=true&JigyosyoCd=1090400217-00&ServiceCd=&Type=search", "url2": "//www.hanaki2012.info" }, "geometry": { "type": "Point", "coordinates": [ 139.251414587696928, 36.35765053889947 ] } },
{ "type": "Feature", "properties": { "内容": "在宅包括サービスおおいど【看護小規模多機能型居宅介護（複合型サービス）】群馬県伊勢崎市東小保方町4008-1", "url": "https://www.kaigokensaku.mhlw.go.jp/10/index.php?action_kouhyou_detail_004_kani=true&JigyosyoCd=1090400548-00&ServiceCd=&Type=search", "url2": "http://www.ooido.net/" }, "geometry": { "type": "Point", "coordinates": [ 139.251199500000013, 36.3278988 ] } },
{ "type": "Feature", "properties": { "内容": "看護小規模多機能ホームひまわり【看護小規模多機能型居宅介護（複合型サービス）】群馬県太田市台之郷町３０８番地２", "url": "https://www.kaigokensaku.mhlw.go.jp/10/index.php?action_kouhyou_detail_004_kani=true&JigyosyoCd=1090500586-00&ServiceCd=&Type=search", "url2": "ota-himawari@kind.ocn.ne.jp" }, "geometry": { "type": "Point", "coordinates": [ 139.415735876878898, 36.304493248164043 ] } },
{ "type": "Feature", "properties": { "内容": "看護小規模多機能　利楽【看護小規模多機能型居宅介護（複合型サービス）】群馬県太田市高瀬町211番地1", "url": "https://www.kaigokensaku.mhlw.go.jp/10/index.php?action_kouhyou_detail_004_kani=true&JigyosyoCd=1090500594-00&ServiceCd=&Type=search", "url2": "https://necessary.jp" }, "geometry": { "type": "Point", "coordinates": [ 139.422189300000014, 36.3244024 ] } },
{ "type": "Feature", "properties": { "内容": "ナーシングケア本町通り【看護小規模多機能型居宅介護（複合型サービス）】群馬県沼田市上之町１１４９", "url": "https://www.kaigokensaku.mhlw.go.jp/10/index.php?action_kouhyou_detail_004_kani=true&JigyosyoCd=1090600220-00&ServiceCd=&Type=search", "url2": "https://kijokai.or.jp/nursingcare-honchodori/" }, "geometry": { "type": "Point", "coordinates": [ 139.046606013275436, 36.644913381829305 ] } },
{ "type": "Feature", "properties": { "内容": "看護小規模多機能ホームみょうぎ【看護小規模多機能型居宅介護（複合型サービス）】群馬県富岡市妙義町上高田1207-2", "url": "https://www.kaigokensaku.mhlw.go.jp/10/index.php?action_kouhyou_detail_004_kani=true&JigyosyoCd=1091000057-00&ServiceCd=&Type=search", "url2": "http://www.myogikai.jp" }, "geometry": { "type": "Point", "coordinates": [ 138.815851400000014, 36.28672 ] } },
{ "type": "Feature", "properties": { "内容": "看護小規模多機能型居宅介護OLA【看護小規模多機能型居宅介護（複合型サービス）】群馬県みどり市笠懸町阿左美3079-1", "url": "https://www.kaigokensaku.mhlw.go.jp/10/index.php?action_kouhyou_detail_004_kani=true&JigyosyoCd=1091200129-00&ServiceCd=&Type=search", "url2": null }, "geometry": { "type": "Point", "coordinates": [ 139.31380630000001, 36.3944589 ] } }
]
}
