{
"type": "FeatureCollection",
"name": "geo_10_特定施設入居者生活介護（有料老人ホーム）",
"crs": { "type": "name", "properties": { "name": "urn:ogc:def:crs:OGC:1.3:CRS84" } },
"features": [
{ "type": "Feature", "properties": { "内容": "ロングライフ前橋【特定施設入居者生活介護（有料老人ホーム）】群馬県前橋市下沖町125番地", "url": "https://www.kaigokensaku.mhlw.go.jp/10/index.php?action_kouhyou_detail_004_kani=true&JigyosyoCd=1070106750-00&ServiceCd=331&Type=search", "url2": "www.l-l-maebashi.com/" }, "geometry": { "type": "Point", "coordinates": [ 139.090725199999952, 36.399156 ] } },
{ "type": "Feature", "properties": { "内容": "萬葉の華【特定施設入居者生活介護（有料老人ホーム）】群馬県前橋市下大島町538-11", "url": "https://www.kaigokensaku.mhlw.go.jp/10/index.php?action_kouhyou_detail_004_kani=true&JigyosyoCd=1070107485-00&ServiceCd=331&Type=search", "url2": null }, "geometry": { "type": "Point", "coordinates": [ 139.114562744618866, 36.36357912027696 ] } },
{ "type": "Feature", "properties": { "内容": "ミモザ前橋【特定施設入居者生活介護（有料老人ホーム）】群馬県前橋市江田町363－4ミモザ前橋", "url": "https://www.kaigokensaku.mhlw.go.jp/10/index.php?action_kouhyou_detail_004_kani=true&JigyosyoCd=1070108582-00&ServiceCd=331&Type=search", "url2": "http://mimoza-care.com" }, "geometry": { "type": "Point", "coordinates": [ 139.040049900000014, 36.3709319 ] } },
{ "type": "Feature", "properties": { "内容": "グリーンライフ中央前橋【特定施設入居者生活介護（有料老人ホーム）】群馬県前橋市三河町1-6-3", "url": "https://www.kaigokensaku.mhlw.go.jp/10/index.php?action_kouhyou_detail_004_kani=true&JigyosyoCd=1070108178-00&ServiceCd=331&Type=search", "url2": "http://www.greenlife-inc.co.jp" }, "geometry": { "type": "Point", "coordinates": [ 139.074724300000014, 36.390365 ] } },
{ "type": "Feature", "properties": { "内容": "介護付有料老人ホーム　山王レジデンス【特定施設入居者生活介護（有料老人ホーム）】群馬県前橋市山王町123番地", "url": "https://www.kaigokensaku.mhlw.go.jp/10/index.php?action_kouhyou_detail_004_kani=true&JigyosyoCd=1070103757-00&ServiceCd=331&Type=search", "url2": "http://www.sannou-r.jp/" }, "geometry": { "type": "Point", "coordinates": [ 139.124101699999983, 36.3504761 ] } },
{ "type": "Feature", "properties": { "内容": "介護付有料老人ホームグランポルト前橋【特定施設入居者生活介護（有料老人ホーム）】群馬県前橋市昭和町3丁目11番18号", "url": "https://www.kaigokensaku.mhlw.go.jp/10/index.php?action_kouhyou_detail_004_kani=true&JigyosyoCd=1070106610-00&ServiceCd=331&Type=search", "url2": "https://hotakakai.or.jp" }, "geometry": { "type": "Point", "coordinates": [ 139.062465592034869, 36.405565207807058 ] } },
{ "type": "Feature", "properties": { "内容": "介護付有料老人ホームまえばし上泉の里【特定施設入居者生活介護（有料老人ホーム）】群馬県前橋市上泉町1870-1", "url": "https://www.kaigokensaku.mhlw.go.jp/10/index.php?action_kouhyou_detail_004_kani=true&JigyosyoCd=1070101918-00&ServiceCd=331&Type=search", "url2": "https//www.hotakakai.or.jp" }, "geometry": { "type": "Point", "coordinates": [ 139.120859399999972, 36.4084417 ] } },
{ "type": "Feature", "properties": { "内容": "ヴィラ清里【特定施設入居者生活介護（有料老人ホーム）】群馬県前橋市青梨子町４５８番地１", "url": "https://www.kaigokensaku.mhlw.go.jp/10/index.php?action_kouhyou_detail_004_kani=true&JigyosyoCd=1070103740-00&ServiceCd=331&Type=search", "url2": "http://www.villa-kiyosato.jp" }, "geometry": { "type": "Point", "coordinates": [ 139.013289699999973, 36.4170404 ] } },
{ "type": "Feature", "properties": { "内容": "介護付有料老人ホーム　グランヴィル前橋【特定施設入居者生活介護（有料老人ホーム）】群馬県前橋市千代田町3丁目3－20グランヴィル前橋", "url": "https://www.kaigokensaku.mhlw.go.jp/10/index.php?action_kouhyou_detail_004_kani=true&JigyosyoCd=1070103146-00&ServiceCd=331&Type=search", "url2": "http://www.chiyoda-gv.co.jp" }, "geometry": { "type": "Point", "coordinates": [ 139.06961350000006, 36.3949949 ] } },
{ "type": "Feature", "properties": { "内容": "介護付有料老人ホームサンヒルズ総社【特定施設入居者生活介護（有料老人ホーム）】群馬県前橋市総社町総社２７２４番地１", "url": "https://www.kaigokensaku.mhlw.go.jp/10/index.php?action_kouhyou_detail_004_kani=true&JigyosyoCd=1070103492-00&ServiceCd=331&Type=search", "url2": "http://www.yokokai.or.jp" }, "geometry": { "type": "Point", "coordinates": [ 139.037952300000029, 36.3986435 ] } },
{ "type": "Feature", "properties": { "内容": "藤和の奏【特定施設入居者生活介護（有料老人ホーム）】群馬県前橋市朝日町3-21-26", "url": "https://www.kaigokensaku.mhlw.go.jp/10/index.php?action_kouhyou_detail_004_kani=true&JigyosyoCd=1070108160-00&ServiceCd=331&Type=search", "url2": "https:caresup.co.jp/touwa-no-kanade/" }, "geometry": { "type": "Point", "coordinates": [ 139.087601137210072, 36.3848288685586 ] } },
{ "type": "Feature", "properties": { "内容": "藤和の杜【特定施設入居者生活介護（有料老人ホーム）】群馬県前橋市堀之下町450-1", "url": "https://www.kaigokensaku.mhlw.go.jp/10/index.php?action_kouhyou_detail_004_kani=true&JigyosyoCd=1070103823-00&ServiceCd=331&Type=search", "url2": "http://towanomori.net/" }, "geometry": { "type": "Point", "coordinates": [ 139.126525500000071, 36.3936438 ] } },
{ "type": "Feature", "properties": { "内容": "ベストケアレジデンス　悠仁【特定施設入居者生活介護（有料老人ホーム）】群馬県前橋市上新田町950", "url": "https://www.kaigokensaku.mhlw.go.jp/10/index.php?action_kouhyou_detail_004_kani=true&JigyosyoCd=1070103773-00&ServiceCd=331&Type=search", "url2": "http://bestcaregroup.jp" }, "geometry": { "type": "Point", "coordinates": [ 139.064812, 36.3653099 ] } },
{ "type": "Feature", "properties": { "内容": "あすなろ高崎【特定施設入居者生活介護（有料老人ホーム）】群馬県高崎市東国分町215-1", "url": "https://www.kaigokensaku.mhlw.go.jp/10/index.php?action_kouhyou_detail_004_kani=true&JigyosyoCd=1070207970-00&ServiceCd=331&Type=search", "url2": null }, "geometry": { "type": "Point", "coordinates": [ 139.025719406745907, 36.395383546913386 ] } },
{ "type": "Feature", "properties": { "内容": "介護付き有料老人ホーム　ふくふくピース【特定施設入居者生活介護（有料老人ホーム）】群馬県高崎市下佐野町752-1介護付き有料老人ホーム　ふくふくピース", "url": "https://www.kaigokensaku.mhlw.go.jp/10/index.php?action_kouhyou_detail_004_kani=true&JigyosyoCd=1070207095-00&ServiceCd=331&Type=search", "url2": "http://carepeace.net" }, "geometry": { "type": "Point", "coordinates": [ 139.028975800000012, 36.2997662 ] } },
{ "type": "Feature", "properties": { "内容": "アットホーム尚久吉井【特定施設入居者生活介護（有料老人ホーム）】群馬県高崎市吉井町下長根336-1", "url": "https://www.kaigokensaku.mhlw.go.jp/10/index.php?action_kouhyou_detail_004_kani=true&JigyosyoCd=1070206584-00&ServiceCd=331&Type=search", "url2": "http://mutodesign.com/hosoya/" }, "geometry": { "type": "Point", "coordinates": [ 138.975824500000044, 36.2507258 ] } },
{ "type": "Feature", "properties": { "内容": "アットホーム尚久吉井公園前【特定施設入居者生活介護（有料老人ホーム）】群馬県高崎市吉井町下長根346-1", "url": "https://www.kaigokensaku.mhlw.go.jp/10/index.php?action_kouhyou_detail_004_kani=true&JigyosyoCd=1070207814-00&ServiceCd=331&Type=search", "url2": "http://www.hosoya.or.jp" }, "geometry": { "type": "Point", "coordinates": [ 138.97624749683672, 36.251541456713433 ] } },
{ "type": "Feature", "properties": { "内容": "藤和の響【特定施設入居者生活介護（有料老人ホーム）】群馬県高崎市吉井町岩崎2222番地", "url": "https://www.kaigokensaku.mhlw.go.jp/10/index.php?action_kouhyou_detail_004_kani=true&JigyosyoCd=1070206527-00&ServiceCd=331&Type=search", "url2": "http://www.caresup.co.jp/touwa-no-hibiki" }, "geometry": { "type": "Point", "coordinates": [ 138.996348234515381, 36.28302362273017 ] } },
{ "type": "Feature", "properties": { "内容": "ウッディタウン高崎南【特定施設入居者生活介護（有料老人ホーム）】群馬県高崎市新町1945-1", "url": "https://www.kaigokensaku.mhlw.go.jp/10/index.php?action_kouhyou_detail_004_kani=true&JigyosyoCd=1070202666-00&ServiceCd=331&Type=search", "url2": "http://woodytown.jp" }, "geometry": { "type": "Point", "coordinates": [ 139.10073, 36.2624101 ] } },
{ "type": "Feature", "properties": { "内容": "介護付有料老人ホーム　いきいき【特定施設入居者生活介護（有料老人ホーム）】群馬県高崎市西島町木の宮376-4", "url": "https://www.kaigokensaku.mhlw.go.jp/10/index.php?action_kouhyou_detail_004_kani=true&JigyosyoCd=1070206956-00&ServiceCd=331&Type=search", "url2": "http://www.komai-hp.com" }, "geometry": { "type": "Point", "coordinates": [ 139.04988722453686, 36.339551325162333 ] } },
{ "type": "Feature", "properties": { "内容": "有料老人ホームマチュアホーム穏和の園【特定施設入居者生活介護（有料老人ホーム）】群馬県高崎市中室田町２１１２番地", "url": "https://www.kaigokensaku.mhlw.go.jp/10/index.php?action_kouhyou_detail_004_kani=true&JigyosyoCd=1072100280-00&ServiceCd=331&Type=search", "url2": "http://www.sinseikai.org/" }, "geometry": { "type": "Point", "coordinates": [ 138.860167400000023, 36.3947431 ] } },
{ "type": "Feature", "properties": { "内容": "有料カルチャーホーム　恵泉園【特定施設入居者生活介護（有料老人ホーム）】群馬県高崎市中室田町2254番地2", "url": "https://www.kaigokensaku.mhlw.go.jp/10/index.php?action_kouhyou_detail_004_kani=true&JigyosyoCd=1072100843-00&ServiceCd=331&Type=search", "url2": "https://www.sinseikai.org/keisen/" }, "geometry": { "type": "Point", "coordinates": [ 138.860983663893165, 36.397813714845391 ] } },
{ "type": "Feature", "properties": { "内容": "有料老人ホーム　ケアホーム新生の園【特定施設入居者生活介護（有料老人ホーム）】群馬県高崎市中室田町２２５４", "url": "https://www.kaigokensaku.mhlw.go.jp/10/index.php?action_kouhyou_detail_004_kani=true&JigyosyoCd=1072100298-00&ServiceCd=331&Type=search", "url2": "http://www.sinseikai.org" }, "geometry": { "type": "Point", "coordinates": [ 138.861200599999961, 36.3974094 ] } },
{ "type": "Feature", "properties": { "内容": "介護付有料老人ホーム京目【特定施設入居者生活介護（有料老人ホーム）】群馬県高崎市萩原町370-1", "url": "https://www.kaigokensaku.mhlw.go.jp/10/index.php?action_kouhyou_detail_004_kani=true&JigyosyoCd=1070206931-00&ServiceCd=331&Type=search", "url2": "http://www.fujikenn.co.jp" }, "geometry": { "type": "Point", "coordinates": [ 139.068479499999967, 36.341224 ] } },
{ "type": "Feature", "properties": { "内容": "介護付有料老人ホーム　キートス八千代【特定施設入居者生活介護（有料老人ホーム）】群馬県高崎市八千代町1-11-17キートス八千代", "url": "https://www.kaigokensaku.mhlw.go.jp/10/index.php?action_kouhyou_detail_004_kani=true&JigyosyoCd=1070206378-00&ServiceCd=331&Type=search", "url2": "http://yumitec.jp" }, "geometry": { "type": "Point", "coordinates": [ 138.992302699999982, 36.3224725 ] } },
{ "type": "Feature", "properties": { "内容": "グランツようざん【特定施設入居者生活介護（有料老人ホーム）】群馬県高崎市八幡原町1009-35", "url": "https://www.kaigokensaku.mhlw.go.jp/10/index.php?action_kouhyou_detail_004_kani=true&JigyosyoCd=1070206592-00&ServiceCd=331&Type=search", "url2": "http://www.glanz43.com/" }, "geometry": { "type": "Point", "coordinates": [ 139.090864604893426, 36.297247408329604 ] } },
{ "type": "Feature", "properties": { "内容": "ベルジ箕輪【特定施設入居者生活介護（有料老人ホーム）】群馬県高崎市箕郷町上芝839-4", "url": "https://www.kaigokensaku.mhlw.go.jp/10/index.php?action_kouhyou_detail_004_kani=true&JigyosyoCd=1072100058-00&ServiceCd=331&Type=search", "url2": "https://www.e-verde.co.jp" }, "geometry": { "type": "Point", "coordinates": [ 138.959578299999947, 36.3852292 ] } },
{ "type": "Feature", "properties": { "内容": "介護付き有料老人ホームグラシアようざん【特定施設入居者生活介護（有料老人ホーム）】群馬県高崎市綿貫町82-1", "url": "https://www.kaigokensaku.mhlw.go.jp/10/index.php?action_kouhyou_detail_004_kani=true&JigyosyoCd=1070207624-00&ServiceCd=331&Type=search", "url2": "http://gracia43.com/" }, "geometry": { "type": "Point", "coordinates": [ 139.0713906, 36.3139598 ] } },
{ "type": "Feature", "properties": { "内容": "介護付有料老人ホーム　さんさん【特定施設入居者生活介護（有料老人ホーム）】群馬県高崎市矢島町20", "url": "https://www.kaigokensaku.mhlw.go.jp/10/index.php?action_kouhyou_detail_004_kani=true&JigyosyoCd=1070206964-00&ServiceCd=331&Type=search", "url2": "https://komai-hp.com/" }, "geometry": { "type": "Point", "coordinates": [ 139.048673600000029, 36.3378089 ] } },
{ "type": "Feature", "properties": { "内容": "介護付有料老人ホーム　ベルジ高崎【特定施設入居者生活介護（有料老人ホーム）】群馬県高崎市問屋町１－７－３アムールタウン高崎", "url": "https://www.kaigokensaku.mhlw.go.jp/10/index.php?action_kouhyou_detail_004_kani=true&JigyosyoCd=1070201841-00&ServiceCd=331&Type=search", "url2": "http://takumikk.co.jp" }, "geometry": { "type": "Point", "coordinates": [ 139.008831, 36.3499321 ] } },
{ "type": "Feature", "properties": { "内容": "PDビレッジなかお【特定施設入居者生活介護（有料老人ホーム）】群馬県高崎市中尾町420番地", "url": "https://www.kaigokensaku.mhlw.go.jp/10/index.php?action_kouhyou_detail_004_kani=true&JigyosyoCd=1070208101-00&ServiceCd=331&Type=search", "url2": "https://earth-care.jp/" }, "geometry": { "type": "Point", "coordinates": [ 139.0232392, 36.3704985 ] } },
{ "type": "Feature", "properties": { "内容": "グッドライフ箕郷町【特定施設入居者生活介護（有料老人ホーム）】群馬県高崎市箕郷町和田山８７－１１", "url": "https://www.kaigokensaku.mhlw.go.jp/10/index.php?action_kouhyou_detail_004_kani=true&JigyosyoCd=1070203219-00&ServiceCd=331&Type=search", "url2": "http://www.kaigo-next.com/" }, "geometry": { "type": "Point", "coordinates": [ 138.954231599999957, 36.3806076 ] } },
{ "type": "Feature", "properties": { "内容": "スマイリングホームメディス桐生Ⅰ番館【特定施設入居者生活介護（有料老人ホーム）】群馬県桐生市相生町３－１７６－８", "url": "https://www.kaigokensaku.mhlw.go.jp/10/index.php?action_kouhyou_detail_004_kani=true&JigyosyoCd=1070302532-00&ServiceCd=331&Type=search", "url2": "http://www.medis-corp.co.jp/plant/kiryu1/index.html" }, "geometry": { "type": "Point", "coordinates": [ 139.302895900000067, 36.4179886 ] } },
{ "type": "Feature", "properties": { "内容": "ファミリーホームコスモス相老【特定施設入居者生活介護（有料老人ホーム）】群馬県桐生市相生町５丁目５７２－１", "url": "https://www.kaigokensaku.mhlw.go.jp/10/index.php?action_kouhyou_detail_004_kani=true&JigyosyoCd=1070301450-00&ServiceCd=331&Type=search", "url2": "https://www.carecosmos.co.jp/" }, "geometry": { "type": "Point", "coordinates": [ 139.291152900000043, 36.4099004 ] } },
{ "type": "Feature", "properties": { "内容": "介護付有料老人ホームつむぎ【特定施設入居者生活介護（有料老人ホーム）】群馬県伊勢崎市境上武士898番地1原病院南新館3階", "url": "https://www.kaigokensaku.mhlw.go.jp/10/index.php?action_kouhyou_detail_004_kani=true&JigyosyoCd=1070404445-00&ServiceCd=331&Type=search", "url2": "tsumugi@hara-hospital.jp" }, "geometry": { "type": "Point", "coordinates": [ 139.2301866, 36.2802685 ] } },
{ "type": "Feature", "properties": { "内容": "介護付有料老人ホーム　あずまライフライン【特定施設入居者生活介護（有料老人ホーム）】群馬県伊勢崎市東町2255-3", "url": "https://www.kaigokensaku.mhlw.go.jp/10/index.php?action_kouhyou_detail_004_kani=true&JigyosyoCd=1070401862-00&ServiceCd=331&Type=search", "url2": "http://lifeline.chiharuya.com/" }, "geometry": { "type": "Point", "coordinates": [ 139.249460499999941, 36.3436172 ] } },
{ "type": "Feature", "properties": { "内容": "ラポール伊勢崎【特定施設入居者生活介護（有料老人ホーム）】群馬県伊勢崎市美茂呂町4512-1", "url": "https://www.kaigokensaku.mhlw.go.jp/10/index.php?action_kouhyou_detail_004_kani=true&JigyosyoCd=1070404221-00&ServiceCd=331&Type=search", "url2": "https//rapport-isesaki.co.jp" }, "geometry": { "type": "Point", "coordinates": [ 139.2068167, 36.2967021 ] } },
{ "type": "Feature", "properties": { "内容": "介護付有料老人ホーム　銘仙の家【特定施設入居者生活介護（有料老人ホーム）】群馬県伊勢崎市平和町19-10高齢者複合施設銘仙の家", "url": "https://www.kaigokensaku.mhlw.go.jp/10/index.php?action_kouhyou_detail_004_kani=true&JigyosyoCd=1070401888-00&ServiceCd=331&Type=search", "url2": "http://www.house-meisen.jp" }, "geometry": { "type": "Point", "coordinates": [ 139.202169, 36.3228377 ] } },
{ "type": "Feature", "properties": { "内容": "藤和の苑【特定施設入居者生活介護（有料老人ホーム）】群馬県伊勢崎市連取元町273-3", "url": "https://www.kaigokensaku.mhlw.go.jp/10/index.php?action_kouhyou_detail_004_kani=true&JigyosyoCd=1070404908-00&ServiceCd=331&Type=search", "url2": "http://caresup.co.jp/towanosono/" }, "geometry": { "type": "Point", "coordinates": [ 139.1796756, 36.310353 ] } },
{ "type": "Feature", "properties": { "内容": "藤和の郷【特定施設入居者生活介護（有料老人ホーム）】群馬県伊勢崎市連取町3039-8", "url": "https://www.kaigokensaku.mhlw.go.jp/10/index.php?action_kouhyou_detail_004_kani=true&JigyosyoCd=1070404700-00&ServiceCd=331&Type=search", "url2": "http://caresup.co.jp/towanosato/" }, "geometry": { "type": "Point", "coordinates": [ 139.1726285, 36.3226318 ] } },
{ "type": "Feature", "properties": { "内容": "介護付有料老人ホームコスモス細谷【特定施設入居者生活介護（有料老人ホーム）】群馬県太田市細谷町1343-1介護付有料老人ホームコスモス細谷", "url": "https://www.kaigokensaku.mhlw.go.jp/10/index.php?action_kouhyou_detail_004_kani=true&JigyosyoCd=1090500263-00&ServiceCd=331&Type=search", "url2": "http://wwwcarecosmos.co.jp" }, "geometry": { "type": "Point", "coordinates": [ 139.3488573, 36.276541 ] } },
{ "type": "Feature", "properties": { "内容": "介護付有料老人ホームふる里【特定施設入居者生活介護（有料老人ホーム）】群馬県太田市只上町1319-6介護事業所ふる里", "url": "https://www.kaigokensaku.mhlw.go.jp/10/index.php?action_kouhyou_detail_004_kani=true&JigyosyoCd=1090500156-00&ServiceCd=331&Type=search", "url2": "http://furusatohome.com" }, "geometry": { "type": "Point", "coordinates": [ 139.399990800000012, 36.3340355 ] } },
{ "type": "Feature", "properties": { "内容": "有料老人ホーム　サニーライフ群馬【特定施設入居者生活介護（有料老人ホーム）】群馬県太田市高林南町808-6", "url": "https://www.kaigokensaku.mhlw.go.jp/10/index.php?action_kouhyou_detail_004_kani=true&JigyosyoCd=1070504244-00&ServiceCd=331&Type=search", "url2": "https://www.sunnylife-group.co.jp/" }, "geometry": { "type": "Point", "coordinates": [ 139.370138793254085, 36.259047443961649 ] } },
{ "type": "Feature", "properties": { "内容": "介護付有料老人ホーム　桜の里【特定施設入居者生活介護（有料老人ホーム）】群馬県太田市熊野町38－75", "url": "https://www.kaigokensaku.mhlw.go.jp/10/index.php?action_kouhyou_detail_004_kani=true&JigyosyoCd=1070502636-00&ServiceCd=331&Type=search", "url2": "http://www.fujigaoka-hosp.jp" }, "geometry": { "type": "Point", "coordinates": [ 139.381783422615058, 36.308483499849295 ] } },
{ "type": "Feature", "properties": { "内容": "介護付有料老人ホームラッパーズ太田【特定施設入居者生活介護（有料老人ホーム）】群馬県太田市高林北町1129-1", "url": "https://www.kaigokensaku.mhlw.go.jp/10/index.php?action_kouhyou_detail_004_kani=true&JigyosyoCd=1070501760-00&ServiceCd=331&Type=search", "url2": "http://www.rappers-ota.jp" }, "geometry": { "type": "Point", "coordinates": [ 139.369997199999943, 36.263730500000015 ] } },
{ "type": "Feature", "properties": { "内容": "介護付き有料老人ホームガーデンハウスはぴねす【特定施設入居者生活介護（有料老人ホーム）】群馬県太田市西新町23番地2介護付き有料老人ホームガーデンハウスはぴねす", "url": "https://www.kaigokensaku.mhlw.go.jp/10/index.php?action_kouhyou_detail_004_kani=true&JigyosyoCd=1070503931-00&ServiceCd=331&Type=search", "url2": "http://happiness-kaigo.com" }, "geometry": { "type": "Point", "coordinates": [ 139.346997958895486, 36.268948018735841 ] } },
{ "type": "Feature", "properties": { "内容": "スマイリングホームメディス　太田【特定施設入居者生活介護（有料老人ホーム）】群馬県太田市東新町　72－9スマイリングホームメディス　太田", "url": "https://www.kaigokensaku.mhlw.go.jp/10/index.php?action_kouhyou_detail_004_kani=true&JigyosyoCd=1070502545-00&ServiceCd=331&Type=search", "url2": "http://www.greenlife-inc.co.jp/facilities/detail/medisota/profile/" }, "geometry": { "type": "Point", "coordinates": [ 139.405809200000022, 36.3249216 ] } },
{ "type": "Feature", "properties": { "内容": "介護付有料老人ホーム　俊男の里【特定施設入居者生活介護（有料老人ホーム）】群馬県太田市南矢島町９２街区1番", "url": "https://www.kaigokensaku.mhlw.go.jp/10/index.php?action_kouhyou_detail_004_kani=true&JigyosyoCd=1070501448-00&ServiceCd=331&Type=search", "url2": "http://www.toshio-no-sato.com/" }, "geometry": { "type": "Point", "coordinates": [ 139.379773022892806, 36.261445974397503 ] } },
{ "type": "Feature", "properties": { "内容": "太田駅前ケアパークそよ風【特定施設入居者生活介護（有料老人ホーム）】群馬県太田市浜町6-20", "url": "https://www.kaigokensaku.mhlw.go.jp/10/index.php?action_kouhyou_detail_004_kani=true&JigyosyoCd=1070501877-00&ServiceCd=331&Type=search", "url2": "https://www.sykz.co.jp/shisetsu/188" }, "geometry": { "type": "Point", "coordinates": [ 139.376148400000034, 36.2938942 ] } },
{ "type": "Feature", "properties": { "内容": "スマイリングホームメディス藪塚【特定施設入居者生活介護（有料老人ホーム）】群馬県太田市六千石町１１６－２７", "url": "https://www.kaigokensaku.mhlw.go.jp/10/index.php?action_kouhyou_detail_004_kani=true&JigyosyoCd=1070502537-00&ServiceCd=331&Type=search", "url2": "http：//www.greenlife-inc.co.jp/" }, "geometry": { "type": "Point", "coordinates": [ 139.286535100000037, 36.3381801 ] } },
{ "type": "Feature", "properties": { "内容": "介護付有料老人ホーム　りきゅう【特定施設入居者生活介護（有料老人ホーム）】群馬県太田市六千石町59", "url": "https://www.kaigokensaku.mhlw.go.jp/10/index.php?action_kouhyou_detail_004_kani=true&JigyosyoCd=1070503410-00&ServiceCd=331&Type=search", "url2": "http://www.koaikai.jp" }, "geometry": { "type": "Point", "coordinates": [ 139.288441499790679, 36.335399605676521 ] } },
{ "type": "Feature", "properties": { "内容": "シニアグランドホーム　ブルーメンハイム・トーホー【特定施設入居者生活介護（有料老人ホーム）】群馬県太田市藪塚町3446-1", "url": "https://www.kaigokensaku.mhlw.go.jp/10/index.php?action_kouhyou_detail_004_kani=true&JigyosyoCd=1070501976-00&ServiceCd=331&Type=search", "url2": "http://www.blumen.jp/" }, "geometry": { "type": "Point", "coordinates": [ 139.321731099999965, 36.3661221 ] } },
{ "type": "Feature", "properties": { "内容": "みずき館林【特定施設入居者生活介護（有料老人ホーム）】群馬県館林市高根町1713番地1", "url": "https://www.kaigokensaku.mhlw.go.jp/10/index.php?action_kouhyou_detail_004_kani=true&JigyosyoCd=1070700529-00&ServiceCd=331&Type=search", "url2": "https://www.tbcss.co.jp/mizuki_tatebayashi.php" }, "geometry": { "type": "Point", "coordinates": [ 139.519058200000046, 36.258723400000015 ] } },
{ "type": "Feature", "properties": { "内容": "介護付有料老人ホーム　ResidenceofHope館林【特定施設入居者生活介護（有料老人ホーム）】群馬県館林市緑町1-2-5", "url": "https://www.kaigokensaku.mhlw.go.jp/10/index.php?action_kouhyou_detail_004_kani=true&JigyosyoCd=1070701303-00&ServiceCd=331&Type=search", "url2": "https://res.hopetatebayashi.co.jp/" }, "geometry": { "type": "Point", "coordinates": [ 139.531874300000027, 36.2411904 ] } },
{ "type": "Feature", "properties": { "内容": "センチュリーシルバー館林【特定施設入居者生活介護（有料老人ホーム）】群馬県館林市松原１－１１－１", "url": "https://www.kaigokensaku.mhlw.go.jp/10/index.php?action_kouhyou_detail_004_kani=true&JigyosyoCd=1070700164-00&ServiceCd=331&Type=search", "url2": "http://www.centurysilver.jp" }, "geometry": { "type": "Point", "coordinates": [ 139.536935, 36.2418515 ] } },
{ "type": "Feature", "properties": { "内容": "ナーシングホーム白井城【特定施設入居者生活介護（有料老人ホーム）】群馬県渋川市白井581-1", "url": "https://www.kaigokensaku.mhlw.go.jp/10/index.php?action_kouhyou_detail_004_kani=true&JigyosyoCd=1072200080-00&ServiceCd=331&Type=search", "url2": "http://shionnosato.jp/" }, "geometry": { "type": "Point", "coordinates": [ 139.01138830000005, 36.508479799999989 ] } },
{ "type": "Feature", "properties": { "内容": "スマイリングホーム　メディス藤岡【特定施設入居者生活介護（有料老人ホーム）】群馬県藤岡市小林429-5", "url": "https://www.kaigokensaku.mhlw.go.jp/10/index.php?action_kouhyou_detail_004_kani=true&JigyosyoCd=1070901051-00&ServiceCd=331&Type=search", "url2": "http://www.greenlife-inc.co.jp/facility/medis_fujioka/" }, "geometry": { "type": "Point", "coordinates": [ 139.0868544, 36.2439836 ] } },
{ "type": "Feature", "properties": { "内容": "アットホーム尚久上大塚【特定施設入居者生活介護（有料老人ホーム）】群馬県藤岡市上大塚437番地の１アットホーム尚久上大塚", "url": "https://www.kaigokensaku.mhlw.go.jp/10/index.php?action_kouhyou_detail_004_kani=true&JigyosyoCd=1070901572-00&ServiceCd=331&Type=search", "url2": "http://hosoya.or.jp" }, "geometry": { "type": "Point", "coordinates": [ 139.059042799999986, 36.2406636 ] } },
{ "type": "Feature", "properties": { "内容": "妙義れんげの里【特定施設入居者生活介護（有料老人ホーム）】群馬県富岡市妙義町下高田1868番地", "url": "https://www.kaigokensaku.mhlw.go.jp/10/index.php?action_kouhyou_detail_004_kani=true&JigyosyoCd=1071001117-00&ServiceCd=331&Type=search", "url2": "http://www.hosoya.or.jp" }, "geometry": { "type": "Point", "coordinates": [ 138.8249353, 36.2823889 ] } },
{ "type": "Feature", "properties": { "内容": "介護付き有料老人ホーム　わらべうた　宮崎【特定施設入居者生活介護（有料老人ホーム）】群馬県富岡市宮崎429-1", "url": "https://www.kaigokensaku.mhlw.go.jp/10/index.php?action_kouhyou_detail_004_kani=true&JigyosyoCd=1071000994-00&ServiceCd=331&Type=search", "url2": "http://warabeuta.ne.jp" }, "geometry": { "type": "Point", "coordinates": [ 138.850193465242825, 36.248905332949434 ] } },
{ "type": "Feature", "properties": { "内容": "ベストライフ星の里【特定施設入居者生活介護（有料老人ホーム）】群馬県富岡市後賀529-1", "url": "https://www.kaigokensaku.mhlw.go.jp/10/index.php?action_kouhyou_detail_004_kani=true&JigyosyoCd=1071000291-00&ServiceCd=331&Type=search", "url2": "https://bestlife.jp/" }, "geometry": { "type": "Point", "coordinates": [ 138.92606980000005, 36.273442 ] } },
{ "type": "Feature", "properties": { "内容": "介護付有料老人ホーム　アットホーム尚久富岡中央【特定施設入居者生活介護（有料老人ホーム）】群馬県富岡市富岡1763番地1アットホーム尚久富岡中央", "url": "https://www.kaigokensaku.mhlw.go.jp/10/index.php?action_kouhyou_detail_004_kani=true&JigyosyoCd=1071001109-00&ServiceCd=331&Type=search", "url2": "https://www.hosoya.or.jp/index.html" }, "geometry": { "type": "Point", "coordinates": [ 138.8932682, 36.2599981 ] } },
{ "type": "Feature", "properties": { "内容": "アットホーム尚久富岡東【特定施設入居者生活介護（有料老人ホーム）】群馬県富岡市富岡2661番地", "url": "https://www.kaigokensaku.mhlw.go.jp/10/index.php?action_kouhyou_detail_004_kani=true&JigyosyoCd=1071001042-00&ServiceCd=331&Type=search", "url2": "http://hosoya.or.jp" }, "geometry": { "type": "Point", "coordinates": [ 138.897618599999987, 36.2586355 ] } },
{ "type": "Feature", "properties": { "内容": "スマイリングホームメディス安中【特定施設入居者生活介護（有料老人ホーム）】群馬県安中市原市3452-14", "url": "https://www.kaigokensaku.mhlw.go.jp/10/index.php?action_kouhyou_detail_004_kani=true&JigyosyoCd=1071100869-00&ServiceCd=331&Type=search", "url2": "http://www.greenlife-inc.co.jp/" }, "geometry": { "type": "Point", "coordinates": [ 138.858558346557629, 36.319996377828339 ] } },
{ "type": "Feature", "properties": { "内容": "介護付有料老人ホーム　松華【特定施設入居者生活介護（有料老人ホーム）】群馬県安中市松井田町行田252－2", "url": "https://www.kaigokensaku.mhlw.go.jp/10/index.php?action_kouhyou_detail_004_kani=true&JigyosyoCd=1071100497-00&ServiceCd=331&Type=search", "url2": "http://www.saikasha.jp/" }, "geometry": { "type": "Point", "coordinates": [ 138.778612800000019, 36.3037152 ] } },
{ "type": "Feature", "properties": { "内容": "介護付有料老人ホーム　ななかまど【特定施設入居者生活介護（有料老人ホーム）】群馬県安中市松井田町土塩７５９－１", "url": "https://www.kaigokensaku.mhlw.go.jp/10/index.php?action_kouhyou_detail_004_kani=true&JigyosyoCd=1071100893-00&ServiceCd=331&Type=search", "url2": "http://med.wind.ne.jp/sutoh-hp/nanakamado/" }, "geometry": { "type": "Point", "coordinates": [ 138.772377499999948, 36.3509216 ] } },
{ "type": "Feature", "properties": { "内容": "スマイリングホーム　メディス笠懸【特定施設入居者生活介護（有料老人ホーム）】群馬県みどり市笠懸町鹿4385-3", "url": "https://www.kaigokensaku.mhlw.go.jp/10/index.php?action_kouhyou_detail_004_kani=true&JigyosyoCd=1071200644-00&ServiceCd=331&Type=search", "url2": "http://www.greenlife-inc.co.jp/facilities/detail/mediskasagake/summary/" }, "geometry": { "type": "Point", "coordinates": [ 139.274663, 36.386536 ] } },
{ "type": "Feature", "properties": { "内容": "介護付有料老人ホーム新井【特定施設入居者生活介護（有料老人ホーム）】群馬県北群馬郡榛東村新井589-1", "url": "https://www.kaigokensaku.mhlw.go.jp/10/index.php?action_kouhyou_detail_004_kani=true&JigyosyoCd=1072200619-00&ServiceCd=331&Type=search", "url2": null }, "geometry": { "type": "Point", "coordinates": [ 138.9755642, 36.4346233 ] } },
{ "type": "Feature", "properties": { "内容": "介護付有料老人ホーム吉岡たやの家【特定施設入居者生活介護（有料老人ホーム）】北群馬郡吉岡町上野田９６", "url": "https://www.kaigokensaku.mhlw.go.jp/10/index.php?action_kouhyou_detail_004_kani=true&JigyosyoCd=1072201047-00&ServiceCd=331&Type=search", "url2": "http://www.takumikk.co.jp/tayanoie/yoshioka" }, "geometry": { "type": "Point", "coordinates": [ 139.003975, 36.4535357 ] } },
{ "type": "Feature", "properties": { "内容": "スマイリングホーム　メディス吉岡【特定施設入居者生活介護（有料老人ホーム）】群馬県北群馬郡吉岡町大久保3265‐3", "url": "https://www.kaigokensaku.mhlw.go.jp/10/index.php?action_kouhyou_detail_004_kani=true&JigyosyoCd=1072200635-00&ServiceCd=331&Type=search", "url2": "http://www.medis_yoshioka@greenlife-inc.co.jp" }, "geometry": { "type": "Point", "coordinates": [ 139.0206875, 36.4424598 ] } },
{ "type": "Feature", "properties": { "内容": "アットホーム尚久かんら【特定施設入居者生活介護（有料老人ホーム）】群馬県甘楽郡甘楽町金井279-1", "url": "https://www.kaigokensaku.mhlw.go.jp/10/index.php?action_kouhyou_detail_004_kani=true&JigyosyoCd=1072400698-00&ServiceCd=331&Type=search", "url2": null }, "geometry": { "type": "Point", "coordinates": [ 138.9487442, 36.2559561 ] } },
{ "type": "Feature", "properties": { "内容": "有料老人ホーム寿の里【特定施設入居者生活介護（有料老人ホーム）】群馬県吾妻郡中之条町大字中之条町９１７番地", "url": "https://www.kaigokensaku.mhlw.go.jp/10/index.php?action_kouhyou_detail_004_kani=true&JigyosyoCd=1072601063-00&ServiceCd=331&Type=search", "url2": "h-tajima.info/" }, "geometry": { "type": "Point", "coordinates": [ 138.8410725, 36.5877705 ] } },
{ "type": "Feature", "properties": { "内容": "スマイリングホームメディス草津【特定施設入居者生活介護（有料老人ホーム）】群馬県吾妻郡草津町草津524-114", "url": "https://www.kaigokensaku.mhlw.go.jp/10/index.php?action_kouhyou_detail_004_kani=true&JigyosyoCd=1072601170-00&ServiceCd=331&Type=search", "url2": "http://www.greenlife-inc.co.jp/" }, "geometry": { "type": "Point", "coordinates": [ 138.5925641, 36.6270666 ] } },
{ "type": "Feature", "properties": { "内容": "ベルジ武尊【特定施設入居者生活介護（有料老人ホーム）】群馬県利根郡川場村生品1221", "url": "https://www.kaigokensaku.mhlw.go.jp/10/index.php?action_kouhyou_detail_004_kani=true&JigyosyoCd=1072700105-00&ServiceCd=331&Type=search", "url2": "http://www.e-verde.co.jp" }, "geometry": { "type": "Point", "coordinates": [ 139.085809, 36.6745627 ] } },
{ "type": "Feature", "properties": { "内容": "ヴィラージュ尾瀬【特定施設入居者生活介護（有料老人ホーム）】群馬県利根郡川場村生品1828", "url": "https://www.kaigokensaku.mhlw.go.jp/10/index.php?action_kouhyou_detail_004_kani=true&JigyosyoCd=1072700881-00&ServiceCd=331&Type=search", "url2": "https://www.paznomori.or.jp/oze" }, "geometry": { "type": "Point", "coordinates": [ 139.0780025, 36.667579 ] } },
{ "type": "Feature", "properties": { "内容": "アットホーム尚久玉村【特定施設入居者生活介護（有料老人ホーム）】群馬県佐波郡玉村町福島80-1アットホーム尚久玉村", "url": "https://www.kaigokensaku.mhlw.go.jp/10/index.php?action_kouhyou_detail_004_kani=true&JigyosyoCd=1072800764-00&ServiceCd=331&Type=search", "url2": "http://www.hosoya.or.jp" }, "geometry": { "type": "Point", "coordinates": [ 139.114557500000046, 36.3099794 ] } },
{ "type": "Feature", "properties": { "内容": "介護付有料老人ホーム　陽だまり【特定施設入居者生活介護（有料老人ホーム）】群馬県邑楽郡板倉町大字板倉字槐戸２９６６番地３３", "url": "https://www.kaigokensaku.mhlw.go.jp/10/index.php?action_kouhyou_detail_004_kani=true&JigyosyoCd=1073100719-00&ServiceCd=331&Type=search", "url2": "https://sl-silverlife.co.jp" }, "geometry": { "type": "Point", "coordinates": [ 139.603222254708811, 36.231260856282447 ] } },
{ "type": "Feature", "properties": { "内容": "特定施設入所者生活介護事業所　マゼンタ【特定施設入居者生活介護（有料老人ホーム）】群馬県邑楽郡大泉町住吉５４－１１", "url": "https://www.kaigokensaku.mhlw.go.jp/10/index.php?action_kouhyou_detail_004_kani=true&JigyosyoCd=1073100438-00&ServiceCd=331&Type=search", "url2": "http://www.mazenta.co.jp" }, "geometry": { "type": "Point", "coordinates": [ 139.407344599999988, 36.2536376 ] } }
]
}
