{
"type": "FeatureCollection",
"name": "geo_10_特別支援学校",
"crs": { "type": "name", "properties": { "name": "urn:ogc:def:crs:EPSG::6668" } },
"features": [
{ "type": "Feature", "properties": { "P29_001": "10201", "P29_002": "E110110000012", "P29_003": "16012", "P29_004": "群馬大学共同教育学部附属特別支援学校", "P29_005": "群馬県前橋市若宮町2-8-1", "P29_006": "1", "P29_007": "0", "P29_008": "00", "P29_009": null }, "geometry": { "type": "Point", "coordinates": [ 139.074323731648576, 36.401042342214033 ] } },
{ "type": "Feature", "properties": { "P29_001": "10201", "P29_002": "E110210000010", "P29_003": "16012", "P29_004": "群馬県立盲学校", "P29_005": "群馬県前橋市南町4-5-1", "P29_006": "2", "P29_007": "0", "P29_008": "00", "P29_009": null }, "geometry": { "type": "Point", "coordinates": [ 139.068672814224499, 36.377741437444506 ] } },
{ "type": "Feature", "properties": { "P29_001": "10201", "P29_002": "E110210000029", "P29_003": "16012", "P29_004": "群馬県立聾学校", "P29_005": "群馬県前橋市天川原町1-4", "P29_006": "2", "P29_007": "0", "P29_008": "00", "P29_009": null }, "geometry": { "type": "Point", "coordinates": [ 139.078474001629473, 36.374402813915644 ] } },
{ "type": "Feature", "properties": { "P29_001": "10202", "P29_002": "E110210000038", "P29_003": "16012", "P29_004": "群馬県立二葉特別支援学校", "P29_005": "群馬県高崎市足門町120", "P29_006": "2", "P29_007": "0", "P29_008": "00", "P29_009": null }, "geometry": { "type": "Point", "coordinates": [ 138.982328720290951, 36.400964737522237 ] } },
{ "type": "Feature", "properties": { "P29_001": "10202", "P29_002": "E110210000047", "P29_003": "16012", "P29_004": "群馬県立高崎特別支援学校", "P29_005": "群馬県高崎市乗附町3947", "P29_006": "2", "P29_007": "0", "P29_008": "00", "P29_009": null }, "geometry": { "type": "Point", "coordinates": [ 138.954016600558532, 36.316581788775245 ] } },
{ "type": "Feature", "properties": { "P29_001": "10208", "P29_002": "E110210000056", "P29_003": "16012", "P29_004": "群馬県立渋川特別支援学校", "P29_005": "群馬県渋川市渋川3641-2", "P29_006": "2", "P29_007": "0", "P29_008": "00", "P29_009": null }, "geometry": { "type": "Point", "coordinates": [ 138.948632229937431, 36.493641376458747 ] } },
{ "type": "Feature", "properties": { "P29_001": "10212", "P29_002": "E110210000065", "P29_003": "16012", "P29_004": "群馬県立渡良瀬特別支援学校", "P29_005": "群馬県みどり市笠懸町鹿2812", "P29_006": "2", "P29_007": "0", "P29_008": "00", "P29_009": null }, "geometry": { "type": "Point", "coordinates": [ 139.275670953259407, 36.407205988088499 ] } },
{ "type": "Feature", "properties": { "P29_001": "10201", "P29_002": "E110210000074", "P29_003": "16012", "P29_004": "前橋市立前橋特別支援学校", "P29_005": "群馬県前橋市東上野町459-1", "P29_006": "3", "P29_007": "0", "P29_008": "00", "P29_009": null }, "geometry": { "type": "Point", "coordinates": [ 139.116746704506056, 36.387057280568094 ] } },
{ "type": "Feature", "properties": { "P29_001": "10202", "P29_002": "E110210000083", "P29_003": "16012", "P29_004": "高崎市立高崎特別支援学校", "P29_005": "群馬県高崎市下滝町772-1", "P29_006": "3", "P29_007": "0", "P29_008": "00", "P29_009": null }, "geometry": { "type": "Point", "coordinates": [ 139.084784084202113, 36.312657534276838 ] } },
{ "type": "Feature", "properties": { "P29_001": "10203", "P29_002": "E110210000092", "P29_003": "16012", "P29_004": "群馬県立あさひ特別支援学校", "P29_005": "群馬県桐生市広沢町間ノ島440", "P29_006": "2", "P29_007": "0", "P29_008": "00", "P29_009": null }, "geometry": { "type": "Point", "coordinates": [ 139.33360564811619, 36.392740758008536 ] } },
{ "type": "Feature", "properties": { "P29_001": "10203", "P29_002": "E110210000109", "P29_003": "16012", "P29_004": "群馬県立桐生特別支援学校", "P29_005": "群馬県桐生市菱町2-1955-1", "P29_006": "2", "P29_007": "0", "P29_008": "00", "P29_009": null }, "geometry": { "type": "Point", "coordinates": [ 139.357015853711488, 36.414052819847512 ] } },
{ "type": "Feature", "properties": { "P29_001": "10205", "P29_002": "E110210000118", "P29_003": "16012", "P29_004": "群馬県立太田特別支援学校", "P29_005": "群馬県太田市藤阿久町26-1", "P29_006": "2", "P29_007": "0", "P29_008": "00", "P29_009": null }, "geometry": { "type": "Point", "coordinates": [ 139.35889746347749, 36.284163477538499 ] } },
{ "type": "Feature", "properties": { "P29_001": "10421", "P29_002": "E110210000127", "P29_003": "16012", "P29_004": "群馬県立吾妻特別支援学校", "P29_005": "群馬県吾妻郡中之条町伊勢町1035-1", "P29_006": "2", "P29_007": "0", "P29_008": "00", "P29_009": null }, "geometry": { "type": "Point", "coordinates": [ 138.851751458783212, 36.589136454358012 ] } },
{ "type": "Feature", "properties": { "P29_001": "10205", "P29_002": "E110210000136", "P29_003": "16012", "P29_004": "群馬県立太田高等特別支援学校", "P29_005": "群馬県太田市藤阿久町12-1", "P29_006": "2", "P29_007": "0", "P29_008": "00", "P29_009": null }, "geometry": { "type": "Point", "coordinates": [ 139.358119213233238, 36.28304406593012 ] } },
{ "type": "Feature", "properties": { "P29_001": "10201", "P29_002": "E110210000145", "P29_003": "16012", "P29_004": "群馬県立前橋高等特別支援学校", "P29_005": "群馬県前橋市青梨子町233-1", "P29_006": "2", "P29_007": "0", "P29_008": "00", "P29_009": null }, "geometry": { "type": "Point", "coordinates": [ 139.020095033829222, 36.413235665405445 ] } },
{ "type": "Feature", "properties": { "P29_001": "10202", "P29_002": "E110210000154", "P29_003": "16012", "P29_004": "群馬県立高崎高等特別支援学校", "P29_005": "群馬県高崎市柴崎町1838-2", "P29_006": "2", "P29_007": "0", "P29_008": "00", "P29_009": null }, "geometry": { "type": "Point", "coordinates": [ 139.05955794281914, 36.312419622238274 ] } },
{ "type": "Feature", "properties": { "P29_001": "10201", "P29_002": "E110210000163", "P29_003": "16012", "P29_004": "群馬県立赤城特別支援学校", "P29_005": "群馬県前橋市上小出町1-5-15", "P29_006": "2", "P29_007": "0", "P29_008": "01", "P29_009": "前橋上小出校舎" }, "geometry": { "type": "Point", "coordinates": [ 139.060198197353259, 36.409575235262288 ] } },
{ "type": "Feature", "properties": { "P29_001": "10201", "P29_002": "E110210000172", "P29_003": "16012", "P29_004": "群馬県立しろがね特別支援学校", "P29_005": "群馬県前橋市東大室町177-1", "P29_006": "2", "P29_007": "0", "P29_008": "00", "P29_009": null }, "geometry": { "type": "Point", "coordinates": [ 139.188857988779347, 36.365874237997126 ] } },
{ "type": "Feature", "properties": { "P29_001": "10202", "P29_002": "E110210000181", "P29_003": "16012", "P29_004": "群馬県立二葉高等特別支援学校", "P29_005": "群馬県高崎市足門町110", "P29_006": "2", "P29_007": "0", "P29_008": "00", "P29_009": null }, "geometry": { "type": "Point", "coordinates": [ 138.982599504946251, 36.399658897119906 ] } },
{ "type": "Feature", "properties": { "P29_001": "10208", "P29_002": "E110210000190", "P29_003": "16012", "P29_004": "群馬県立赤城特別支援学校小児医療センター校", "P29_005": "群馬県渋川市北橘町下箱田779", "P29_006": "2", "P29_007": "0", "P29_008": "00", "P29_009": null }, "geometry": { "type": "Point", "coordinates": [ 139.046270548967982, 36.459548136360716 ] } },
{ "type": "Feature", "properties": { "P29_001": "10206", "P29_002": "E110210000207", "P29_003": "16012", "P29_004": "群馬県立沼田特別支援学校", "P29_005": "群馬県沼田市東原新町1801-1", "P29_006": "2", "P29_007": "0", "P29_008": "00", "P29_009": null }, "geometry": { "type": "Point", "coordinates": [ 139.062275567444459, 36.65052668224083 ] } },
{ "type": "Feature", "properties": { "P29_001": "10204", "P29_002": "E110210000216", "P29_003": "16012", "P29_004": "群馬県立伊勢崎高等特別支援学校", "P29_005": "群馬県伊勢崎市境492", "P29_006": "2", "P29_007": "0", "P29_008": "00", "P29_009": null }, "geometry": { "type": "Point", "coordinates": [ 139.253855990229766, 36.271224619727462 ] } },
{ "type": "Feature", "properties": { "P29_001": "10207", "P29_002": "E110210000225", "P29_003": "16012", "P29_004": "群馬県立館林高等特別支援学校", "P29_005": "群馬県館林市上三林町197", "P29_006": "2", "P29_007": "0", "P29_008": "00", "P29_009": null }, "geometry": { "type": "Point", "coordinates": [ 139.485022316311159, 36.217967012524809 ] } },
{ "type": "Feature", "properties": { "P29_001": "10204", "P29_002": "E110210000234", "P29_003": "16012", "P29_004": "群馬県立伊勢崎特別支援学校", "P29_005": "群馬県伊勢崎市粕川町1003", "P29_006": "2", "P29_007": "0", "P29_008": "00", "P29_009": null }, "geometry": { "type": "Point", "coordinates": [ 139.216320004632252, 36.308536000855597 ] } },
{ "type": "Feature", "properties": { "P29_001": "10207", "P29_002": "E110210000243", "P29_003": "16012", "P29_004": "群馬県立館林特別支援学校", "P29_005": "群馬県館林市上三林町579-1", "P29_006": "2", "P29_007": "0", "P29_008": "00", "P29_009": null }, "geometry": { "type": "Point", "coordinates": [ 139.485604824827305, 36.218795148663659 ] } },
{ "type": "Feature", "properties": { "P29_001": "10210", "P29_002": "E110210000252", "P29_003": "16012", "P29_004": "群馬県立富岡特別支援学校", "P29_005": "群馬県富岡市七日市1116-1", "P29_006": "2", "P29_007": "0", "P29_008": "00", "P29_009": null }, "geometry": { "type": "Point", "coordinates": [ 138.883780996522887, 36.255365004513862 ] } },
{ "type": "Feature", "properties": { "P29_001": "10209", "P29_002": "E110210000261", "P29_003": "16012", "P29_004": "群馬県立藤岡特別支援学校", "P29_005": "群馬県藤岡市本郷463", "P29_006": "2", "P29_007": "0", "P29_008": "00", "P29_009": null }, "geometry": { "type": "Point", "coordinates": [ 139.078709527950423, 36.233495665868645 ] } },
{ "type": "Feature", "properties": { "P29_001": "10201", "P29_002": "E110310000018", "P29_003": "16012", "P29_004": "支援学校若葉高等学園", "P29_005": "群馬県前橋市苗ヶ島町2258-4", "P29_006": "4", "P29_007": "0", "P29_008": "00", "P29_009": null }, "geometry": { "type": "Point", "coordinates": [ 139.19200097427597, 36.480767388504887 ] } },
{ "type": "Feature", "properties": { "P29_001": "10201", "P29_002": "E110210000163", "P29_003": "16012", "P29_004": "群馬県立赤城特別支援学校", "P29_005": "群馬県前橋市紅雲町1-7-13", "P29_006": "2", "P29_007": "0", "P29_008": "02", "P29_009": "群馬中央総合病院分教室" }, "geometry": { "type": "Point", "coordinates": [ 139.060890885874926, 36.386441609202926 ] } },
{ "type": "Feature", "properties": { "P29_001": "10203", "P29_002": "E110210000163", "P29_003": "16012", "P29_004": "群馬県立赤城特別支援学校", "P29_005": "群馬県桐生市織姫町6-3", "P29_006": "2", "P29_007": "0", "P29_008": "08", "P29_009": "桐生厚生総合病院内教室" }, "geometry": { "type": "Point", "coordinates": [ 139.327561739960402, 36.405342031925841 ] } },
{ "type": "Feature", "properties": { "P29_001": "10204", "P29_002": "E110210000163", "P29_003": "16012", "P29_004": "群馬県立赤城特別支援学校", "P29_005": "群馬県伊勢崎市連取本町12-1", "P29_006": "2", "P29_007": "0", "P29_008": "03", "P29_009": "伊勢崎市民病院内教室" }, "geometry": { "type": "Point", "coordinates": [ 139.178298485747121, 36.323361586058773 ] } },
{ "type": "Feature", "properties": { "P29_001": "10209", "P29_002": "E110210000163", "P29_003": "16012", "P29_004": "群馬県立赤城特別支援学校", "P29_005": "群馬県藤岡市藤岡813-1", "P29_006": "2", "P29_007": "0", "P29_008": "04", "P29_009": "公立藤岡総合病院内教室" }, "geometry": { "type": "Point", "coordinates": [ 139.077309369500995, 36.267567176056225 ] } },
{ "type": "Feature", "properties": { "P29_001": "10201", "P29_002": "E110210000163", "P29_003": "16012", "P29_004": "群馬県立赤城特別支援学校", "P29_005": "群馬県前橋市朝倉町389-1", "P29_006": "2", "P29_007": "0", "P29_008": "05", "P29_009": "前橋赤十字病院内教室" }, "geometry": { "type": "Point", "coordinates": [ 139.096, 36.359 ] } },
{ "type": "Feature", "properties": { "P29_001": "10210", "P29_002": "E110210000163", "P29_003": "16012", "P29_004": "群馬県立赤城特別支援学校", "P29_005": "群馬県富岡市富岡2073-1", "P29_006": "2", "P29_007": "0", "P29_008": "06", "P29_009": "公立富岡総合病院内教室" }, "geometry": { "type": "Point", "coordinates": [ 138.903273173679167, 36.264106697525541 ] } },
{ "type": "Feature", "properties": { "P29_001": "10208", "P29_002": "E110210000163", "P29_003": "16012", "P29_004": "群馬県立赤城特別支援学校", "P29_005": "群馬県渋川市北橘町下箱田779", "P29_006": "2", "P29_007": "0", "P29_008": "07", "P29_009": "小児医療センター校" }, "geometry": { "type": "Point", "coordinates": [ 139.046153300836892, 36.459500885606005 ] } }
]
}
