{
"type": "FeatureCollection",
"name": "geo_10_各種学校",
"crs": { "type": "name", "properties": { "name": "urn:ogc:def:crs:EPSG::6668" } },
"features": [
{ "type": "Feature", "properties": { "P29_001": "10201", "P29_002": "H210310000011", "P29_003": "16015", "P29_004": "駒形珠算学校", "P29_005": "群馬県前橋市駒形町816", "P29_006": "4", "P29_007": "0", "P29_008": "00", "P29_009": null }, "geometry": { "type": "Point", "coordinates": [ 139.139237657457869, 36.343473720491971 ] } },
{ "type": "Feature", "properties": { "P29_001": "10201", "P29_002": "H210310000020", "P29_003": "16015", "P29_004": "前橋市医師会立前橋准看護学校", "P29_005": "群馬県前橋市岩神町2-3-5", "P29_006": "4", "P29_007": "0", "P29_008": "00", "P29_009": null }, "geometry": { "type": "Point", "coordinates": [ 139.059654030925827, 36.400641175574968 ] } },
{ "type": "Feature", "properties": { "P29_001": "10201", "P29_002": "H210310000039", "P29_003": "16015", "P29_004": "前橋ニュースタイル編物学院", "P29_005": "群馬県前橋市本町1-13-2", "P29_006": "4", "P29_007": "0", "P29_008": "00", "P29_009": null }, "geometry": { "type": "Point", "coordinates": [ 139.068003138376667, 36.388741100000658 ] } },
{ "type": "Feature", "properties": { "P29_001": "10201", "P29_002": "H210310000048", "P29_003": "16015", "P29_004": "ＮＩＰＰＯＮ文化学院", "P29_005": "群馬県前橋市表町1-7-6", "P29_006": "4", "P29_007": "0", "P29_008": "00", "P29_009": null }, "geometry": { "type": "Point", "coordinates": [ 139.069319541770057, 36.387430021777718 ] } },
{ "type": "Feature", "properties": { "P29_001": "10201", "P29_002": "H210310000057", "P29_003": "16015", "P29_004": "ＮＩＰＰＯＮ語学院", "P29_005": "群馬県前橋市大手町2-5-10", "P29_006": "4", "P29_007": "0", "P29_008": "00", "P29_009": null }, "geometry": { "type": "Point", "coordinates": [ 139.065163620251298, 36.391029843937922 ] } },
{ "type": "Feature", "properties": { "P29_001": "10201", "P29_002": "H210310000066", "P29_003": "16015", "P29_004": "群馬朝鮮初中級学校", "P29_005": "群馬県前橋市荒牧町2-2", "P29_006": "4", "P29_007": "0", "P29_008": "00", "P29_009": null }, "geometry": { "type": "Point", "coordinates": [ 139.051325590092688, 36.422600782794021 ] } },
{ "type": "Feature", "properties": { "P29_001": "10201", "P29_002": "H210310000075", "P29_003": "16015", "P29_004": "ＮＩＰＰＯＮ進学院", "P29_005": "群馬県前橋市表町1-7-6", "P29_006": "4", "P29_007": "0", "P29_008": "00", "P29_009": null }, "geometry": { "type": "Point", "coordinates": [ 139.069301513650544, 36.387402603489903 ] } },
{ "type": "Feature", "properties": { "P29_001": "10202", "P29_002": "H210310000084", "P29_003": "16015", "P29_004": "柘植珠算学校", "P29_005": "群馬県高崎市本町96", "P29_006": "4", "P29_007": "0", "P29_008": "00", "P29_009": null }, "geometry": { "type": "Point", "coordinates": [ 139.00602006066768, 36.330063814495865 ] } },
{ "type": "Feature", "properties": { "P29_001": "10202", "P29_002": "H210310000093", "P29_003": "16015", "P29_004": "小野池学院", "P29_005": "群馬県高崎市栄町15-3", "P29_006": "4", "P29_007": "0", "P29_008": "00", "P29_009": null }, "geometry": { "type": "Point", "coordinates": [ 139.015143625149847, 36.321367802267993 ] } },
{ "type": "Feature", "properties": { "P29_001": "10203", "P29_002": "H210310000100", "P29_003": "16015", "P29_004": "桐生市医師会立桐生准看護学校", "P29_005": "群馬県桐生市元宿町18-2", "P29_006": "4", "P29_007": "0", "P29_008": "00", "P29_009": null }, "geometry": { "type": "Point", "coordinates": [ 139.329345339540424, 36.410511784311659 ] } },
{ "type": "Feature", "properties": { "P29_001": "10203", "P29_002": "H210310000119", "P29_003": "16015", "P29_004": "群馬和裁専門学院", "P29_005": "群馬県桐生市仲町1-10-4", "P29_006": "4", "P29_007": "0", "P29_008": "00", "P29_009": null }, "geometry": { "type": "Point", "coordinates": [ 139.343991857037366, 36.412917921643157 ] } },
{ "type": "Feature", "properties": { "P29_001": "10204", "P29_002": "H210310000128", "P29_003": "16015", "P29_004": "あけぼの珠算学校", "P29_005": "群馬県伊勢崎市緑町1-3", "P29_006": "4", "P29_007": "0", "P29_008": "00", "P29_009": null }, "geometry": { "type": "Point", "coordinates": [ 139.194429388836738, 36.319343791094141 ] } },
{ "type": "Feature", "properties": { "P29_001": "10205", "P29_002": "H210310000137", "P29_003": "16015", "P29_004": "エスコーラパラレロ各種学校", "P29_005": "群馬県太田市龍舞町2743-2", "P29_006": "4", "P29_007": "0", "P29_008": "00", "P29_009": null }, "geometry": { "type": "Point", "coordinates": [ 139.42424009054821, 36.282413867311362 ] } },
{ "type": "Feature", "properties": { "P29_001": "10205", "P29_002": "H210310000146", "P29_003": "16015", "P29_004": "伯人学校イーエーエス太田", "P29_005": "群馬県太田市内ヶ島町241-2", "P29_006": "4", "P29_007": "0", "P29_008": "00", "P29_009": null }, "geometry": { "type": "Point", "coordinates": [ 139.400816171393956, 36.279851684710984 ] } },
{ "type": "Feature", "properties": { "P29_001": "10206", "P29_002": "H210310000155", "P29_003": "16015", "P29_004": "沼田准看護学校", "P29_005": "群馬県沼田市上原町1801-68", "P29_006": "4", "P29_007": "0", "P29_008": "00", "P29_009": null }, "geometry": { "type": "Point", "coordinates": [ 139.059792451821778, 36.648024545085214 ] } },
{ "type": "Feature", "properties": { "P29_001": "10210", "P29_002": "H210310000173", "P29_003": "16015", "P29_004": "富岡市甘楽郡医師会立富岡准看護学校", "P29_005": "群馬県富岡市七日市553-1", "P29_006": "4", "P29_007": "0", "P29_008": "00", "P29_009": null }, "geometry": { "type": "Point", "coordinates": [ 138.883261322020189, 36.262288767845241 ] } },
{ "type": "Feature", "properties": { "P29_001": "10211", "P29_002": "H210310000182", "P29_003": "16015", "P29_004": "安中市医師会立安中准看護学校", "P29_005": "群馬県安中市安中甲1-1-20", "P29_006": "4", "P29_007": "0", "P29_008": "00", "P29_009": null }, "geometry": { "type": "Point", "coordinates": [ 138.88195863684183, 36.32282006404143 ] } },
{ "type": "Feature", "properties": { "P29_001": "10421", "P29_002": "H210310000191", "P29_003": "16015", "P29_004": "吾妻郡医師会立吾妻准看護学校", "P29_005": "群馬県吾妻郡中之条町大字伊勢町25-9", "P29_006": "4", "P29_007": "0", "P29_008": "00", "P29_009": null }, "geometry": { "type": "Point", "coordinates": [ 138.855346189264509, 36.583514574873796 ] } }
]
}
