{
"type": "FeatureCollection",
"name": "geo_10_専修学校",
"crs": { "type": "name", "properties": { "name": "urn:ogc:def:crs:EPSG::6668" } },
"features": [
{ "type": "Feature", "properties": { "P29_001": "10210", "P29_002": "H110210000014", "P29_003": "16016", "P29_004": "富岡看護専門学校", "P29_005": "群馬県富岡市七日市553-1", "P29_006": "3", "P29_007": "0", "P29_008": "00", "P29_009": null }, "geometry": { "type": "Point", "coordinates": [ 138.882786117704342, 36.26236682205603 ] } },
{ "type": "Feature", "properties": { "P29_001": "10207", "P29_002": "H110210000023", "P29_003": "16016", "P29_004": "館林高等看護学院", "P29_005": "群馬県館林市苗木町2497-1", "P29_006": "3", "P29_007": "0", "P29_008": "00", "P29_009": null }, "geometry": { "type": "Point", "coordinates": [ 139.50319664312903, 36.231645833516687 ] } },
{ "type": "Feature", "properties": { "P29_001": "10202", "P29_002": "H110210000032", "P29_003": "16016", "P29_004": "群馬県立農林大学校", "P29_005": "群馬県高崎市箕郷町西明屋1005", "P29_006": "2", "P29_007": "0", "P29_008": "00", "P29_009": null }, "geometry": { "type": "Point", "coordinates": [ 138.945349878802801, 36.412658764134342 ] } },
{ "type": "Feature", "properties": { "P29_001": "10201", "P29_002": "H110310000012", "P29_003": "16016", "P29_004": "白ゆりファッション専門学校", "P29_005": "群馬県前橋市千代田町1-9-9", "P29_006": "4", "P29_007": "0", "P29_008": "00", "P29_009": null }, "geometry": { "type": "Point", "coordinates": [ 139.067163841654121, 36.393845995538193 ] } },
{ "type": "Feature", "properties": { "P29_001": "10204", "P29_002": "H110310000021", "P29_003": "16016", "P29_004": "専門学校群馬自動車大学校", "P29_005": "群馬県伊勢崎市赤堀今井町1-581", "P29_006": "4", "P29_007": "0", "P29_008": "00", "P29_009": null }, "geometry": { "type": "Point", "coordinates": [ 139.20665339417144, 36.378288994202755 ] } },
{ "type": "Feature", "properties": { "P29_001": "10524", "P29_002": "H110310000030", "P29_003": "16016", "P29_004": "大泉保育福祉専門学校", "P29_005": "群馬県邑楽郡大泉町日の出56-2", "P29_006": "4", "P29_007": "0", "P29_008": "00", "P29_009": null }, "geometry": { "type": "Point", "coordinates": [ 139.405233500386458, 36.249659574547593 ] } },
{ "type": "Feature", "properties": { "P29_001": "10201", "P29_002": "H110310000049", "P29_003": "16016", "P29_004": "前橋文化服装専門学校", "P29_005": "群馬県前橋市南町3-61-4", "P29_006": "4", "P29_007": "0", "P29_008": "00", "P29_009": null }, "geometry": { "type": "Point", "coordinates": [ 139.069932327974357, 36.379704829289615 ] } },
{ "type": "Feature", "properties": { "P29_001": "10201", "P29_002": "H110310000058", "P29_003": "16016", "P29_004": "群馬調理師専門学校", "P29_005": "群馬県前橋市小屋原町1145-1", "P29_006": "4", "P29_007": "0", "P29_008": "00", "P29_009": null }, "geometry": { "type": "Point", "coordinates": [ 139.143996095240311, 36.357466081138107 ] } },
{ "type": "Feature", "properties": { "P29_001": "10201", "P29_002": "H110310000067", "P29_003": "16016", "P29_004": "群馬県高等歯科衛生士学院", "P29_005": "群馬県前橋市大友町1-5-16", "P29_006": "4", "P29_007": "0", "P29_008": "00", "P29_009": null }, "geometry": { "type": "Point", "coordinates": [ 139.045969380279587, 36.386978852556872 ] } },
{ "type": "Feature", "properties": { "P29_001": "10201", "P29_002": "H110310000076", "P29_003": "16016", "P29_004": "群馬法科ビジネス専門学校", "P29_005": "群馬県前橋市古市町1-49-1", "P29_006": "4", "P29_007": "0", "P29_008": "00", "P29_009": null }, "geometry": { "type": "Point", "coordinates": [ 139.048649134048617, 36.376583199160237 ] } },
{ "type": "Feature", "properties": { "P29_001": "10201", "P29_002": "H110310000085", "P29_003": "16016", "P29_004": "群馬県理容専門学校", "P29_005": "群馬県前橋市南町3-61-5", "P29_006": "4", "P29_007": "0", "P29_008": "00", "P29_009": null }, "geometry": { "type": "Point", "coordinates": [ 139.070218784332468, 36.379405568752432 ] } },
{ "type": "Feature", "properties": { "P29_001": "10201", "P29_002": "H110310000094", "P29_003": "16016", "P29_004": "群馬県美容専門学校", "P29_005": "群馬県前橋市石関町136-1", "P29_006": "4", "P29_007": "0", "P29_008": "00", "P29_009": null }, "geometry": { "type": "Point", "coordinates": [ 139.119144403601808, 36.387520832051905 ] } },
{ "type": "Feature", "properties": { "P29_001": "10201", "P29_002": "H110310000101", "P29_003": "16016", "P29_004": "東日本ブライダル・ホテル・トラベル専門学校", "P29_005": "群馬県前橋市小屋原町1098-1", "P29_006": "4", "P29_007": "0", "P29_008": "00", "P29_009": null }, "geometry": { "type": "Point", "coordinates": [ 139.142551266301638, 36.354907742768972 ] } },
{ "type": "Feature", "properties": { "P29_001": "10201", "P29_002": "H110310000110", "P29_003": "16016", "P29_004": "東日本デザイン＆コンピュータ専門学校", "P29_005": "群馬県前橋市小屋原町1098-1", "P29_006": "4", "P29_007": "0", "P29_008": "00", "P29_009": null }, "geometry": { "type": "Point", "coordinates": [ 139.142615839993937, 36.354811508297857 ] } },
{ "type": "Feature", "properties": { "P29_001": "10201", "P29_002": "H110310000129", "P29_003": "16016", "P29_004": "中央スポーツ医療専門学校", "P29_005": "群馬県前橋市新前橋町21-16", "P29_006": "4", "P29_007": "0", "P29_008": "00", "P29_009": null }, "geometry": { "type": "Point", "coordinates": [ 139.04856799733335, 36.379754001555881 ] } },
{ "type": "Feature", "properties": { "P29_001": "10201", "P29_002": "H110310000138", "P29_003": "16016", "P29_004": "中央情報経理専門学校", "P29_005": "群馬県前橋市古市町1-49-4", "P29_006": "4", "P29_007": "0", "P29_008": "00", "P29_009": null }, "geometry": { "type": "Point", "coordinates": [ 139.049251688404411, 36.376808794867024 ] } },
{ "type": "Feature", "properties": { "P29_001": "10201", "P29_002": "H110310000147", "P29_003": "16016", "P29_004": "群馬社会福祉専門学校", "P29_005": "群馬県前橋市元総社町152", "P29_006": "4", "P29_007": "0", "P29_008": "00", "P29_009": null }, "geometry": { "type": "Point", "coordinates": [ 139.047562692669004, 36.381911801884662 ] } },
{ "type": "Feature", "properties": { "P29_001": "10201", "P29_002": "H110310000156", "P29_003": "16016", "P29_004": "群馬日建工科専門学校", "P29_005": "群馬県前橋市南町3-3-9", "P29_006": "4", "P29_007": "0", "P29_008": "00", "P29_009": null }, "geometry": { "type": "Point", "coordinates": [ 139.068639146857549, 36.382592076207494 ] } },
{ "type": "Feature", "properties": { "P29_001": "10201", "P29_002": "H110310000165", "P29_003": "16016", "P29_004": "群ゼミＡＬＥＸ外語専門学校", "P29_005": "群馬県前橋市南町3-3-9", "P29_006": "4", "P29_007": "0", "P29_008": "00", "P29_009": null }, "geometry": { "type": "Point", "coordinates": [ 139.068634179650417, 36.382564007820079 ] } },
{ "type": "Feature", "properties": { "P29_001": "10202", "P29_002": "H110310000174", "P29_003": "16016", "P29_004": "東日本調理師専門学校", "P29_005": "群馬県高崎市矢中町23-10", "P29_006": "4", "P29_007": "0", "P29_008": "00", "P29_009": null }, "geometry": { "type": "Point", "coordinates": [ 139.04332854602896, 36.308409994017964 ] } },
{ "type": "Feature", "properties": { "P29_001": "10202", "P29_002": "H110310000192", "P29_003": "16016", "P29_004": "高崎調理師専門学校", "P29_005": "群馬県高崎市東町36", "P29_006": "4", "P29_007": "0", "P29_008": "00", "P29_009": null }, "geometry": { "type": "Point", "coordinates": [ 139.014212004372325, 36.324982003062338 ] } },
{ "type": "Feature", "properties": { "P29_001": "10202", "P29_002": "H110310000209", "P29_003": "16016", "P29_004": "高崎スクールオブビジネス", "P29_005": "群馬県高崎市東町36", "P29_006": "4", "P29_007": "0", "P29_008": "00", "P29_009": null }, "geometry": { "type": "Point", "coordinates": [ 139.014083003847389, 36.324990996586926 ] } },
{ "type": "Feature", "properties": { "P29_001": "10202", "P29_002": "H110310000218", "P29_003": "16016", "P29_004": "高崎コンピュータ専門学校", "P29_005": "群馬県高崎市東町36", "P29_006": "4", "P29_007": "0", "P29_008": "00", "P29_009": null }, "geometry": { "type": "Point", "coordinates": [ 139.014126001414951, 36.325034001402074 ] } },
{ "type": "Feature", "properties": { "P29_001": "10202", "P29_002": "H110310000227", "P29_003": "16016", "P29_004": "高崎歯科衛生専門学校", "P29_005": "群馬県高崎市大橋町160-1", "P29_006": "4", "P29_007": "0", "P29_008": "00", "P29_009": null }, "geometry": { "type": "Point", "coordinates": [ 138.998442612659204, 36.339068853196913 ] } },
{ "type": "Feature", "properties": { "P29_001": "10201", "P29_002": "H110310000236", "P29_003": "16016", "P29_004": "前橋医療福祉専門学校", "P29_005": "群馬県前橋市石関町122-6", "P29_006": "4", "P29_007": "0", "P29_008": "00", "P29_009": null }, "geometry": { "type": "Point", "coordinates": [ 139.118278999546845, 36.386533003863768 ] } },
{ "type": "Feature", "properties": { "P29_001": "10202", "P29_002": "H110310000245", "P29_003": "16016", "P29_004": "専門学校中央情報大学校", "P29_005": "群馬県高崎市栄町13-1", "P29_006": "4", "P29_007": "0", "P29_008": "00", "P29_009": null }, "geometry": { "type": "Point", "coordinates": [ 139.016049939886102, 36.321775864628179 ] } },
{ "type": "Feature", "properties": { "P29_001": "10201", "P29_002": "H110310000254", "P29_003": "16016", "P29_004": "東日本製菓技術専門学校", "P29_005": "群馬県前橋市小屋原町1145-1", "P29_006": "4", "P29_007": "0", "P29_008": "00", "P29_009": null }, "geometry": { "type": "Point", "coordinates": [ 139.14395736958673, 36.357452404354724 ] } },
{ "type": "Feature", "properties": { "P29_001": "10202", "P29_002": "H110310000263", "P29_003": "16016", "P29_004": "高崎ビューティモード専門学校", "P29_005": "群馬県高崎市栄町13-1", "P29_006": "4", "P29_007": "0", "P29_008": "00", "P29_009": null }, "geometry": { "type": "Point", "coordinates": [ 139.015881995163966, 36.321783003368523 ] } },
{ "type": "Feature", "properties": { "P29_001": "10202", "P29_002": "H110310000272", "P29_003": "16016", "P29_004": "高崎動物専門学校", "P29_005": "群馬県高崎市岩押町58-4", "P29_006": "4", "P29_007": "0", "P29_008": "00", "P29_009": null }, "geometry": { "type": "Point", "coordinates": [ 139.019892453828362, 36.32292334501637 ] } },
{ "type": "Feature", "properties": { "P29_001": "10202", "P29_002": "H110310000281", "P29_003": "16016", "P29_004": "独立行政法人国立病院機構高崎総合医療センター附属高崎看護学校", "P29_005": "群馬県高崎市高松町36", "P29_006": "0", "P29_007": "0", "P29_008": "00", "P29_009": null }, "geometry": { "type": "Point", "coordinates": [ 139.000722320517781, 36.322610178861176 ] } },
{ "type": "Feature", "properties": { "P29_001": "10203", "P29_002": "H110310000290", "P29_003": "16016", "P29_004": "群馬法科ビジネス専門学校桐生校", "P29_005": "群馬県桐生市相生町5-140-5", "P29_006": "4", "P29_007": "0", "P29_008": "00", "P29_009": null }, "geometry": { "type": "Point", "coordinates": [ 139.303611876229439, 36.407764875067166 ] } },
{ "type": "Feature", "properties": { "P29_001": "10204", "P29_002": "H110310000307", "P29_003": "16016", "P29_004": "伊勢崎美容専門学校", "P29_005": "群馬県伊勢崎市三光町9-19", "P29_006": "4", "P29_007": "0", "P29_008": "00", "P29_009": null }, "geometry": { "type": "Point", "coordinates": [ 139.193591202662191, 36.317961083785057 ] } },
{ "type": "Feature", "properties": { "P29_001": "10204", "P29_002": "H110310000316", "P29_003": "16016", "P29_004": "一般社団法人伊勢崎佐波医師会立伊勢崎敬愛看護学院", "P29_005": "群馬県伊勢崎市下植木町461-1", "P29_006": "4", "P29_007": "0", "P29_008": "00", "P29_009": null }, "geometry": { "type": "Point", "coordinates": [ 139.209040028549396, 36.316502059419086 ] } },
{ "type": "Feature", "properties": { "P29_001": "10205", "P29_002": "H110310000334", "P29_003": "16016", "P29_004": "東群馬看護専門学校", "P29_005": "群馬県太田市高林北町2134", "P29_006": "4", "P29_007": "0", "P29_008": "00", "P29_009": null }, "geometry": { "type": "Point", "coordinates": [ 139.364015679791663, 36.269287035731743 ] } },
{ "type": "Feature", "properties": { "P29_001": "10205", "P29_002": "H110310000343", "P29_003": "16016", "P29_004": "太田情報商科専門学校", "P29_005": "群馬県太田市東長岡町1361", "P29_006": "4", "P29_007": "0", "P29_008": "00", "P29_009": null }, "geometry": { "type": "Point", "coordinates": [ 139.393261086808792, 36.309673463345916 ] } },
{ "type": "Feature", "properties": { "P29_001": "10205", "P29_002": "H110310000352", "P29_003": "16016", "P29_004": "ＳＵＢＡＲＵ健康保険組合太田高等看護学院", "P29_005": "群馬県太田市大島町461-1", "P29_006": "4", "P29_007": "0", "P29_008": "00", "P29_009": null }, "geometry": { "type": "Point", "coordinates": [ 139.360567024002791, 36.298339002547614 ] } },
{ "type": "Feature", "properties": { "P29_001": "10205", "P29_002": "H110310000361", "P29_003": "16016", "P29_004": "中央医療歯科専門学校", "P29_005": "群馬県太田市東本町41-12", "P29_006": "4", "P29_007": "0", "P29_008": "00", "P29_009": null }, "geometry": { "type": "Point", "coordinates": [ 139.379191789893554, 36.298334901506479 ] } },
{ "type": "Feature", "properties": { "P29_001": "10205", "P29_002": "H110310000370", "P29_003": "16016", "P29_004": "太田医療技術専門学校", "P29_005": "群馬県太田市東長岡町1373", "P29_006": "4", "P29_007": "0", "P29_008": "00", "P29_009": null }, "geometry": { "type": "Point", "coordinates": [ 139.393846514656673, 36.309109409503648 ] } },
{ "type": "Feature", "properties": { "P29_001": "10205", "P29_002": "H110310000389", "P29_003": "16016", "P29_004": "太田動物専門学校", "P29_005": "群馬県太田市台之郷町1060-1", "P29_006": "4", "P29_007": "0", "P29_008": "00", "P29_009": null }, "geometry": { "type": "Point", "coordinates": [ 139.400928658449374, 36.307125087948279 ] } },
{ "type": "Feature", "properties": { "P29_001": "10210", "P29_002": "H110310000398", "P29_003": "16016", "P29_004": "富岡文化服装専門学校", "P29_005": "群馬県富岡市富岡1180-1", "P29_006": "4", "P29_007": "0", "P29_008": "00", "P29_009": null }, "geometry": { "type": "Point", "coordinates": [ 138.893931996293702, 36.256034999875432 ] } },
{ "type": "Feature", "properties": { "P29_001": "10208", "P29_002": "H110310000405", "P29_003": "16016", "P29_004": "渋川看護専門学校", "P29_005": "群馬県渋川市金井356", "P29_006": "4", "P29_007": "0", "P29_008": "00", "P29_009": null }, "geometry": { "type": "Point", "coordinates": [ 139.0021348169536, 36.515661586319645 ] } },
{ "type": "Feature", "properties": { "P29_001": "10201", "P29_002": "H110310000414", "P29_003": "16016", "P29_004": "前橋東看護学校", "P29_005": "群馬県前橋市江木町1241-5", "P29_006": "4", "P29_007": "0", "P29_008": "00", "P29_009": null }, "geometry": { "type": "Point", "coordinates": [ 139.134985678390819, 36.407059899368285 ] } },
{ "type": "Feature", "properties": { "P29_001": "10201", "P29_002": "H110310000423", "P29_003": "16016", "P29_004": "フェリカ家づくり専門学校", "P29_005": "群馬県前橋市南町2-38-2", "P29_006": "4", "P29_007": "0", "P29_008": "00", "P29_009": null }, "geometry": { "type": "Point", "coordinates": [ 139.066845841003754, 36.376992870595203 ] } },
{ "type": "Feature", "properties": { "P29_001": "10201", "P29_002": "H110310000441", "P29_003": "16016", "P29_004": "東日本栄養医薬専門学校", "P29_005": "群馬県前橋市小屋原町1098-1", "P29_006": "4", "P29_007": "0", "P29_008": "00", "P29_009": null }, "geometry": { "type": "Point", "coordinates": [ 139.142655577650771, 36.354731312905258 ] } },
{ "type": "Feature", "properties": { "P29_001": "10208", "P29_002": "H110310000450", "P29_003": "16016", "P29_004": "群馬パース大学福祉専門学校", "P29_005": "群馬県渋川市渋川1338-4", "P29_006": "4", "P29_007": "0", "P29_008": "00", "P29_009": null }, "geometry": { "type": "Point", "coordinates": [ 139.011288512401109, 36.492796005893005 ] } },
{ "type": "Feature", "properties": { "P29_001": "10201", "P29_002": "H110310000469", "P29_003": "16016", "P29_004": "中央動物看護専門学校", "P29_005": "群馬県前橋市古市町1-43-27", "P29_006": "4", "P29_007": "0", "P29_008": "00", "P29_009": null }, "geometry": { "type": "Point", "coordinates": [ 139.050398428347705, 36.376582247279615 ] } },
{ "type": "Feature", "properties": { "P29_001": "10205", "P29_002": "H110310000478", "P29_003": "16016", "P29_004": "専門学校太田自動車大学校", "P29_005": "群馬県太田市東金井町796", "P29_006": "4", "P29_007": "0", "P29_008": "00", "P29_009": null }, "geometry": { "type": "Point", "coordinates": [ 139.392666048990151, 36.310956133963636 ] } },
{ "type": "Feature", "properties": { "P29_001": "10201", "P29_002": "H110310000487", "P29_003": "16016", "P29_004": "育英メディカル専門学校", "P29_005": "群馬県前橋市古市町1-35-6", "P29_006": "4", "P29_007": "0", "P29_008": "00", "P29_009": null }, "geometry": { "type": "Point", "coordinates": [ 139.049692696876207, 36.377233333623259 ] } },
{ "type": "Feature", "properties": { "P29_001": "10201", "P29_002": "H110310000496", "P29_003": "16016", "P29_004": "群馬動物専門学校", "P29_005": "群馬県前橋市元総社町108", "P29_006": "4", "P29_007": "0", "P29_008": "00", "P29_009": null }, "geometry": { "type": "Point", "coordinates": [ 139.043649340394893, 36.383582059855812 ] } },
{ "type": "Feature", "properties": { "P29_001": "10203", "P29_002": "H110310000502", "P29_003": "16016", "P29_004": "桐生市医師会立桐生高等看護学院", "P29_005": "群馬県桐生市元宿町18-2", "P29_006": "4", "P29_007": "0", "P29_008": "00", "P29_009": null }, "geometry": { "type": "Point", "coordinates": [ 139.329315536297798, 36.410556894220001 ] } },
{ "type": "Feature", "properties": { "P29_001": "10202", "P29_002": "H110310000511", "P29_003": "16016", "P29_004": "専門学校高崎福祉医療カレッジ", "P29_005": "群馬県高崎市東町28-1", "P29_006": "4", "P29_007": "0", "P29_008": "00", "P29_009": null }, "geometry": { "type": "Point", "coordinates": [ 139.014811794629821, 36.326650067228364 ] } },
{ "type": "Feature", "properties": { "P29_001": "10202", "P29_002": "H110310000520", "P29_003": "16016", "P29_004": "高崎市医師会看護専門学校", "P29_005": "群馬県高崎市問屋町4-8-11", "P29_006": "4", "P29_007": "0", "P29_008": "00", "P29_009": null }, "geometry": { "type": "Point", "coordinates": [ 139.01779266957135, 36.348257963624491 ] } },
{ "type": "Feature", "properties": { "P29_001": "10201", "P29_002": "H110310000539", "P29_003": "16016", "P29_004": "ウェディング・ホテル＆ツーリズム専門学校", "P29_005": "群馬県前橋市石関町136-1", "P29_006": "4", "P29_007": "0", "P29_008": "00", "P29_009": null }, "geometry": { "type": "Point", "coordinates": [ 139.119231661962516, 36.386928762306653 ] } },
{ "type": "Feature", "properties": { "P29_001": "10201", "P29_002": "H110310000548", "P29_003": "16016", "P29_004": "専門学校中央農業大学校", "P29_005": "群馬県前橋市南町2-31-1", "P29_006": "4", "P29_007": "0", "P29_008": "00", "P29_009": null }, "geometry": { "type": "Point", "coordinates": [ 139.063691203801483, 36.376394030141654 ] } },
{ "type": "Feature", "properties": { "P29_001": "10202", "P29_002": "H110310000557", "P29_003": "16016", "P29_004": "大原簿記情報ビジネス医療福祉保育専門学校", "P29_005": "群馬県高崎市下和田町5-3-16", "P29_006": "4", "P29_007": "0", "P29_008": "00", "P29_009": null }, "geometry": { "type": "Point", "coordinates": [ 139.01403635671457, 36.318378058703786 ] } },
{ "type": "Feature", "properties": { "P29_001": "10202", "P29_002": "H110310000566", "P29_003": "16016", "P29_004": "大原スポーツ公務員専門学校高崎校", "P29_005": "群馬県高崎市下和田町5-3-16", "P29_006": "4", "P29_007": "0", "P29_008": "00", "P29_009": null }, "geometry": { "type": "Point", "coordinates": [ 139.01402642230039, 36.318437202805818 ] } },
{ "type": "Feature", "properties": { "P29_001": "10201", "P29_002": "H110310000575", "P29_003": "16016", "P29_004": "ＮＩＰＰＯＮおもてなし専門学校", "P29_005": "群馬県前橋市大手町1-11-4", "P29_006": "4", "P29_007": "0", "P29_008": "00", "P29_009": null }, "geometry": { "type": "Point", "coordinates": [ 139.059986462757621, 36.389326080621593 ] } },
{ "type": "Feature", "properties": { "P29_001": "10201", "P29_002": "H110310000584", "P29_003": "16016", "P29_004": "中央高等専修学校前橋校", "P29_005": "群馬県前橋市下石倉町31-20", "P29_006": "4", "P29_007": "0", "P29_008": "00", "P29_009": null }, "geometry": { "type": "Point", "coordinates": [ 139.055799807225441, 36.378701050601002 ] } },
{ "type": "Feature", "properties": { "P29_001": "10203", "P29_002": "H110310000593", "P29_003": "16016", "P29_004": "中央高等専修学校桐生校", "P29_005": "群馬県桐生市相生町5-59-28", "P29_006": "4", "P29_007": "0", "P29_008": "00", "P29_009": null }, "geometry": { "type": "Point", "coordinates": [ 139.304346689740072, 36.406505291929456 ] } },
{ "type": "Feature", "properties": { "P29_001": "10201", "P29_002": "H110310000600", "P29_003": "16016", "P29_004": "前橋市医師会立前橋高等看護学院", "P29_005": "群馬県前橋市岩神町2-3-5", "P29_006": "4", "P29_007": "0", "P29_008": "00", "P29_009": null }, "geometry": { "type": "Point", "coordinates": [ 139.059611809665455, 36.400687287925713 ] } },
{ "type": "Feature", "properties": { "P29_001": "10202", "P29_002": "H110310000619", "P29_003": "16016", "P29_004": "たかさき・ナイチンゲール学院", "P29_005": "群馬県高崎市下滝町字前畑370-2", "P29_006": "4", "P29_007": "0", "P29_008": "00", "P29_009": null }, "geometry": { "type": "Point", "coordinates": [ 139.076018805009596, 36.314485217748619 ] } },
{ "type": "Feature", "properties": { "P29_001": "10201", "P29_002": "H110310000628", "P29_003": "16016", "P29_004": "アーツサウンドビジュアル専門学校", "P29_005": "群馬県前橋市石関町136-1", "P29_006": "4", "P29_007": "0", "P29_008": "00", "P29_009": null }, "geometry": { "type": "Point", "coordinates": [ 139.119215153623998, 36.387153406132825 ] } },
{ "type": "Feature", "properties": { "P29_001": "10201", "P29_002": "H110310000637", "P29_003": "16016", "P29_004": "国際産業技術専門学校", "P29_005": "群馬県前橋市千代田町3-5-13", "P29_006": "4", "P29_007": "0", "P29_008": "00", "P29_009": null }, "geometry": { "type": "Point", "coordinates": [ 139.070616147531155, 36.393691013404613 ] } },
{ "type": "Feature", "properties": { "P29_001": "10202", "P29_002": "H110310000646", "P29_003": "16016", "P29_004": "中央医療歯科専門学校高崎校", "P29_005": "群馬県高崎市双葉町2-8", "P29_006": "4", "P29_007": "0", "P29_008": "00", "P29_009": null }, "geometry": { "type": "Point", "coordinates": [ 139.016924530600164, 36.317518027425841 ] } },
{ "type": "Feature", "properties": { "P29_001": "10428", "P29_002": "H110310000655", "P29_003": "16016", "P29_004": "ＮＩＰＰＯＮおもてなし専門学校東京デュアラー校", "P29_005": "群馬県吾妻郡高山村大字中山字与三平塚6859-249", "P29_006": "4", "P29_007": "0", "P29_008": "00", "P29_009": null }, "geometry": { "type": "Point", "coordinates": [ 138.962351552678257, 36.599361391787504 ] } },
{ "type": "Feature", "properties": { "P29_001": "10201", "P29_002": "H110310000664", "P29_003": "16016", "P29_004": "ＮＩＰＰＯＮアントレプレナー専門学校", "P29_005": "群馬県前橋市大手町2-5-10", "P29_006": "4", "P29_007": "0", "P29_008": "00", "P29_009": null }, "geometry": { "type": "Point", "coordinates": [ 139.065147476828201, 36.391198254262378 ] } },
{ "type": "Feature", "properties": { "P29_001": "10201", "P29_002": "H110310000673", "P29_003": "16016", "P29_004": "蒼羽藝術高等専修学校", "P29_005": "群馬県前橋市表町1-28-13", "P29_006": "4", "P29_007": "0", "P29_008": "00", "P29_009": null }, "geometry": { "type": "Point", "coordinates": [ 139.066893560618297, 36.383270368476687 ] } },
{ "type": "Feature", "properties": { "P29_001": "10205", "P29_002": "H110310000682", "P29_003": "16016", "P29_004": "太田工科専門学校", "P29_005": "群馬県太田市東本町53-14", "P29_006": "4", "P29_007": "0", "P29_008": "00", "P29_009": null }, "geometry": { "type": "Point", "coordinates": [ 139.380186255717035, 36.30187515237877 ] } }
]
}
