{
"type": "FeatureCollection",
"name": "geo_10_中等教育学校",
"crs": { "type": "name", "properties": { "name": "urn:ogc:def:crs:EPSG::6668" } },
"features": [
{ "type": "Feature", "properties": { "P29_001": "10202", "P29_002": "D210210000012", "P29_003": "16003", "P29_004": "群馬県立中央中等教育学校", "P29_005": "群馬県高崎市新保田中町184", "P29_006": "2", "P29_007": "0", "P29_008": "00", "P29_009": null }, "geometry": { "type": "Point", "coordinates": [ 139.046094595952155, 36.356984681610378 ] } },
{ "type": "Feature", "properties": { "P29_001": "10204", "P29_002": "D210210000021", "P29_003": "16003", "P29_004": "伊勢崎市立四ツ葉学園中等教育学校", "P29_005": "群馬県伊勢崎市上植木本町1702-1", "P29_006": "3", "P29_007": "0", "P29_008": "00", "P29_009": null }, "geometry": { "type": "Point", "coordinates": [ 139.208237004111908, 36.332227000182343 ] } }
]
}
