{
"type": "FeatureCollection",
"name": "geo_10_短期入所療養介護（介護老人保健施設）",
"crs": { "type": "name", "properties": { "name": "urn:ogc:def:crs:OGC:1.3:CRS84" } },
"features": [
{ "type": "Feature", "properties": { "内容": "介護老人保健施設　おうみ【短期入所療養介護（介護老人保健施設）】群馬県前橋市総社町総社２６２８", "url2": "https://www.kaigokensaku.mhlw.go.jp/10/index.php?action_kouhyou_detail_004_kani=true&JigyosyoCd=1050180122-00&ServiceCd=220&Type=search" }, "geometry": { "type": "Point", "coordinates": [ 139.032905699999986, 36.3956938 ] } },
{ "type": "Feature", "properties": { "内容": "介護老人保健施設青梨子荘【短期入所療養介護（介護老人保健施設）】群馬県前橋市青梨子町１６７０", "url2": "https://www.kaigokensaku.mhlw.go.jp/10/index.php?action_kouhyou_detail_004_kani=true&JigyosyoCd=1050180072-00&ServiceCd=220&Type=search" }, "geometry": { "type": "Point", "coordinates": [ 139.011307200000033, 36.4058111 ] } },
{ "type": "Feature", "properties": { "内容": "介護老人保健施設　けやき苑【短期入所療養介護（介護老人保健施設）】群馬県前橋市下大島町５９６－１", "url2": "https://www.kaigokensaku.mhlw.go.jp/10/index.php?action_kouhyou_detail_004_kani=true&JigyosyoCd=1050180056-00&ServiceCd=220&Type=search" }, "geometry": { "type": "Point", "coordinates": [ 139.114920604754587, 36.360858987237393 ] } },
{ "type": "Feature", "properties": { "内容": "老人保健施設ビハーラ寿苑【短期入所療養介護（介護老人保健施設）】群馬県前橋市江木町1072", "url2": "https://www.kaigokensaku.mhlw.go.jp/10/index.php?action_kouhyou_detail_004_kani=true&JigyosyoCd=1050180049-00&ServiceCd=220&Type=search" }, "geometry": { "type": "Point", "coordinates": [ 139.138734600000021, 36.3998073 ] } },
{ "type": "Feature", "properties": { "内容": "独立行政法人地域医療機能推進機構群馬中央病院附属介護老人保健施設【短期入所療養介護（介護老人保健施設）】群馬県前橋市紅雲町一丁目７番１３号", "url2": "https://www.kaigokensaku.mhlw.go.jp/10/index.php?action_kouhyou_detail_004_kani=true&JigyosyoCd=1050180080-00&ServiceCd=220&Type=search" }, "geometry": { "type": "Point", "coordinates": [ 139.060896683599509, 36.386020953904243 ] } },
{ "type": "Feature", "properties": { "内容": "介護老人保健施設　山王ライフ【短期入所療養介護（介護老人保健施設）】群馬県前橋市山王町133番地", "url2": "https://www.kaigokensaku.mhlw.go.jp/10/index.php?action_kouhyou_detail_004_kani=true&JigyosyoCd=1050180098-00&ServiceCd=220&Type=search" }, "geometry": { "type": "Point", "coordinates": [ 139.124543300000028, 36.3500372 ] } },
{ "type": "Feature", "properties": { "内容": "介護老人保健施設やまぶき【短期入所療養介護（介護老人保健施設）】群馬県前橋市小屋原町977-3", "url2": "https://www.kaigokensaku.mhlw.go.jp/10/index.php?action_kouhyou_detail_004_kani=true&JigyosyoCd=1050180114-00&ServiceCd=220&Type=search" }, "geometry": { "type": "Point", "coordinates": [ 139.135652454322809, 36.357520923111437 ] } },
{ "type": "Feature", "properties": { "内容": "介護老人保健施設やまぶき【短期入所療養介護（介護老人保健施設）】群馬県前橋市小屋原町977-3", "url2": "https://www.kaigokensaku.mhlw.go.jp/10/index.php?action_kouhyou_detail_004_kani=true&JigyosyoCd=1050180130-00&ServiceCd=220&Type=search" }, "geometry": { "type": "Point", "coordinates": [ 139.13932479999994, 36.3552287 ] } },
{ "type": "Feature", "properties": { "内容": "老人保健施設　一羊館【短期入所療養介護（介護老人保健施設）】群馬県前橋市小坂子町1012-5", "url2": "https://www.kaigokensaku.mhlw.go.jp/10/index.php?action_kouhyou_detail_004_kani=true&JigyosyoCd=1050180064-00&ServiceCd=220&Type=search" }, "geometry": { "type": "Point", "coordinates": [ 139.115393400000016, 36.4228755 ] } },
{ "type": "Feature", "properties": { "内容": "社会福祉法人恩賜財団済生会支部群馬県済生会老人保健施設あずま荘【短期入所療養介護（介護老人保健施設）】群馬県前橋市上新田町603-1", "url2": "https://www.kaigokensaku.mhlw.go.jp/10/index.php?action_kouhyou_detail_004_kani=true&JigyosyoCd=1050180023-00&ServiceCd=220&Type=search" }, "geometry": { "type": "Point", "coordinates": [ 139.060476200000039, 36.3681624 ] } },
{ "type": "Feature", "properties": { "内容": "介護老人保健施設おうみ【短期入所療養介護（介護老人保健施設）】群馬県前橋市総社町総社２６２８", "url2": "https://www.kaigokensaku.mhlw.go.jp/10/index.php?action_kouhyou_detail_004_kani=true&JigyosyoCd=1050180148-00&ServiceCd=220&Type=search" }, "geometry": { "type": "Point", "coordinates": [ 139.0332915, 36.3956975 ] } },
{ "type": "Feature", "properties": { "内容": "群馬老人保健センター陽光苑【短期入所療養介護（介護老人保健施設）】群馬県前橋市大友町3-26-8", "url2": "https://www.kaigokensaku.mhlw.go.jp/10/index.php?action_kouhyou_detail_004_kani=true&JigyosyoCd=1050180015-00&ServiceCd=220&Type=search" }, "geometry": { "type": "Point", "coordinates": [ 139.042285399999969, 36.3927889 ] } },
{ "type": "Feature", "properties": { "内容": "介護老人保健施設　創春館【短期入所療養介護（介護老人保健施設）】群馬県前橋市日輪寺町東田342-1", "url2": "https://www.kaigokensaku.mhlw.go.jp/10/index.php?action_kouhyou_detail_004_kani=true&JigyosyoCd=1050180106-00&ServiceCd=220&Type=search" }, "geometry": { "type": "Point", "coordinates": [ 139.062645807409694, 36.432499090409237 ] } },
{ "type": "Feature", "properties": { "内容": "介護老人保健施設　森の泉【短期入所療養介護（介護老人保健施設）】群馬県高崎市井出町1280-4", "url2": "https://www.kaigokensaku.mhlw.go.jp/10/index.php?action_kouhyou_detail_004_kani=true&JigyosyoCd=1050280146-00&ServiceCd=220&Type=search" }, "geometry": { "type": "Point", "coordinates": [ 138.9841442, 36.3738957 ] } },
{ "type": "Feature", "properties": { "内容": "介護老人保健施設　森の泉【短期入所療養介護（介護老人保健施設）】群馬県高崎市井出町1280-4", "url2": "https://www.kaigokensaku.mhlw.go.jp/10/index.php?action_kouhyou_detail_004_kani=true&JigyosyoCd=1052180047-00&ServiceCd=220&Type=search" }, "geometry": { "type": "Point", "coordinates": [ 138.9841626, 36.3738178 ] } },
{ "type": "Feature", "properties": { "内容": "介護老人保健施設　太陽【短期入所療養介護（介護老人保健施設）】群馬県高崎市井野町1040", "url2": "https://www.kaigokensaku.mhlw.go.jp/10/index.php?action_kouhyou_detail_004_kani=true&JigyosyoCd=1050280070-00&ServiceCd=220&Type=search" }, "geometry": { "type": "Point", "coordinates": [ 139.027404700000034, 36.3526129 ] } },
{ "type": "Feature", "properties": { "内容": "介護老人保健施設　ウェルライフ三愛【短期入所療養介護（介護老人保健施設）】群馬県高崎市金古町1758", "url2": "https://www.kaigokensaku.mhlw.go.jp/10/index.php?action_kouhyou_detail_004_kani=true&JigyosyoCd=1052180039-00&ServiceCd=220&Type=search" }, "geometry": { "type": "Point", "coordinates": [ 138.988103099999989, 36.4168869 ] } },
{ "type": "Feature", "properties": { "内容": "介護老人保健施設　春照苑【短期入所療養介護（介護老人保健施設）】群馬県高崎市江木町　７１７番地介護老人保健施設　春照苑", "url2": "https://www.kaigokensaku.mhlw.go.jp/10/index.php?action_kouhyou_detail_004_kani=true&JigyosyoCd=1050280047-00&ServiceCd=220&Type=search" }, "geometry": { "type": "Point", "coordinates": [ 139.020228, 36.335642 ] } },
{ "type": "Feature", "properties": { "内容": "介護老人保健施設ジャスミン【短期入所療養介護（介護老人保健施設）】群馬県高崎市上小塙町565番地1もてき介護福祉センター2階", "url2": "https://www.kaigokensaku.mhlw.go.jp/10/index.php?action_kouhyou_detail_004_kani=true&JigyosyoCd=1050280179-00&ServiceCd=220&Type=search" }, "geometry": { "type": "Point", "coordinates": [ 138.978814644705125, 36.359938462430144 ] } },
{ "type": "Feature", "properties": { "内容": "介護老人保健施設　若宮苑【短期入所療養介護（介護老人保健施設）】群馬県高崎市上大類町７５９", "url2": "https://www.kaigokensaku.mhlw.go.jp/10/index.php?action_kouhyou_detail_004_kani=true&JigyosyoCd=1050280021-00&ServiceCd=220&Type=search" }, "geometry": { "type": "Point", "coordinates": [ 139.030210500000067, 36.3339895 ] } },
{ "type": "Feature", "properties": { "内容": "介護老人保健施設　ケアピース【短期入所療養介護（介護老人保健施設）】群馬県高崎市上豊岡町１１６８－１", "url2": "https://www.kaigokensaku.mhlw.go.jp/10/index.php?action_kouhyou_detail_004_kani=true&JigyosyoCd=1050280054-00&ServiceCd=220&Type=search" }, "geometry": { "type": "Point", "coordinates": [ 138.9698745, 36.3430962 ] } },
{ "type": "Feature", "properties": { "内容": "介護老人保健施設　あけぼの苑高崎【短期入所療養介護（介護老人保健施設）】群馬県高崎市上豊岡町８２７－１", "url2": "https://www.kaigokensaku.mhlw.go.jp/10/index.php?action_kouhyou_detail_004_kani=true&JigyosyoCd=1050280062-00&ServiceCd=220&Type=search" }, "geometry": { "type": "Point", "coordinates": [ 138.966756600000053, 36.3432708 ] } },
{ "type": "Feature", "properties": { "内容": "二之沢パナケア介護老人保健施設【短期入所療養介護（介護老人保健施設）】群馬県高崎市足門町158-2", "url2": "https://www.kaigokensaku.mhlw.go.jp/10/index.php?action_kouhyou_detail_004_kani=true&JigyosyoCd=1052180021-00&ServiceCd=220&Type=search" }, "geometry": { "type": "Point", "coordinates": [ 138.981196, 36.402619 ] } },
{ "type": "Feature", "properties": { "内容": "介護老人保健施設　老健くろさわ【短期入所療養介護（介護老人保健施設）】群馬県高崎市中居町3-19-2", "url2": "https://www.kaigokensaku.mhlw.go.jp/10/index.php?action_kouhyou_detail_004_kani=true&JigyosyoCd=1050280153-00&ServiceCd=220&Type=search" }, "geometry": { "type": "Point", "coordinates": [ 139.0407768, 36.3144099 ] } },
{ "type": "Feature", "properties": { "内容": "介護老人保健施設　老健くろさわユニットさくら【短期入所療養介護（介護老人保健施設）】群馬県高崎市中居町3-19-2", "url2": "https://www.kaigokensaku.mhlw.go.jp/10/index.php?action_kouhyou_detail_004_kani=true&JigyosyoCd=1050280161-00&ServiceCd=220&Type=search" }, "geometry": { "type": "Point", "coordinates": [ 139.0407768, 36.3144099 ] } },
{ "type": "Feature", "properties": { "内容": "介護老人保健施設　あけぼの苑【短期入所療養介護（介護老人保健施設）】群馬県高崎市中室田町2258-1", "url2": "https://www.kaigokensaku.mhlw.go.jp/10/index.php?action_kouhyou_detail_004_kani=true&JigyosyoCd=1052180013-00&ServiceCd=220&Type=search" }, "geometry": { "type": "Point", "coordinates": [ 138.859086899999966, 36.3973483 ] } },
{ "type": "Feature", "properties": { "内容": "介護療養型老人保健施設みさと【短期入所療養介護（介護老人保健施設）】群馬県高崎市箕郷町上芝６２８番地２", "url2": "https://www.kaigokensaku.mhlw.go.jp/10/index.php?action_kouhyou_detail_004_kani=true&JigyosyoCd=1050280120-00&ServiceCd=220&Type=search" }, "geometry": { "type": "Point", "coordinates": [ 138.9566001, 36.3826371 ] } },
{ "type": "Feature", "properties": { "内容": "介護老人保健施設みさと【短期入所療養介護（介護老人保健施設）】群馬県高崎市箕郷町上芝６２８－1", "url2": "https://www.kaigokensaku.mhlw.go.jp/10/index.php?action_kouhyou_detail_004_kani=true&JigyosyoCd=1052180005-00&ServiceCd=220&Type=search" }, "geometry": { "type": "Point", "coordinates": [ 138.956623, 36.3830489 ] } },
{ "type": "Feature", "properties": { "内容": "介護老人保健施設いずみ【短期入所療養介護（介護老人保健施設）】群馬県高崎市箕郷町矢原12番地1", "url2": "https://www.kaigokensaku.mhlw.go.jp/10/index.php?action_kouhyou_detail_004_kani=true&JigyosyoCd=1050280187-00&ServiceCd=220&Type=search" }, "geometry": { "type": "Point", "coordinates": [ 138.962720100000013, 36.3972649 ] } },
{ "type": "Feature", "properties": { "内容": "高崎老人保健施設福寿苑【短期入所療養介護（介護老人保健施設）】群馬県高崎市矢中町841", "url2": "https://www.kaigokensaku.mhlw.go.jp/10/index.php?action_kouhyou_detail_004_kani=true&JigyosyoCd=1050280039-00&ServiceCd=220&Type=search" }, "geometry": { "type": "Point", "coordinates": [ 139.051315100000011, 36.3047688 ] } },
{ "type": "Feature", "properties": { "内容": "介護老人保健施設　和光園【短期入所療養介護（介護老人保健施設）】群馬県高崎市矢島町４４９－２", "url2": "https://www.kaigokensaku.mhlw.go.jp/10/index.php?action_kouhyou_detail_004_kani=true&JigyosyoCd=1050280013-00&ServiceCd=220&Type=search" }, "geometry": { "type": "Point", "coordinates": [ 139.0493188, 36.3393203 ] } },
{ "type": "Feature", "properties": { "内容": "介護老人保健施設グッドウェル【短期入所療養介護（介護老人保健施設）】群馬県高崎市吉井町吉井415-1", "url2": "https://www.kaigokensaku.mhlw.go.jp/10/index.php?action_kouhyou_detail_004_kani=true&JigyosyoCd=1052380019-00&ServiceCd=220&Type=search" }, "geometry": { "type": "Point", "coordinates": [ 138.983693, 36.2563809 ] } },
{ "type": "Feature", "properties": { "内容": "介護老人保健施設さくら苑【短期入所療養介護（介護老人保健施設）】群馬県桐生市新里町新川２４８８", "url2": "https://www.kaigokensaku.mhlw.go.jp/10/index.php?action_kouhyou_detail_004_kani=true&JigyosyoCd=1052080023-00&ServiceCd=220&Type=search" }, "geometry": { "type": "Point", "coordinates": [ 139.250720099999967, 36.4221876 ] } },
{ "type": "Feature", "properties": { "内容": "介護老人保健施設　旭ヶ丘【短期入所療養介護（介護老人保健施設）】群馬県伊勢崎市間野谷町１３５－１", "url2": "https://www.kaigokensaku.mhlw.go.jp/10/index.php?action_kouhyou_detail_004_kani=true&JigyosyoCd=1052880034-00&ServiceCd=220&Type=search" }, "geometry": { "type": "Point", "coordinates": [ 139.26671650000003, 36.3740785 ] } },
{ "type": "Feature", "properties": { "内容": "介護老人保健施設アルボース【短期入所療養介護（介護老人保健施設）】群馬県伊勢崎市太田町427-3", "url2": "https://www.kaigokensaku.mhlw.go.jp/10/index.php?action_kouhyou_detail_004_kani=true&JigyosyoCd=1050480019-00&ServiceCd=220&Type=search" }, "geometry": { "type": "Point", "coordinates": [ 139.180090899999982, 36.3282338 ] } },
{ "type": "Feature", "properties": { "内容": "アルボース（ユニット）【短期入所療養介護（介護老人保健施設）】群馬県伊勢崎市太田町427-3", "url2": "https://www.kaigokensaku.mhlw.go.jp/10/index.php?action_kouhyou_detail_004_kani=true&JigyosyoCd=1050480050-00&ServiceCd=220&Type=search" }, "geometry": { "type": "Point", "coordinates": [ 139.180057600000026, 36.3283671 ] } },
{ "type": "Feature", "properties": { "内容": "介護老人保健施設　まゆ玉【短期入所療養介護（介護老人保健施設）】群馬県伊勢崎市長沼町２６６４－１", "url2": "https://www.kaigokensaku.mhlw.go.jp/10/index.php?action_kouhyou_detail_004_kani=true&JigyosyoCd=1050480035-00&ServiceCd=220&Type=search" }, "geometry": { "type": "Point", "coordinates": [ 139.213297900000043, 36.2648893 ] } },
{ "type": "Feature", "properties": { "内容": "介護老人保健施設ひまわり【短期入所療養介護（介護老人保健施設）】群馬県伊勢崎市連取本町１２番地１", "url2": "https://www.kaigokensaku.mhlw.go.jp/10/index.php?action_kouhyou_detail_004_kani=true&JigyosyoCd=1050480043-00&ServiceCd=220&Type=search" }, "geometry": { "type": "Point", "coordinates": [ 139.17756380000003, 36.3230399 ] } },
{ "type": "Feature", "properties": { "内容": "介護老人保健施設　聖寿園【短期入所療養介護（介護老人保健施設）】太田市熊野町３８－８１", "url2": "https://www.kaigokensaku.mhlw.go.jp/10/index.php?action_kouhyou_detail_004_kani=true&JigyosyoCd=1050580016-00&ServiceCd=220&Type=search" }, "geometry": { "type": "Point", "coordinates": [ 139.384289200000012, 36.3074686 ] } },
{ "type": "Feature", "properties": { "内容": "介護老人保健施設　希望の苑【短期入所療養介護（介護老人保健施設）】群馬県太田市高林北町1138", "url2": "https://www.kaigokensaku.mhlw.go.jp/10/index.php?action_kouhyou_detail_004_kani=true&JigyosyoCd=1050580024-00&ServiceCd=220&Type=search" }, "geometry": { "type": "Point", "coordinates": [ 139.371441600000026, 36.2636 ] } },
{ "type": "Feature", "properties": { "内容": "介護老人保健施設　あけぼの荘【短期入所療養介護（介護老人保健施設）】群馬県太田市西本町１３－９", "url2": "https://www.kaigokensaku.mhlw.go.jp/10/index.php?action_kouhyou_detail_004_kani=true&JigyosyoCd=1050580032-00&ServiceCd=220&Type=search" }, "geometry": { "type": "Point", "coordinates": [ 139.36690729999998, 36.2947856 ] } },
{ "type": "Feature", "properties": { "内容": "医療法人財団　明理会　介護老人保健施設　イムスやぶづかロイヤルケアセンター【短期入所療養介護（介護老人保健施設）】群馬県太田市大原町531-3", "url2": "https://www.kaigokensaku.mhlw.go.jp/10/index.php?action_kouhyou_detail_004_kani=true&JigyosyoCd=1050580073-00&ServiceCd=220&Type=search" }, "geometry": { "type": "Point", "coordinates": [ 139.296267, 36.3568174 ] } },
{ "type": "Feature", "properties": { "内容": "介護老人保健施設　ふじあく光荘【短期入所療養介護（介護老人保健施設）】群馬県太田市藤阿久町３４５", "url2": "https://www.kaigokensaku.mhlw.go.jp/10/index.php?action_kouhyou_detail_004_kani=true&JigyosyoCd=1050580065-00&ServiceCd=220&Type=search" }, "geometry": { "type": "Point", "coordinates": [ 139.360691299999985, 36.2852643 ] } },
{ "type": "Feature", "properties": { "内容": "ふじあく光荘(ユニット)【短期入所療養介護（介護老人保健施設）】群馬県太田市藤阿久町３４５番地", "url2": "https://www.kaigokensaku.mhlw.go.jp/10/index.php?action_kouhyou_detail_004_kani=true&JigyosyoCd=1050580099-00&ServiceCd=220&Type=search" }, "geometry": { "type": "Point", "coordinates": [ 139.360691299999985, 36.2852643 ] } },
{ "type": "Feature", "properties": { "内容": "介護老人保健施設　高砂荘【短期入所療養介護（介護老人保健施設）】群馬県太田市飯塚町973-1", "url2": "https://www.kaigokensaku.mhlw.go.jp/10/index.php?action_kouhyou_detail_004_kani=true&JigyosyoCd=1050580040-00&ServiceCd=220&Type=search" }, "geometry": { "type": "Point", "coordinates": [ 139.388856499999946, 36.2767544 ] } },
{ "type": "Feature", "properties": { "内容": "介護老人保健施設　宏愛苑【短期入所療養介護（介護老人保健施設）】群馬県太田市六千石町５９", "url2": "https://www.kaigokensaku.mhlw.go.jp/10/index.php?action_kouhyou_detail_004_kani=true&JigyosyoCd=1050380011-00&ServiceCd=220&Type=search" }, "geometry": { "type": "Point", "coordinates": [ 139.28830265464785, 36.335386429554767 ] } },
{ "type": "Feature", "properties": { "内容": "介護老人保健施設　大誠苑【短期入所療養介護（介護老人保健施設）】群馬県沼田市久屋原町３４５－１", "url2": "https://www.kaigokensaku.mhlw.go.jp/10/index.php?action_kouhyou_detail_004_kani=true&JigyosyoCd=1050680014-00&ServiceCd=220&Type=search" }, "geometry": { "type": "Point", "coordinates": [ 139.10431589999996, 36.6658499 ] } },
{ "type": "Feature", "properties": { "内容": "介護老人保健施設　恵寿の園【短期入所療養介護（介護老人保健施設）】群馬県沼田市上原町１５５５－３", "url2": "https://www.kaigokensaku.mhlw.go.jp/10/index.php?action_kouhyou_detail_004_kani=true&JigyosyoCd=1050680022-00&ServiceCd=220&Type=search" }, "geometry": { "type": "Point", "coordinates": [ 139.059678800000029, 36.6472327 ] } },
{ "type": "Feature", "properties": { "内容": "介護老人保健施設とね【短期入所療養介護（介護老人保健施設）】群馬県沼田市東原新町1917番地1", "url2": "https://www.kaigokensaku.mhlw.go.jp/10/index.php?action_kouhyou_detail_004_kani=true&JigyosyoCd=1050680030-00&ServiceCd=220&Type=search" }, "geometry": { "type": "Point", "coordinates": [ 139.055176299999971, 36.6508156 ] } },
{ "type": "Feature", "properties": { "内容": "ナーシングホーム館林（ユニット）【短期入所療養介護（介護老人保健施設）】群馬県館林市赤生田町1865-1", "url2": "https://www.kaigokensaku.mhlw.go.jp/10/index.php?action_kouhyou_detail_004_kani=true&JigyosyoCd=1050780046-00&ServiceCd=220&Type=search" }, "geometry": { "type": "Point", "coordinates": [ 139.563347099999987, 36.2271847 ] } },
{ "type": "Feature", "properties": { "内容": "介護老人保健施設　ナーシングホーム館林【短期入所療養介護（介護老人保健施設）】群馬県館林市赤生田町1865-1", "url2": "https://www.kaigokensaku.mhlw.go.jp/10/index.php?action_kouhyou_detail_004_kani=true&JigyosyoCd=1050780012-00&ServiceCd=220&Type=search" }, "geometry": { "type": "Point", "coordinates": [ 139.563347099999987, 36.2271847 ] } },
{ "type": "Feature", "properties": { "内容": "介護老人保健施設すみれの里【短期入所療養介護（介護老人保健施設）】群馬県館林市坂下町３１９１－１", "url2": "https://www.kaigokensaku.mhlw.go.jp/10/index.php?action_kouhyou_detail_004_kani=true&JigyosyoCd=1050780020-00&ServiceCd=220&Type=search" }, "geometry": { "type": "Point", "coordinates": [ 139.53446550000001, 36.2560438 ] } },
{ "type": "Feature", "properties": { "内容": "介護老人保健施設虹の郷すわ【短期入所療養介護（介護老人保健施設）】群馬県館林市諏訪町1509", "url2": "https://www.kaigokensaku.mhlw.go.jp/10/index.php?action_kouhyou_detail_004_kani=true&JigyosyoCd=1050780038-00&ServiceCd=220&Type=search" }, "geometry": { "type": "Point", "coordinates": [ 139.5172814, 36.2321466 ] } },
{ "type": "Feature", "properties": { "内容": "介護老人保健施設からたちの丘【短期入所療養介護（介護老人保健施設）】群馬県渋川市赤城町津久田4013-1", "url2": "https://www.kaigokensaku.mhlw.go.jp/10/index.php?action_kouhyou_detail_004_kani=true&JigyosyoCd=1050880036-00&ServiceCd=220&Type=search" }, "geometry": { "type": "Point", "coordinates": [ 139.053283100000044, 36.5376373 ] } },
{ "type": "Feature", "properties": { "内容": "介護老人保健施設　銀玲【短期入所療養介護（介護老人保健施設）】群馬県渋川市石原564-1", "url2": "https://www.kaigokensaku.mhlw.go.jp/10/index.php?action_kouhyou_detail_004_kani=true&JigyosyoCd=1050880010-00&ServiceCd=220&Type=search" }, "geometry": { "type": "Point", "coordinates": [ 139.004211899999973, 36.4848267 ] } },
{ "type": "Feature", "properties": { "内容": "介護老人保健施設　銀玲　ユニット【短期入所療養介護（介護老人保健施設）】群馬県渋川市石原564-1", "url2": "https://www.kaigokensaku.mhlw.go.jp/10/index.php?action_kouhyou_detail_004_kani=true&JigyosyoCd=1050880028-00&ServiceCd=220&Type=search" }, "geometry": { "type": "Point", "coordinates": [ 139.004248, 36.48486 ] } },
{ "type": "Feature", "properties": { "内容": "介護老人保健施設　赤城苑（ユニット型）【短期入所療養介護（介護老人保健施設）】群馬県渋川市赤城町北赤城山１０５５－１", "url2": "https://www.kaigokensaku.mhlw.go.jp/10/index.php?action_kouhyou_detail_004_kani=true&JigyosyoCd=1050880051-00&ServiceCd=220&Type=search" }, "geometry": { "type": "Point", "coordinates": [ 139.067188200000032, 36.5403991 ] } },
{ "type": "Feature", "properties": { "内容": "介護老人保健施設　赤城苑【短期入所療養介護（介護老人保健施設）】群馬県渋川市赤城町北赤城山1055-1", "url2": "https://www.kaigokensaku.mhlw.go.jp/10/index.php?action_kouhyou_detail_004_kani=true&JigyosyoCd=1052080031-00&ServiceCd=220&Type=search" }, "geometry": { "type": "Point", "coordinates": [ 139.0669929, 36.5401692 ] } },
{ "type": "Feature", "properties": { "内容": "介護老人保健施設ほくもう【短期入所療養介護（介護老人保健施設）】群馬県渋川市有馬259-1", "url2": "https://www.kaigokensaku.mhlw.go.jp/10/index.php?action_kouhyou_detail_004_kani=true&JigyosyoCd=1050880002-00&ServiceCd=220&Type=search" }, "geometry": { "type": "Point", "coordinates": [ 139.005678, 36.4995585 ] } },
{ "type": "Feature", "properties": { "内容": "介護老人保健施設藤岡みどりの園（ユニット）【短期入所療養介護（介護老人保健施設）】群馬県藤岡市篠塚東イツナ105-1", "url2": "https://www.kaigokensaku.mhlw.go.jp/10/index.php?action_kouhyou_detail_004_kani=true&JigyosyoCd=1050980034-00&ServiceCd=220&Type=search" }, "geometry": { "type": "Point", "coordinates": [ 139.064269758860746, 36.258315520486953 ] } },
{ "type": "Feature", "properties": { "内容": "藤岡市介護老人保健施設鬼石【短期入所療養介護（介護老人保健施設）】群馬県藤岡市鬼石１３９－１", "url2": "https://www.kaigokensaku.mhlw.go.jp/10/index.php?action_kouhyou_detail_004_kani=true&JigyosyoCd=1050980000-00&ServiceCd=220&Type=search" }, "geometry": { "type": "Point", "coordinates": [ 139.061234499999955, 36.1574244 ] } },
{ "type": "Feature", "properties": { "内容": "サテライト型小規模介護老人保健施設ぬきさき【短期入所療養介護（介護老人保健施設）】群馬県富岡市一ノ宮1745-1", "url2": "https://www.kaigokensaku.mhlw.go.jp/10/index.php?action_kouhyou_detail_004_kani=true&JigyosyoCd=1051080057-00&ServiceCd=220&Type=search" }, "geometry": { "type": "Point", "coordinates": [ 138.861743599999954, 36.2518027 ] } },
{ "type": "Feature", "properties": { "内容": "介護老人保健施設ミドルホーム富岡【短期入所療養介護（介護老人保健施設）】群馬県富岡市岡本９６５", "url2": "https://www.kaigokensaku.mhlw.go.jp/10/index.php?action_kouhyou_detail_004_kani=true&JigyosyoCd=1051080016-00&ServiceCd=220&Type=search" }, "geometry": { "type": "Point", "coordinates": [ 138.8886781, 36.2381682 ] } },
{ "type": "Feature", "properties": { "内容": "介護老人保健施設ココン【短期入所療養介護（介護老人保健施設）】群馬県富岡市上小林47", "url2": "https://www.kaigokensaku.mhlw.go.jp/10/index.php?action_kouhyou_detail_004_kani=true&JigyosyoCd=1051080032-00&ServiceCd=220&Type=search" }, "geometry": { "type": "Point", "coordinates": [ 138.825994900000069, 36.2372239 ] } },
{ "type": "Feature", "properties": { "内容": "介護老人保健施設こまち【短期入所療養介護（介護老人保健施設）】群馬県富岡市相野田469", "url2": "https://www.kaigokensaku.mhlw.go.jp/10/index.php?action_kouhyou_detail_004_kani=true&JigyosyoCd=1051080024-00&ServiceCd=220&Type=search" }, "geometry": { "type": "Point", "coordinates": [ 138.924873849598725, 36.283498279113395 ] } },
{ "type": "Feature", "properties": { "内容": "介護老人保健施設　めぐみ【短期入所療養介護（介護老人保健施設）】群馬県安中市安中3-25-13", "url2": "https://www.kaigokensaku.mhlw.go.jp/10/index.php?action_kouhyou_detail_004_kani=true&JigyosyoCd=1051180014-00&ServiceCd=220&Type=search" }, "geometry": { "type": "Point", "coordinates": [ 138.90023640000004, 36.3287816 ] } },
{ "type": "Feature", "properties": { "内容": "介護老人保健施設うららく【短期入所療養介護（介護老人保健施設）】群馬県安中市鷺宮２０５－１", "url2": "https://www.kaigokensaku.mhlw.go.jp/10/index.php?action_kouhyou_detail_004_kani=true&JigyosyoCd=1051180022-00&ServiceCd=220&Type=search" }, "geometry": { "type": "Point", "coordinates": [ 138.89696570000001, 36.3051779 ] } },
{ "type": "Feature", "properties": { "内容": "介護老人保健施設　せせらぎ苑【短期入所療養介護（介護老人保健施設）】群馬県安中市松井田町新堀1300-1", "url2": "https://www.kaigokensaku.mhlw.go.jp/10/index.php?action_kouhyou_detail_004_kani=true&JigyosyoCd=1052580014-00&ServiceCd=220&Type=search" }, "geometry": { "type": "Point", "coordinates": [ 138.792669, 36.3183193 ] } },
{ "type": "Feature", "properties": { "内容": "介護老人保健施設サンホープ笠懸【短期入所療養介護（介護老人保健施設）】群馬県みどり市笠懸町鹿２６４６－１", "url2": "https://www.kaigokensaku.mhlw.go.jp/10/index.php?action_kouhyou_detail_004_kani=true&JigyosyoCd=1052980024-00&ServiceCd=220&Type=search" }, "geometry": { "type": "Point", "coordinates": [ 139.281529, 36.3996566 ] } },
{ "type": "Feature", "properties": { "内容": "介護老人保健施設　プランタンおおまま【短期入所療養介護（介護老人保健施設）】群馬県みどり市大間々町桐原1570-498", "url2": "https://www.kaigokensaku.mhlw.go.jp/10/index.php?action_kouhyou_detail_004_kani=true&JigyosyoCd=1053080014-00&ServiceCd=220&Type=search" }, "geometry": { "type": "Point", "coordinates": [ 139.265759900000035, 36.4417463 ] } },
{ "type": "Feature", "properties": { "内容": "介護老人保健施設　リハビリホーム　喜望峰【短期入所療養介護（介護老人保健施設）】群馬県北群馬郡榛東村山子田2547-1", "url2": "https://www.kaigokensaku.mhlw.go.jp/10/index.php?action_kouhyou_detail_004_kani=true&JigyosyoCd=1052280003-00&ServiceCd=220&Type=search" }, "geometry": { "type": "Point", "coordinates": [ 138.966487, 36.4401668 ] } },
{ "type": "Feature", "properties": { "内容": "介護老人保健施設　リハビリホーム喜望峰（ユニット型）【短期入所療養介護（介護老人保健施設）】群馬県北群馬郡榛東村山子田2547-1", "url2": "https://www.kaigokensaku.mhlw.go.jp/10/index.php?action_kouhyou_detail_004_kani=true&JigyosyoCd=1052280037-00&ServiceCd=220&Type=search" }, "geometry": { "type": "Point", "coordinates": [ 138.966487, 36.4401668 ] } },
{ "type": "Feature", "properties": { "内容": "介護老人保健施設みずき荘（ユニット）【短期入所療養介護（介護老人保健施設）】群馬県北群馬郡吉岡町陣場９８番地", "url2": "https://www.kaigokensaku.mhlw.go.jp/10/index.php?action_kouhyou_detail_004_kani=true&JigyosyoCd=1052280029-00&ServiceCd=220&Type=search" }, "geometry": { "type": "Point", "coordinates": [ 139.005420100000038, 36.4310385 ] } },
{ "type": "Feature", "properties": { "内容": "介護老人保健施設みずき荘【短期入所療養介護（介護老人保健施設）】群馬県北群馬郡吉岡町陣場９８番地", "url2": "https://www.kaigokensaku.mhlw.go.jp/10/index.php?action_kouhyou_detail_004_kani=true&JigyosyoCd=1052280011-00&ServiceCd=220&Type=search" }, "geometry": { "type": "Point", "coordinates": [ 139.005420100000038, 36.4310385 ] } },
{ "type": "Feature", "properties": { "内容": "中之条町介護老人保健施設ゆうあい荘【短期入所療養介護（介護老人保健施設）】群馬県吾妻郡中之条町大字上沢渡２１３３－４", "url2": "https://www.kaigokensaku.mhlw.go.jp/10/index.php?action_kouhyou_detail_004_kani=true&JigyosyoCd=1052680020-00&ServiceCd=220&Type=search" }, "geometry": { "type": "Point", "coordinates": [ 138.766373700000031, 36.6248592 ] } },
{ "type": "Feature", "properties": { "内容": "介護老人保健施設りんどうの里【短期入所療養介護（介護老人保健施設）】群馬県吾妻郡高山村大字中山２７１５番地２", "url2": "https://www.kaigokensaku.mhlw.go.jp/10/index.php?action_kouhyou_detail_004_kani=true&JigyosyoCd=1052680038-00&ServiceCd=220&Type=search" }, "geometry": { "type": "Point", "coordinates": [ 138.951940199999967, 36.6226336 ] } },
{ "type": "Feature", "properties": { "内容": "介護老人保健施設　武尊荘【短期入所療養介護（介護老人保健施設）】群馬県利根郡川場村生品１８６１", "url2": "https://www.kaigokensaku.mhlw.go.jp/10/index.php?action_kouhyou_detail_004_kani=true&JigyosyoCd=1052780010-00&ServiceCd=220&Type=search" }, "geometry": { "type": "Point", "coordinates": [ 139.078040399999963, 36.6692134 ] } },
{ "type": "Feature", "properties": { "内容": "ユニット型　介護老人保健施設たまむら【短期入所療養介護（介護老人保健施設）】群馬県佐波郡玉村町上新田675-1", "url2": "https://www.kaigokensaku.mhlw.go.jp/10/index.php?action_kouhyou_detail_004_kani=true&JigyosyoCd=1052880042-00&ServiceCd=220&Type=search" }, "geometry": { "type": "Point", "coordinates": [ 139.098101700000029, 36.3108591 ] } },
{ "type": "Feature", "properties": { "内容": "介護老人保健施設　いずみの里【短期入所療養介護（介護老人保健施設）】群馬県邑楽郡大泉町北小泉1丁目26-1", "url2": "https://www.kaigokensaku.mhlw.go.jp/10/index.php?action_kouhyou_detail_004_kani=true&JigyosyoCd=1053180020-00&ServiceCd=220&Type=search" }, "geometry": { "type": "Point", "coordinates": [ 139.421701100000064, 36.2652008 ] } },
{ "type": "Feature", "properties": { "内容": "介護老人保健施設　おうらの光【短期入所療養介護（介護老人保健施設）】群馬県邑楽郡邑楽町篠塚３２３３－１", "url2": "https://www.kaigokensaku.mhlw.go.jp/10/index.php?action_kouhyou_detail_004_kani=true&JigyosyoCd=1050580057-00&ServiceCd=220&Type=search" }, "geometry": { "type": "Point", "coordinates": [ 139.43307021233349, 36.255096744087567 ] } },
{ "type": "Feature", "properties": { "内容": "介護老人保健施設　ラポール・レイゾン【短期入所療養介護（介護老人保健施設）】群馬県邑楽郡邑楽町大字赤堀1031番地", "url2": "https://www.kaigokensaku.mhlw.go.jp/10/index.php?action_kouhyou_detail_004_kani=true&JigyosyoCd=1053180012-00&ServiceCd=220&Type=search" }, "geometry": { "type": "Point", "coordinates": [ 139.4847843, 36.235761 ] } }
]
}
