{
"type": "FeatureCollection",
"name": "geo_10_1",
"crs": { "type": "name", "properties": { "name": "urn:ogc:def:crs:OGC:1.3:CRS84" } },
"features": [
{ "type": "Feature", "properties": { "ID": 1011100000001, "正式名称": "群馬大学医学部附属病院", "機関区分": 1, "都道府県コード": 10, "市区町村コード": 201, "所在地": "群馬県前橋市昭和町３丁目３９－１５", "緯度": 36.407835, "経度": 139.063754, "url": "https://www.iryou.teikyouseido.mhlw.go.jp/znk-web/juminkanja/S2430/initialize?prefCd=10&kikanCd=1100000001&kikanKbn=1", "url2": "https://hospital.med.gunma-u.ac.jp/", "内容": "群馬大学医学部附属病院【1:病院】【診療科目:0】【一般病床数:680療養病床数:0精神病床数:40感染症病床数:2合計病床数:731】群馬県前橋市昭和町３丁目３９－１５" }, "geometry": { "type": "Point", "coordinates": [ 139.063754, 36.407835 ] } },
{ "type": "Feature", "properties": { "ID": 1011100000002, "正式名称": "群馬県立心臓血管センター", "機関区分": 1, "都道府県コード": 10, "市区町村コード": 201, "所在地": "群馬県前橋市亀泉町甲３－１２", "緯度": 36.407514, "経度": 139.129608, "url": "https://www.iryou.teikyouseido.mhlw.go.jp/znk-web/juminkanja/S2430/initialize?prefCd=10&kikanCd=1100000002&kikanKbn=1", "url2": "http://www.cvc.pref.gunma.jp/", "内容": "群馬県立心臓血管センター【1:病院】【診療科目:0】【一般病床数:195療養病床数:0精神病床数:0感染症病床数:0合計病床数:195】群馬県前橋市亀泉町甲３－１２" }, "geometry": { "type": "Point", "coordinates": [ 139.129608, 36.407514 ] } },
{ "type": "Feature", "properties": { "ID": 1011100000003, "正式名称": "前橋赤十字病院", "機関区分": 1, "都道府県コード": 10, "市区町村コード": 201, "所在地": "群馬県前橋市朝倉町３８９番地１", "緯度": 36.358528, "経度": 139.094574, "url": "https://www.iryou.teikyouseido.mhlw.go.jp/znk-web/juminkanja/S2430/initialize?prefCd=10&kikanCd=1100000003&kikanKbn=1", "url2": "http://www.maebashi.jrc.or.jp/", "内容": "前橋赤十字病院【1:病院】【診療科目:0】【一般病床数:527療養病床数:0精神病床数:22感染症病床数:6合計病床数:555】群馬県前橋市朝倉町３８９番地１" }, "geometry": { "type": "Point", "coordinates": [ 139.094574, 36.358528 ] } },
{ "type": "Feature", "properties": { "ID": 1011100000004, "正式名称": "公益財団法人　老年病研究所附属病院", "機関区分": 1, "都道府県コード": 10, "市区町村コード": 201, "所在地": "群馬県前橋市大友町３－２６－８", "緯度": 36.392849, "経度": 139.042291, "url": "https://www.iryou.teikyouseido.mhlw.go.jp/znk-web/juminkanja/S2430/initialize?prefCd=10&kikanCd=1100000004&kikanKbn=1", "url2": "https://www.ronenbyo-hospital.jp/", "内容": "公益財団法人　老年病研究所附属病院【1:病院】【診療科目:0】【一般病床数:139療養病床数:114精神病床数:0感染症病床数:0合計病床数:253】群馬県前橋市大友町３－２６－８" }, "geometry": { "type": "Point", "coordinates": [ 139.042291, 36.392849 ] } },
{ "type": "Feature", "properties": { "ID": 1011100000005, "正式名称": "独立行政法人地域医療機能推進機構　群馬中央病院", "機関区分": 1, "都道府県コード": 10, "市区町村コード": 201, "所在地": "群馬県前橋市紅雲町１ー７ー１３", "緯度": 36.386408, "経度": 139.061619, "url": "https://www.iryou.teikyouseido.mhlw.go.jp/znk-web/juminkanja/S2430/initialize?prefCd=10&kikanCd=1100000005&kikanKbn=1", "url2": "http://gunma.jcho.go.jp/", "内容": "独立行政法人地域医療機能推進機構　群馬中央病院【1:病院】【診療科目:0】【一般病床数:333療養病床数:0精神病床数:0感染症病床数:0合計病床数:333】群馬県前橋市紅雲町１ー７ー１３" }, "geometry": { "type": "Point", "coordinates": [ 139.061619, 36.386408 ] } },
{ "type": "Feature", "properties": { "ID": 1011100000006, "正式名称": "公益社団法人　前橋積善会　厩橋病院", "機関区分": 1, "都道府県コード": 10, "市区町村コード": 201, "所在地": "群馬県前橋市江木町１２４１", "緯度": 36.406156, "経度": 139.134808, "url": "https://www.iryou.teikyouseido.mhlw.go.jp/znk-web/juminkanja/S2430/initialize?prefCd=10&kikanCd=1100000006&kikanKbn=1", "url2": "http://www.umayabashi.jp", "内容": "公益社団法人　前橋積善会　厩橋病院【1:病院】【診療科目:0】【一般病床数:0療養病床数:0精神病床数:318感染症病床数:0合計病床数:318】群馬県前橋市江木町１２４１" }, "geometry": { "type": "Point", "coordinates": [ 139.134808, 36.406156 ] } },
{ "type": "Feature", "properties": { "ID": 1011100000007, "正式名称": "医療法人高柳会赤城病院", "機関区分": 1, "都道府県コード": 10, "市区町村コード": 201, "所在地": "群馬県前橋市江木町１０７２", "緯度": 36.39904, "経度": 139.138756, "url": "https://www.iryou.teikyouseido.mhlw.go.jp/znk-web/juminkanja/S2430/initialize?prefCd=10&kikanCd=1100000007&kikanKbn=1", "url2": "http://www.tyk.or.jp/", "内容": "医療法人高柳会赤城病院【1:病院】【診療科目:0】【一般病床数:0療養病床数:0精神病床数:228感染症病床数:0合計病床数:228】群馬県前橋市江木町１０７２" }, "geometry": { "type": "Point", "coordinates": [ 139.138756, 36.39904 ] } },
{ "type": "Feature", "properties": { "ID": 1011100000008, "正式名称": "医療法人中沢会上毛病院", "機関区分": 1, "都道府県コード": 10, "市区町村コード": 201, "所在地": "群馬県前橋市下大島町５９６－１", "緯度": 36.361404, "経度": 139.115796, "url": "https://www.iryou.teikyouseido.mhlw.go.jp/znk-web/juminkanja/S2430/initialize?prefCd=10&kikanCd=1100000008&kikanKbn=1", "url2": "http://www.jnk.jp", "内容": "医療法人中沢会上毛病院【1:病院】【診療科目:0】【一般病床数:20療養病床数:0精神病床数:314感染症病床数:0合計病床数:334】群馬県前橋市下大島町５９６－１" }, "geometry": { "type": "Point", "coordinates": [ 139.115796, 36.361404 ] } },
{ "type": "Feature", "properties": { "ID": 1011100000010, "正式名称": "社会福祉法人恩賜財団済生会支部　群馬県済生会前橋病院", "機関区分": 1, "都道府県コード": 10, "市区町村コード": 201, "所在地": "群馬県前橋市上新田町５６４ー１", "緯度": 36.367863, "経度": 139.061236, "url": "https://www.iryou.teikyouseido.mhlw.go.jp/znk-web/juminkanja/S2430/initialize?prefCd=10&kikanCd=1100000010&kikanKbn=1", "url2": "http://www.maebashi.saiseikai.or.jp", "内容": "社会福祉法人恩賜財団済生会支部　群馬県済生会前橋病院【1:病院】【診療科目:0】【一般病床数:323療養病床数:0精神病床数:0感染症病床数:0合計病床数:323】群馬県前橋市上新田町５６４ー１" }, "geometry": { "type": "Point", "coordinates": [ 139.061236, 36.367863 ] } },
{ "type": "Feature", "properties": { "ID": 1011100000011, "正式名称": "群馬中央医療生活協同組合前橋協立病院", "機関区分": 1, "都道府県コード": 10, "市区町村コード": 201, "所在地": "群馬県前橋市朝倉町８２８－１", "緯度": 36.369518, "経度": 139.085959, "url": "https://www.iryou.teikyouseido.mhlw.go.jp/znk-web/juminkanja/S2430/initialize?prefCd=10&kikanCd=1100000011&kikanKbn=1", "url2": "http://www.kyouritsu.or.jp/", "内容": "群馬中央医療生活協同組合前橋協立病院【1:病院】【診療科目:0】【一般病床数:154療養病床数:33精神病床数:0感染症病床数:0合計病床数:187】群馬県前橋市朝倉町８２８－１" }, "geometry": { "type": "Point", "coordinates": [ 139.085959, 36.369518 ] } },
{ "type": "Feature", "properties": { "ID": 1011100000012, "正式名称": "医療法人社団　善衆会　善衆会病院", "機関区分": 1, "都道府県コード": 10, "市区町村コード": 201, "所在地": "群馬県前橋市笂井町５４番地１", "緯度": 36.370529, "経度": 139.138445, "url": "https://www.iryou.teikyouseido.mhlw.go.jp/znk-web/juminkanja/S2430/initialize?prefCd=10&kikanCd=1100000012&kikanKbn=1", "url2": "http://www.zenshukai.com/", "内容": "医療法人社団　善衆会　善衆会病院【1:病院】【診療科目:0】【一般病床数:198療養病床数:0精神病床数:0感染症病床数:0合計病床数:198】群馬県前橋市笂井町５４番地１" }, "geometry": { "type": "Point", "coordinates": [ 139.138445, 36.370529 ] } },
{ "type": "Feature", "properties": { "ID": 1011100000013, "正式名称": "（医社）敬寿会前橋城南病院", "機関区分": 1, "都道府県コード": 10, "市区町村コード": 201, "所在地": "群馬県前橋市富田町１１７２－１", "緯度": 36.391314, "経度": 139.14505, "url": "https://www.iryou.teikyouseido.mhlw.go.jp/znk-web/juminkanja/S2430/initialize?prefCd=10&kikanCd=1100000013&kikanKbn=1", "url2": "https://johnan-kjk.or.jp/", "内容": "（医社）敬寿会前橋城南病院【1:病院】【診療科目:0】【一般病床数:60療養病床数:101精神病床数:0感染症病床数:0合計病床数:161】群馬県前橋市富田町１１７２－１" }, "geometry": { "type": "Point", "coordinates": [ 139.14505, 36.391314 ] } },
{ "type": "Feature", "properties": { "ID": 1011100000014, "正式名称": "（医）積心会富沢病院", "機関区分": 1, "都道府県コード": 10, "市区町村コード": 201, "所在地": "群馬県前橋市朝日町４ー１７ー１", "緯度": 36.383219, "経度": 139.090305, "url": "https://www.iryou.teikyouseido.mhlw.go.jp/znk-web/juminkanja/S2430/initialize?prefCd=10&kikanCd=1100000014&kikanKbn=1", "url2": null, "内容": "（医）積心会富沢病院【1:病院】【診療科目:0】【一般病床数:48療養病床数:32精神病床数:0感染症病床数:0合計病床数:80】群馬県前橋市朝日町４ー１７ー１" }, "geometry": { "type": "Point", "coordinates": [ 139.090305, 36.383219 ] } },
{ "type": "Feature", "properties": { "ID": 1011100000015, "正式名称": "群馬ペインクリニック病院", "機関区分": 1, "都道府県コード": 10, "市区町村コード": 201, "所在地": "群馬県前橋市亀里町", "緯度": 36.343802, "経度": 139.085312, "url": "https://www.iryou.teikyouseido.mhlw.go.jp/znk-web/juminkanja/S2430/initialize?prefCd=10&kikanCd=1100000015&kikanKbn=1", "url2": "http://gunma-pain.com/", "内容": "群馬ペインクリニック病院【1:病院】【診療科目:0】【一般病床数:46療養病床数:0精神病床数:0感染症病床数:0合計病床数:46】群馬県前橋市亀里町" }, "geometry": { "type": "Point", "coordinates": [ 139.085312, 36.343802 ] } },
{ "type": "Feature", "properties": { "ID": 1011100000016, "正式名称": "独立行政法人国立病院機構渋川医療センター", "機関区分": 1, "都道府県コード": 10, "市区町村コード": 208, "所在地": "群馬県渋川市白井３８３番地", "緯度": 36.509964, "経度": 139.016856, "url": "https://www.iryou.teikyouseido.mhlw.go.jp/znk-web/juminkanja/S2430/initialize?prefCd=10&kikanCd=1100000016&kikanKbn=1", "url2": "http://shibukawa.hosp.go.jp", "内容": "独立行政法人国立病院機構渋川医療センター【1:病院】【診療科目:0】【一般病床数:400療養病床数:0精神病床数:0感染症病床数:4合計病床数:450】群馬県渋川市白井３８３番地" }, "geometry": { "type": "Point", "coordinates": [ 139.016856, 36.509964 ] } },
{ "type": "Feature", "properties": { "ID": 1011100000017, "正式名称": "医療法人一羊会　上武呼吸器科内科病院", "機関区分": 1, "都道府県コード": 10, "市区町村コード": 201, "所在地": "群馬県前橋市田口町５８６－１", "緯度": 36.447856, "経度": 139.045951, "url": "https://www.iryou.teikyouseido.mhlw.go.jp/znk-web/juminkanja/S2430/initialize?prefCd=10&kikanCd=1100000017&kikanKbn=1", "url2": "http://www5c.biglobe.ne.jp/~jobuknh/", "内容": "医療法人一羊会　上武呼吸器科内科病院【1:病院】【診療科目:0】【一般病床数:60療養病床数:60精神病床数:0感染症病床数:0合計病床数:120】群馬県前橋市田口町５８６－１" }, "geometry": { "type": "Point", "coordinates": [ 139.045951, 36.447856 ] } },
{ "type": "Feature", "properties": { "ID": 1011100000018, "正式名称": "医療法人前橋北病院", "機関区分": 1, "都道府県コード": 10, "市区町村コード": 201, "所在地": "群馬県前橋市下細井町６９２", "緯度": 36.412648, "経度": 139.084383, "url": "https://www.iryou.teikyouseido.mhlw.go.jp/znk-web/juminkanja/S2430/initialize?prefCd=10&kikanCd=1100000018&kikanKbn=1", "url2": "https://maebashinorte-hospital.jp/", "内容": "医療法人前橋北病院【1:病院】【診療科目:0】【一般病床数:40療養病床数:0精神病床数:0感染症病床数:0合計病床数:40】群馬県前橋市下細井町６９２" }, "geometry": { "type": "Point", "coordinates": [ 139.084383, 36.412648 ] } },
{ "type": "Feature", "properties": { "ID": 1011100000019, "正式名称": "医療法人　相生会　若松記念わかば病院", "機関区分": 1, "都道府県コード": 10, "市区町村コード": 201, "所在地": "群馬県前橋市新前橋町３－３", "緯度": 36.380969, "経度": 139.053926, "url": "https://www.iryou.teikyouseido.mhlw.go.jp/znk-web/juminkanja/S2430/initialize?prefCd=10&kikanCd=1100000019&kikanKbn=1", "url2": "http://www.wakaba-hp.gr.jp/", "内容": "医療法人　相生会　若松記念わかば病院【1:病院】【診療科目:0】【一般病床数:60療養病床数:42精神病床数:0感染症病床数:0合計病床数:102】群馬県前橋市新前橋町３－３" }, "geometry": { "type": "Point", "coordinates": [ 139.053926, 36.380969 ] } },
{ "type": "Feature", "properties": { "ID": 1011100000021, "正式名称": "横田マタニティーホスピタル", "機関区分": 1, "都道府県コード": 10, "市区町村コード": 201, "所在地": "群馬県前橋市下小出町１－５－２２", "緯度": 36.407752, "経度": 139.067393, "url": "https://www.iryou.teikyouseido.mhlw.go.jp/znk-web/juminkanja/S2430/initialize?prefCd=10&kikanCd=1100000021&kikanKbn=1", "url2": "https://www.yokotamaternity.com", "内容": "横田マタニティーホスピタル【1:病院】【診療科目:0】【一般病床数:35療養病床数:0精神病床数:0感染症病床数:0合計病床数:35】群馬県前橋市下小出町１－５－２２" }, "geometry": { "type": "Point", "coordinates": [ 139.067393, 36.407752 ] } },
{ "type": "Feature", "properties": { "ID": 1011100000022, "正式名称": "独立行政法人国立病院機構高崎総合医療センター", "機関区分": 1, "都道府県コード": 10, "市区町村コード": 202, "所在地": "群馬県高崎市高松町３６番地", "緯度": 36.322026, "経度": 139.001182, "url": "https://www.iryou.teikyouseido.mhlw.go.jp/znk-web/juminkanja/S2430/initialize?prefCd=10&kikanCd=1100000022&kikanKbn=1", "url2": "https://takasaki.hosp.go.jp/map/index.html", "内容": "独立行政法人国立病院機構高崎総合医療センター【1:病院】【診療科目:0】【一般病床数:479療養病床数:0精神病床数:0感染症病床数:6合計病床数:485】群馬県高崎市高松町３６番地" }, "geometry": { "type": "Point", "coordinates": [ 139.001182, 36.322026 ] } },
{ "type": "Feature", "properties": { "ID": 1011100000023, "正式名称": "（医）山崎会サンピエール病院", "機関区分": 1, "都道府県コード": 10, "市区町村コード": 202, "所在地": "群馬県高崎市上佐野町７８６－７", "緯度": 36.302791, "経度": 139.027722, "url": "https://www.iryou.teikyouseido.mhlw.go.jp/znk-web/juminkanja/S2430/initialize?prefCd=10&kikanCd=1100000023&kikanKbn=1", "url2": "https://www.st-pierre.or.jp/", "内容": "（医）山崎会サンピエール病院【1:病院】【診療科目:0】【一般病床数:105療養病床数:0精神病床数:417感染症病床数:0合計病床数:522】群馬県高崎市上佐野町７８６－７" }, "geometry": { "type": "Point", "coordinates": [ 139.027722, 36.302791 ] } },
{ "type": "Feature", "properties": { "ID": 1011100000024, "正式名称": "医療法人　真木会　真木病院", "機関区分": 1, "都道府県コード": 10, "市区町村コード": 202, "所在地": "群馬県高崎市筑縄町", "緯度": 36.348327, "経度": 138.986157, "url": "https://www.iryou.teikyouseido.mhlw.go.jp/znk-web/juminkanja/S2430/initialize?prefCd=10&kikanCd=1100000024&kikanKbn=1", "url2": "http://www.makikai.jp", "内容": "医療法人　真木会　真木病院【1:病院】【診療科目:0】【一般病床数:130療養病床数:0精神病床数:0感染症病床数:0合計病床数:130】群馬県高崎市筑縄町" }, "geometry": { "type": "Point", "coordinates": [ 138.986157, 36.348327 ] } },
{ "type": "Feature", "properties": { "ID": 1011100000025, "正式名称": "医療法人松沢会　希望館病院", "機関区分": 1, "都道府県コード": 10, "市区町村コード": 202, "所在地": "群馬県高崎市江木町１１２０", "緯度": 36.334943, "経度": 139.021189, "url": "https://www.iryou.teikyouseido.mhlw.go.jp/znk-web/juminkanja/S2430/initialize?prefCd=10&kikanCd=1100000025&kikanKbn=1", "url2": "https://www.kibokan.or.jp/", "内容": "医療法人松沢会　希望館病院【1:病院】【診療科目:0】【一般病床数:51療養病床数:79精神病床数:0感染症病床数:0合計病床数:130】群馬県高崎市江木町１１２０" }, "geometry": { "type": "Point", "coordinates": [ 139.021189, 36.334943 ] } },
{ "type": "Feature", "properties": { "ID": 1011100000026, "正式名称": "特定医療法人博仁会第一病院", "機関区分": 1, "都道府県コード": 10, "市区町村コード": 202, "所在地": "群馬県高崎市下小鳥町１２７７", "緯度": 36.347988, "経度": 138.99967, "url": "https://www.iryou.teikyouseido.mhlw.go.jp/znk-web/juminkanja/S2430/initialize?prefCd=10&kikanCd=1100000026&kikanKbn=1", "url2": "http://www.daiichi-hp.or.jp/", "内容": "特定医療法人博仁会第一病院【1:病院】【診療科目:0】【一般病床数:146療養病床数:47精神病床数:0感染症病床数:0合計病床数:193】群馬県高崎市下小鳥町１２７７" }, "geometry": { "type": "Point", "coordinates": [ 138.99967, 36.347988 ] } },
{ "type": "Feature", "properties": { "ID": 1011100000028, "正式名称": "産科婦人科舘出張佐藤病院", "機関区分": 1, "都道府県コード": 10, "市区町村コード": 202, "所在地": "群馬県高崎市若松町９６", "緯度": 36.320098, "経度": 139.005845, "url": "https://www.iryou.teikyouseido.mhlw.go.jp/znk-web/juminkanja/S2430/initialize?prefCd=10&kikanCd=1100000028&kikanKbn=1", "url2": "https://www.sato-hospital.gr.jp/", "内容": "産科婦人科舘出張佐藤病院【1:病院】【診療科目:0】【一般病床数:77療養病床数:0精神病床数:0感染症病床数:0合計病床数:77】群馬県高崎市若松町９６" }, "geometry": { "type": "Point", "coordinates": [ 139.005845, 36.320098 ] } },
{ "type": "Feature", "properties": { "ID": 1011100000029, "正式名称": "東前橋整形外科病院", "機関区分": 1, "都道府県コード": 10, "市区町村コード": 201, "所在地": "群馬県前橋市西大室町１３０２ー２", "緯度": 36.373338, "経度": 139.182777, "url": "https://www.iryou.teikyouseido.mhlw.go.jp/znk-web/juminkanja/S2430/initialize?prefCd=10&kikanCd=1100000029&kikanKbn=1", "url2": "http://www.hm-seikei.com/", "内容": "東前橋整形外科病院【1:病院】【診療科目:0】【一般病床数:60療養病床数:0精神病床数:0感染症病床数:0合計病床数:60】群馬県前橋市西大室町１３０２ー２" }, "geometry": { "type": "Point", "coordinates": [ 139.182777, 36.373338 ] } },
{ "type": "Feature", "properties": { "ID": 1011100000030, "正式名称": "医療法人社団三思医光会　駒井病院", "機関区分": 1, "都道府県コード": 10, "市区町村コード": 202, "所在地": "群馬県高崎市矢島町４４９−２", "緯度": 36.339012, "経度": 139.049045, "url": "https://www.iryou.teikyouseido.mhlw.go.jp/znk-web/juminkanja/S2430/initialize?prefCd=10&kikanCd=1100000030&kikanKbn=1", "url2": "http://www.komai-hp.com", "内容": "医療法人社団三思医光会　駒井病院【1:病院】【診療科目:0】【一般病床数:0療養病床数:100精神病床数:0感染症病床数:0合計病床数:100】群馬県高崎市矢島町４４９−２" }, "geometry": { "type": "Point", "coordinates": [ 139.049045, 36.339012 ] } },
{ "type": "Feature", "properties": { "ID": 1011100000031, "正式名称": "医療法人井上病院", "機関区分": 1, "都道府県コード": 10, "市区町村コード": 202, "所在地": "群馬県高崎市通町５５番地", "緯度": 36.324024, "経度": 139.009056, "url": "https://www.iryou.teikyouseido.mhlw.go.jp/znk-web/juminkanja/S2430/initialize?prefCd=10&kikanCd=1100000031&kikanKbn=1", "url2": "http://www.ra-inoue-hp.com/", "内容": "医療法人井上病院【1:病院】【診療科目:0】【一般病床数:85療養病床数:0精神病床数:0感染症病床数:0合計病床数:85】群馬県高崎市通町５５番地" }, "geometry": { "type": "Point", "coordinates": [ 139.009056, 36.324024 ] } },
{ "type": "Feature", "properties": { "ID": 1011100000034, "正式名称": "医療法人社団大原会大原病院", "機関区分": 1, "都道府県コード": 10, "市区町村コード": 202, "所在地": "群馬県高崎市飯玉町", "緯度": 36.337778, "経度": 139.013405, "url": "https://www.iryou.teikyouseido.mhlw.go.jp/znk-web/juminkanja/S2430/initialize?prefCd=10&kikanCd=1100000034&kikanKbn=1", "url2": "http://www.oohara-hp.jp/", "内容": "医療法人社団大原会大原病院【1:病院】【診療科目:0】【一般病床数:0療養病床数:45精神病床数:0感染症病床数:0合計病床数:45】群馬県高崎市飯玉町" }, "geometry": { "type": "Point", "coordinates": [ 139.013405, 36.337778 ] } },
{ "type": "Feature", "properties": { "ID": 1011100000035, "正式名称": "医療法人仁和会野口病院", "機関区分": 1, "都道府県コード": 10, "市区町村コード": 202, "所在地": "群馬県高崎市請地町３８番地", "緯度": 36.334242, "経度": 139.002257, "url": "https://www.iryou.teikyouseido.mhlw.go.jp/znk-web/juminkanja/S2430/initialize?prefCd=10&kikanCd=1100000035&kikanKbn=1", "url2": "https://www.noguchi-hp.com/", "内容": "医療法人仁和会野口病院【1:病院】【診療科目:0】【一般病床数:50療養病床数:0精神病床数:0感染症病床数:0合計病床数:50】群馬県高崎市請地町３８番地" }, "geometry": { "type": "Point", "coordinates": [ 139.002257, 36.334242 ] } },
{ "type": "Feature", "properties": { "ID": 1011100000036, "正式名称": "医療法人刀陽会　綿貫病院", "機関区分": 1, "都道府県コード": 10, "市区町村コード": 202, "所在地": "群馬県高崎市末広町４１番地１", "緯度": 36.329584, "経度": 139.002717, "url": "https://www.iryou.teikyouseido.mhlw.go.jp/znk-web/juminkanja/S2430/initialize?prefCd=10&kikanCd=1100000036&kikanKbn=1", "url2": "https://www.watanuki-hp.com", "内容": "医療法人刀陽会　綿貫病院【1:病院】【診療科目:0】【一般病床数:0療養病床数:80精神病床数:0感染症病床数:0合計病床数:80】群馬県高崎市末広町４１番地１" }, "geometry": { "type": "Point", "coordinates": [ 139.002717, 36.329584 ] } },
{ "type": "Feature", "properties": { "ID": 1011100000037, "正式名称": "一般財団法人榛名荘榛名荘病院", "機関区分": 1, "都道府県コード": 10, "市区町村コード": 202, "所在地": "群馬県高崎市中室田町", "緯度": 36.397793, "経度": 138.859961, "url": "https://www.iryou.teikyouseido.mhlw.go.jp/znk-web/juminkanja/S2430/initialize?prefCd=10&kikanCd=1100000037&kikanKbn=1", "url2": "http://www.harunaso.or.jp", "内容": "一般財団法人榛名荘榛名荘病院【1:病院】【診療科目:0】【一般病床数:72療養病床数:111精神病床数:0感染症病床数:0合計病床数:183】群馬県高崎市中室田町" }, "geometry": { "type": "Point", "coordinates": [ 138.859961, 36.397793 ] } },
{ "type": "Feature", "properties": { "ID": 1011100000038, "正式名称": "さわらび医療福祉センター", "機関区分": 1, "都道府県コード": 10, "市区町村コード": 202, "所在地": "群馬県高崎市大八木町１６８番地１", "緯度": 36.359897, "経度": 138.992969, "url": "https://www.iryou.teikyouseido.mhlw.go.jp/znk-web/juminkanja/S2430/initialize?prefCd=10&kikanCd=1100000038&kikanKbn=1", "url2": "https://shintokai.jp/sawarabi/", "内容": "さわらび医療福祉センター【1:病院】【診療科目:0】【一般病床数:120療養病床数:0精神病床数:0感染症病床数:0合計病床数:120】群馬県高崎市大八木町１６８番地１" }, "geometry": { "type": "Point", "coordinates": [ 138.992969, 36.359897 ] } },
{ "type": "Feature", "properties": { "ID": 1011100000040, "正式名称": "群馬病院", "機関区分": 1, "都道府県コード": 10, "市区町村コード": 202, "所在地": "群馬県高崎市稲荷台町１３６", "緯度": 36.381905, "経度": 139.025095, "url": "https://www.iryou.teikyouseido.mhlw.go.jp/znk-web/juminkanja/S2430/initialize?prefCd=10&kikanCd=1100000040&kikanKbn=1", "url2": "http://www.ph-gunma.com", "内容": "群馬病院【1:病院】【診療科目:0】【一般病床数:0療養病床数:0精神病床数:461感染症病床数:0合計病床数:461】群馬県高崎市稲荷台町１３６" }, "geometry": { "type": "Point", "coordinates": [ 139.025095, 36.381905 ] } },
{ "type": "Feature", "properties": { "ID": 1011100000041, "正式名称": "医療法人二之沢会二之沢病院", "機関区分": 1, "都道府県コード": 10, "市区町村コード": 202, "所在地": "群馬県高崎市足門町１４２ー１", "緯度": 36.402436, "経度": 138.980684, "url": "https://www.iryou.teikyouseido.mhlw.go.jp/znk-web/juminkanja/S2430/initialize?prefCd=10&kikanCd=1100000041&kikanKbn=1", "url2": "http://www.ninosawahp.com", "内容": "医療法人二之沢会二之沢病院【1:病院】【診療科目:0】【一般病床数:0療養病床数:120精神病床数:0感染症病床数:0合計病床数:120】群馬県高崎市足門町１４２ー１" }, "geometry": { "type": "Point", "coordinates": [ 138.980684, 36.402436 ] } },
{ "type": "Feature", "properties": { "ID": 1011100000042, "正式名称": "群馬整肢療護園", "機関区分": 1, "都道府県コード": 10, "市区町村コード": 202, "所在地": "群馬県高崎市足門町１４６－１", "緯度": 36.398556, "経度": 138.984833, "url": "https://www.iryou.teikyouseido.mhlw.go.jp/znk-web/juminkanja/S2430/initialize?prefCd=10&kikanCd=1100000042&kikanKbn=1", "url2": "http://www.gunmaseishi.com", "内容": "群馬整肢療護園【1:病院】【診療科目:0】【一般病床数:116療養病床数:0精神病床数:0感染症病床数:0合計病床数:116】群馬県高崎市足門町１４６－１" }, "geometry": { "type": "Point", "coordinates": [ 138.984833, 36.398556 ] } },
{ "type": "Feature", "properties": { "ID": 1011100000043, "正式名称": "医療法人社団日高会日高病院", "機関区分": 1, "都道府県コード": 10, "市区町村コード": 202, "所在地": "群馬県高崎市中尾町８８６", "緯度": 36.363742, "経度": 139.028662, "url": "https://www.iryou.teikyouseido.mhlw.go.jp/znk-web/juminkanja/S2430/initialize?prefCd=10&kikanCd=1100000043&kikanKbn=1", "url2": "https://hidaka-kai.or.jp/", "内容": "医療法人社団日高会日高病院【1:病院】【診療科目:0】【一般病床数:287療養病床数:0精神病床数:0感染症病床数:0合計病床数:287】群馬県高崎市中尾町８８６" }, "geometry": { "type": "Point", "coordinates": [ 139.028662, 36.363742 ] } },
{ "type": "Feature", "properties": { "ID": 1011100000044, "正式名称": "高崎中央病院", "機関区分": 1, "都道府県コード": 10, "市区町村コード": 202, "所在地": "群馬県高崎市高関町４９８番地１", "緯度": 36.325004, "経度": 139.032351, "url": "https://www.iryou.teikyouseido.mhlw.go.jp/znk-web/juminkanja/S2430/initialize?prefCd=10&kikanCd=1100000044&kikanKbn=1", "url2": "http://www.harunacoop.com", "内容": "高崎中央病院【1:病院】【診療科目:0】【一般病床数:60療養病床数:59精神病床数:0感染症病床数:0合計病床数:119】群馬県高崎市高関町４９８番地１" }, "geometry": { "type": "Point", "coordinates": [ 139.032351, 36.325004 ] } },
{ "type": "Feature", "properties": { "ID": 1011100000045, "正式名称": "黒沢病院", "機関区分": 1, "都道府県コード": 10, "市区町村コード": 202, "所在地": "群馬県高崎市矢中町１８７", "緯度": 36.312238, "経度": 139.050651, "url": "https://www.iryou.teikyouseido.mhlw.go.jp/znk-web/juminkanja/S2430/initialize?prefCd=10&kikanCd=1100000045&kikanKbn=1", "url2": "http://www.bishinkai.or.jp", "内容": "黒沢病院【1:病院】【診療科目:0】【一般病床数:130療養病床数:0精神病床数:0感染症病床数:0合計病床数:130】群馬県高崎市矢中町１８７" }, "geometry": { "type": "Point", "coordinates": [ 139.050651, 36.312238 ] } },
{ "type": "Feature", "properties": { "ID": 1011100000046, "正式名称": "たかまえ病院", "機関区分": 1, "都道府県コード": 10, "市区町村コード": 202, "所在地": "群馬県高崎市中尾町１２３０", "緯度": 36.370189, "経度": 139.030442, "url": "https://www.iryou.teikyouseido.mhlw.go.jp/znk-web/juminkanja/S2430/initialize?prefCd=10&kikanCd=1100000046&kikanKbn=1", "url2": "https://takamae-hp.jp/", "内容": "たかまえ病院【1:病院】【診療科目:0】【一般病床数:49療養病床数:50精神病床数:0感染症病床数:0合計病床数:99】群馬県高崎市中尾町１２３０" }, "geometry": { "type": "Point", "coordinates": [ 139.030442, 36.370189 ] } },
{ "type": "Feature", "properties": { "ID": 1011100000047, "正式名称": "医療法人関越中央病院", "機関区分": 1, "都道府県コード": 10, "市区町村コード": 202, "所在地": "群馬県高崎市北原町７１", "緯度": 36.405701, "経度": 139.024728, "url": "https://www.iryou.teikyouseido.mhlw.go.jp/znk-web/juminkanja/S2430/initialize?prefCd=10&kikanCd=1100000047&kikanKbn=1", "url2": "http://www.kan-etsu-hospital.com", "内容": "医療法人関越中央病院【1:病院】【診療科目:0】【一般病床数:90療養病床数:0精神病床数:0感染症病床数:0合計病床数:90】群馬県高崎市北原町７１" }, "geometry": { "type": "Point", "coordinates": [ 139.024728, 36.405701 ] } },
{ "type": "Feature", "properties": { "ID": 1011100000048, "正式名称": "医療法人中央群馬脳神経外科病院", "機関区分": 1, "都道府県コード": 10, "市区町村コード": 202, "所在地": "群馬県高崎市中尾町６４ー１", "緯度": 36.374741, "経度": 139.032942, "url": "https://www.iryou.teikyouseido.mhlw.go.jp/znk-web/juminkanja/S2430/initialize?prefCd=10&kikanCd=1100000048&kikanKbn=1", "url2": "http://www.cgn-h.com", "内容": "医療法人中央群馬脳神経外科病院【1:病院】【診療科目:0】【一般病床数:36療養病床数:52精神病床数:0感染症病床数:0合計病床数:88】群馬県高崎市中尾町６４ー１" }, "geometry": { "type": "Point", "coordinates": [ 139.032942, 36.374741 ] } },
{ "type": "Feature", "properties": { "ID": 1011100000050, "正式名称": "医療法人十薬会　上大類病院", "機関区分": 1, "都道府県コード": 10, "市区町村コード": 202, "所在地": "群馬県高崎市上大類町７５９", "緯度": 36.33399, "経度": 139.03021, "url": "https://www.iryou.teikyouseido.mhlw.go.jp/znk-web/juminkanja/S2430/initialize?prefCd=10&kikanCd=1100000050&kikanKbn=1", "url2": "http://www.juuyakukai.or.jp", "内容": "医療法人十薬会　上大類病院【1:病院】【診療科目:0】【一般病床数:25療養病床数:0精神病床数:0感染症病床数:0合計病床数:25】群馬県高崎市上大類町７５９" }, "geometry": { "type": "Point", "coordinates": [ 139.03021, 36.33399 ] } },
{ "type": "Feature", "properties": { "ID": 1011100000051, "正式名称": "公立碓氷病院", "機関区分": 1, "都道府県コード": 10, "市区町村コード": 211, "所在地": "群馬県安中市原市１−９−１０", "緯度": 36.316276, "経度": 138.858193, "url": "https://www.iryou.teikyouseido.mhlw.go.jp/znk-web/juminkanja/S2430/initialize?prefCd=10&kikanCd=1100000051&kikanKbn=1", "url2": "https://usui-hospital.jp", "内容": "公立碓氷病院【1:病院】【診療科目:0】【一般病床数:99療養病床数:50精神病床数:0感染症病床数:0合計病床数:149】群馬県安中市原市１−９−１０" }, "geometry": { "type": "Point", "coordinates": [ 138.858193, 36.316276 ] } },
{ "type": "Feature", "properties": { "ID": 1011100000052, "正式名称": "医療法人済恵会須藤病院", "機関区分": 1, "都道府県コード": 10, "市区町村コード": 211, "所在地": "群馬県安中市安中３５３２－５", "緯度": 36.328654, "経度": 138.8999, "url": "https://www.iryou.teikyouseido.mhlw.go.jp/znk-web/juminkanja/S2430/initialize?prefCd=10&kikanCd=1100000052&kikanKbn=1", "url2": "http://med.wind.ne.jp/sutoh-hp/", "内容": "医療法人済恵会須藤病院【1:病院】【診療科目:0】【一般病床数:89療養病床数:31精神病床数:0感染症病床数:0合計病床数:120】群馬県安中市安中３５３２－５" }, "geometry": { "type": "Point", "coordinates": [ 138.8999, 36.328654 ] } },
{ "type": "Feature", "properties": { "ID": 1011100000053, "正式名称": "公益財団法人群馬慈恵会松井田病院", "機関区分": 1, "都道府県コード": 10, "市区町村コード": 211, "所在地": "群馬県安中市松井田町新堀１３００ー１", "緯度": 36.318483, "経度": 138.792791, "url": "https://www.iryou.teikyouseido.mhlw.go.jp/znk-web/juminkanja/S2430/initialize?prefCd=10&kikanCd=1100000053&kikanKbn=1", "url2": "http://www.matsuida-hp.com/", "内容": "公益財団法人群馬慈恵会松井田病院【1:病院】【診療科目:0】【一般病床数:54療養病床数:55精神病床数:0感染症病床数:0合計病床数:119】群馬県安中市松井田町新堀１３００ー１" }, "geometry": { "type": "Point", "coordinates": [ 138.792791, 36.318483 ] } },
{ "type": "Feature", "properties": { "ID": 1011100000054, "正式名称": "医療法人誠和会正田病院", "機関区分": 1, "都道府県コード": 10, "市区町村コード": 211, "所在地": "群馬県安中市安中１－１６－３２", "緯度": 36.321752, "経度": 138.886457, "url": "https://www.iryou.teikyouseido.mhlw.go.jp/znk-web/juminkanja/S2430/initialize?prefCd=10&kikanCd=1100000054&kikanKbn=1", "url2": "http://www.shodahospital.jp/", "内容": "医療法人誠和会正田病院【1:病院】【診療科目:0】【一般病床数:43療養病床数:0精神病床数:0感染症病床数:0合計病床数:43】群馬県安中市安中１－１６－３２" }, "geometry": { "type": "Point", "coordinates": [ 138.886457, 36.321752 ] } },
{ "type": "Feature", "properties": { "ID": 1011100000055, "正式名称": "（医）信愛会本多病院", "機関区分": 1, "都道府県コード": 10, "市区町村コード": 211, "所在地": "群馬県安中市鷺宮２０５－１", "緯度": 36.305185, "経度": 138.89691, "url": "https://www.iryou.teikyouseido.mhlw.go.jp/znk-web/juminkanja/S2430/initialize?prefCd=10&kikanCd=1100000055&kikanKbn=1", "url2": "http://www.honda-hospital.jp/", "内容": "（医）信愛会本多病院【1:病院】【診療科目:0】【一般病床数:0療養病床数:20精神病床数:0感染症病床数:0合計病床数:20】群馬県安中市鷺宮２０５－１" }, "geometry": { "type": "Point", "coordinates": [ 138.89691, 36.305185 ] } },
{ "type": "Feature", "properties": { "ID": 1011100000058, "正式名称": "榛名病院", "機関区分": 1, "都道府県コード": 10, "市区町村コード": 208, "所在地": "群馬県渋川市渋川３６５８－２０", "緯度": 36.49444, "経度": 138.951323, "url": "https://www.iryou.teikyouseido.mhlw.go.jp/znk-web/juminkanja/S2430/initialize?prefCd=10&kikanCd=1100000058&kikanKbn=1", "url2": "http://www.ootonekai.or.jp/", "内容": "榛名病院【1:病院】【診療科目:0】【一般病床数:0療養病床数:0精神病床数:289感染症病床数:0合計病床数:289】群馬県渋川市渋川３６５８－２０" }, "geometry": { "type": "Point", "coordinates": [ 138.951323, 36.49444 ] } },
{ "type": "Feature", "properties": { "ID": 1011100000059, "正式名称": "医療法人恒和会関口病院", "機関区分": 1, "都道府県コード": 10, "市区町村コード": 208, "所在地": "群馬県渋川市渋川１６９３ー１２", "緯度": 36.491448, "経度": 139.006766, "url": "https://www.iryou.teikyouseido.mhlw.go.jp/znk-web/juminkanja/S2430/initialize?prefCd=10&kikanCd=1100000059&kikanKbn=1", "url2": "http://kouwa-sekiguchi.com/", "内容": "医療法人恒和会関口病院【1:病院】【診療科目:0】【一般病床数:85療養病床数:0精神病床数:0感染症病床数:0合計病床数:85】群馬県渋川市渋川１６９３ー１２" }, "geometry": { "type": "Point", "coordinates": [ 139.006766, 36.491448 ] } },
{ "type": "Feature", "properties": { "ID": 1011100000060, "正式名称": "北毛保健生活協同組合北毛病院", "機関区分": 1, "都道府県コード": 10, "市区町村コード": 208, "所在地": "群馬県渋川市有馬２３７ー１", "緯度": 36.472389, "経度": 139.00655, "url": "https://www.iryou.teikyouseido.mhlw.go.jp/znk-web/juminkanja/S2430/initialize?prefCd=10&kikanCd=1100000060&kikanKbn=1", "url2": "http://www.hokumou.coop/", "内容": "北毛保健生活協同組合北毛病院【1:病院】【診療科目:0】【一般病床数:100療養病床数:50精神病床数:0感染症病床数:0合計病床数:150】群馬県渋川市有馬２３７ー１" }, "geometry": { "type": "Point", "coordinates": [ 139.00655, 36.472389 ] } },
{ "type": "Feature", "properties": { "ID": 1011100000061, "正式名称": "医療法人　菊栄会　渋川中央病院", "機関区分": 1, "都道府県コード": 10, "市区町村コード": 208, "所在地": "群馬県渋川市石原５０８－１", "緯度": 36.486518, "経度": 139.006761, "url": "https://www.iryou.teikyouseido.mhlw.go.jp/znk-web/juminkanja/S2430/initialize?prefCd=10&kikanCd=1100000061&kikanKbn=1", "url2": "http://shibutyu.com/", "内容": "医療法人　菊栄会　渋川中央病院【1:病院】【診療科目:0】【一般病床数:103療養病床数:50精神病床数:0感染症病床数:0合計病床数:153】群馬県渋川市石原５０８－１" }, "geometry": { "type": "Point", "coordinates": [ 139.006761, 36.486518 ] } },
{ "type": "Feature", "properties": { "ID": 1011100000062, "正式名称": "群馬県立小児医療センター", "機関区分": 1, "都道府県コード": 10, "市区町村コード": 208, "所在地": "群馬県渋川市北橘町下箱田７７９", "緯度": 36.459436, "経度": 139.046184, "url": "https://www.iryou.teikyouseido.mhlw.go.jp/znk-web/juminkanja/S2430/initialize?prefCd=10&kikanCd=1100000062&kikanKbn=1", "url2": "http://www.cmc.pref.gunma.jp/", "内容": "群馬県立小児医療センター【1:病院】【診療科目:0】【一般病床数:150療養病床数:0精神病床数:0感染症病床数:0合計病床数:150】群馬県渋川市北橘町下箱田７７９" }, "geometry": { "type": "Point", "coordinates": [ 139.046184, 36.459436 ] } },
{ "type": "Feature", "properties": { "ID": 1011100000063, "正式名称": "（医）橘会上之原病院", "機関区分": 1, "都道府県コード": 10, "市区町村コード": 208, "所在地": "群馬県渋川市北橘町上南室", "緯度": 36.499154, "経度": 139.067217, "url": "https://www.iryou.teikyouseido.mhlw.go.jp/znk-web/juminkanja/S2430/initialize?prefCd=10&kikanCd=1100000063&kikanKbn=1", "url2": "http://uenohara-hp.jp", "内容": "（医）橘会上之原病院【1:病院】【診療科目:0】【一般病床数:0療養病床数:0精神病床数:170感染症病床数:0合計病床数:170】群馬県渋川市北橘町上南室" }, "geometry": { "type": "Point", "coordinates": [ 139.067217, 36.499154 ] } },
{ "type": "Feature", "properties": { "ID": 1011100000064, "正式名称": "医療法人群栄会田中病院", "機関区分": 1, "都道府県コード": 10, "市区町村コード": 345, "所在地": "群馬県北群馬郡吉岡町陣場９８番地", "緯度": 36.431486, "経度": 139.005339, "url": "https://www.iryou.teikyouseido.mhlw.go.jp/znk-web/juminkanja/S2430/initialize?prefCd=10&kikanCd=1100000064&kikanKbn=1", "url2": "http://www.gunneikai.net", "内容": "医療法人群栄会田中病院【1:病院】【診療科目:0】【一般病床数:98療養病床数:0精神病床数:396感染症病床数:0合計病床数:494】群馬県北群馬郡吉岡町陣場９８番地" }, "geometry": { "type": "Point", "coordinates": [ 139.005339, 36.431486 ] } },
{ "type": "Feature", "properties": { "ID": 1011100000065, "正式名称": "北関東循環器病院", "機関区分": 1, "都道府県コード": 10, "市区町村コード": 208, "所在地": "群馬県渋川市北橘町下箱田７４０", "緯度": 36.455344, "経度": 139.048731, "url": "https://www.iryou.teikyouseido.mhlw.go.jp/znk-web/juminkanja/S2430/initialize?prefCd=10&kikanCd=1100000065&kikanKbn=1", "url2": "https://www.ccj.or.jp", "内容": "北関東循環器病院【1:病院】【診療科目:0】【一般病床数:120療養病床数:0精神病床数:0感染症病床数:0合計病床数:120】群馬県渋川市北橘町下箱田７４０" }, "geometry": { "type": "Point", "coordinates": [ 139.048731, 36.455344 ] } },
{ "type": "Feature", "properties": { "ID": 1011100000066, "正式名称": "医療法人群馬会　赤城高原ホスピタル", "機関区分": 1, "都道府県コード": 10, "市区町村コード": 208, "所在地": "群馬県渋川市赤城町北赤城山１０５１", "緯度": 36.540398, "経度": 139.065971, "url": "https://www.iryou.teikyouseido.mhlw.go.jp/znk-web/juminkanja/S2430/initialize?prefCd=10&kikanCd=1100000066&kikanKbn=1", "url2": "https://ph-akh.com", "内容": "医療法人群馬会　赤城高原ホスピタル【1:病院】【診療科目:0】【一般病床数:0療養病床数:0精神病床数:111感染症病床数:0合計病床数:111】群馬県渋川市赤城町北赤城山１０５１" }, "geometry": { "type": "Point", "coordinates": [ 139.065971, 36.540398 ] } },
{ "type": "Feature", "properties": { "ID": 1011100000068, "正式名称": "公立藤岡総合病院", "機関区分": 1, "都道府県コード": 10, "市区町村コード": 209, "所在地": "群馬県藤岡市中栗須８１３番地１", "緯度": 36.252886, "経度": 139.076487, "url": "https://www.iryou.teikyouseido.mhlw.go.jp/znk-web/juminkanja/S2430/initialize?prefCd=10&kikanCd=1100000068&kikanKbn=1", "url2": "https://www.fujioka-hosp.or.jp", "内容": "公立藤岡総合病院【1:病院】【診療科目:0】【一般病床数:395療養病床数:0精神病床数:0感染症病床数:4合計病床数:399】群馬県藤岡市中栗須８１３番地１" }, "geometry": { "type": "Point", "coordinates": [ 139.076487, 36.252886 ] } },
{ "type": "Feature", "properties": { "ID": 1011100000069, "正式名称": "藤岡市国民健康保険鬼石病院", "機関区分": 1, "都道府県コード": 10, "市区町村コード": 209, "所在地": "群馬県藤岡市鬼石１３９－１", "緯度": 36.157372, "経度": 139.0611, "url": "https://www.iryou.teikyouseido.mhlw.go.jp/znk-web/juminkanja/S2430/initialize?prefCd=10&kikanCd=1100000069&kikanKbn=1", "url2": "https://www.city.fujioka.gunma.jp/onishi_hospital/index.html", "内容": "藤岡市国民健康保険鬼石病院【1:病院】【診療科目:0】【一般病床数:52療養病床数:47精神病床数:0感染症病床数:0合計病床数:99】群馬県藤岡市鬼石１３９－１" }, "geometry": { "type": "Point", "coordinates": [ 139.0611, 36.157372 ] } },
{ "type": "Feature", "properties": { "ID": 1011100000070, "正式名称": "（医）育生会篠塚病院", "機関区分": 1, "都道府県コード": 10, "市区町村コード": 209, "所在地": "群馬県藤岡市篠塚１０５－１", "緯度": 36.258696, "経度": 139.064692, "url": "https://www.iryou.teikyouseido.mhlw.go.jp/znk-web/juminkanja/S2430/initialize?prefCd=10&kikanCd=1100000070&kikanKbn=1", "url2": "https://www.shinozuka-hp.or.jp/", "内容": "（医）育生会篠塚病院【1:病院】【診療科目:0】【一般病床数:20療養病床数:54精神病床数:0感染症病床数:0合計病床数:74】群馬県藤岡市篠塚１０５－１" }, "geometry": { "type": "Point", "coordinates": [ 139.064692, 36.258696 ] } },
{ "type": "Feature", "properties": { "ID": 1011100000071, "正式名称": "光病院", "機関区分": 1, "都道府県コード": 10, "市区町村コード": 209, "所在地": "群馬県藤岡市本郷１０４５", "緯度": 36.228168, "経度": 139.073583, "url": "https://www.iryou.teikyouseido.mhlw.go.jp/znk-web/juminkanja/S2430/initialize?prefCd=10&kikanCd=1100000071&kikanKbn=1", "url2": "http://www.flash.or.jp/", "内容": "光病院【1:病院】【診療科目:0】【一般病床数:80療養病床数:0精神病床数:0感染症病床数:0合計病床数:80】群馬県藤岡市本郷１０４５" }, "geometry": { "type": "Point", "coordinates": [ 139.073583, 36.228168 ] } },
{ "type": "Feature", "properties": { "ID": 1011100000072, "正式名称": "（医社）日高会日高リハビリテーション病院", "機関区分": 1, "都道府県コード": 10, "市区町村コード": 202, "所在地": "群馬県高崎市吉井町馬庭２２０４", "緯度": 36.269998, "経度": 138.995579, "url": "https://www.iryou.teikyouseido.mhlw.go.jp/znk-web/juminkanja/S2430/initialize?prefCd=10&kikanCd=1100000072&kikanKbn=1", "url2": "http://www.hidaka-kai.com/reha", "内容": "（医社）日高会日高リハビリテーション病院【1:病院】【診療科目:0】【一般病床数:104療養病床数:0精神病床数:0感染症病床数:0合計病床数:104】群馬県高崎市吉井町馬庭２２０４" }, "geometry": { "type": "Point", "coordinates": [ 138.995579, 36.269998 ] } },
{ "type": "Feature", "properties": { "ID": 1011100000073, "正式名称": "医療法人社団三思医光会　くすの木病院", "機関区分": 1, "都道府県コード": 10, "市区町村コード": 209, "所在地": "群馬県藤岡市藤岡６０７－２２", "緯度": 36.249144, "経度": 139.082515, "url": "https://www.iryou.teikyouseido.mhlw.go.jp/znk-web/juminkanja/S2430/initialize?prefCd=10&kikanCd=1100000073&kikanKbn=1", "url2": "https://www.kusunoki-hp.com", "内容": "医療法人社団三思医光会　くすの木病院【1:病院】【診療科目:0】【一般病床数:160療養病床数:54精神病床数:0感染症病床数:0合計病床数:214】群馬県藤岡市藤岡６０７－２２" }, "geometry": { "type": "Point", "coordinates": [ 139.082515, 36.249144 ] } },
{ "type": "Feature", "properties": { "ID": 1011100000074, "正式名称": "医療法人大和会西毛病院", "機関区分": 1, "都道府県コード": 10, "市区町村コード": 210, "所在地": "群馬県富岡市神農原５５９－１", "緯度": 36.1437, "経度": 138.5026, "url": "https://www.iryou.teikyouseido.mhlw.go.jp/znk-web/juminkanja/S2430/initialize?prefCd=10&kikanCd=1100000074&kikanKbn=1", "url2": "http://www.seimou.org/", "内容": "医療法人大和会西毛病院【1:病院】【診療科目:0】【一般病床数:0療養病床数:50精神病床数:360感染症病床数:0合計病床数:410】群馬県富岡市神農原５５９－１" }, "geometry": { "type": "Point", "coordinates": [ 138.5026, 36.1437 ] } },
{ "type": "Feature", "properties": { "ID": 1011100000076, "正式名称": "下仁田南牧医療事務組合下仁田厚生病院", "機関区分": 1, "都道府県コード": 10, "市区町村コード": 382, "所在地": "群馬県甘楽郡下仁田町下仁田４０９", "緯度": 36.213012, "経度": 138.786005, "url": "https://www.iryou.teikyouseido.mhlw.go.jp/znk-web/juminkanja/S2430/initialize?prefCd=10&kikanCd=1100000076&kikanKbn=1", "url2": "http://www15.wind.ne.jp/~s-hospital/", "内容": "下仁田南牧医療事務組合下仁田厚生病院【1:病院】【診療科目:0】【一般病床数:48療養病床数:0精神病床数:0感染症病床数:0合計病床数:48】群馬県甘楽郡下仁田町下仁田４０９" }, "geometry": { "type": "Point", "coordinates": [ 138.786005, 36.213012 ] } },
{ "type": "Feature", "properties": { "ID": 1011100000077, "正式名称": "公立富岡総合病院", "機関区分": 1, "都道府県コード": 10, "市区町村コード": 210, "所在地": "群馬県富岡市富岡２０７３ー１", "緯度": 36.263498, "経度": 138.903897, "url": "https://www.iryou.teikyouseido.mhlw.go.jp/znk-web/juminkanja/S2430/initialize?prefCd=10&kikanCd=1100000077&kikanKbn=1", "url2": "http://www.tomioka-hosp.jp", "内容": "公立富岡総合病院【1:病院】【診療科目:0】【一般病床数:302療養病床数:0精神病床数:0感染症病床数:4合計病床数:306】群馬県富岡市富岡２０７３ー１" }, "geometry": { "type": "Point", "coordinates": [ 138.903897, 36.263498 ] } },
{ "type": "Feature", "properties": { "ID": 1011100000078, "正式名称": "富岡地域医療企業団　公立七日市病院", "機関区分": 1, "都道府県コード": 10, "市区町村コード": 210, "所在地": "群馬県富岡市七日市６４３", "緯度": 36.258826, "経度": 138.884053, "url": "https://www.iryou.teikyouseido.mhlw.go.jp/znk-web/juminkanja/S2430/initialize?prefCd=10&kikanCd=1100000078&kikanKbn=1", "url2": "http://www.nano-hosp.jp", "内容": "富岡地域医療企業団　公立七日市病院【1:病院】【診療科目:0】【一般病床数:105療養病床数:57精神病床数:0感染症病床数:0合計病床数:162】群馬県富岡市七日市６４３" }, "geometry": { "type": "Point", "coordinates": [ 138.884053, 36.258826 ] } },
{ "type": "Feature", "properties": { "ID": 1011100000079, "正式名称": "公益社団法人　群馬県医師会　群馬リハビリテーション病院", "機関区分": 1, "都道府県コード": 10, "市区町村コード": 421, "所在地": "群馬県吾妻郡中之条町上沢渡２１３６", "緯度": 36.62531, "経度": 138.766036, "url": "https://www.iryou.teikyouseido.mhlw.go.jp/znk-web/juminkanja/S2430/initialize?prefCd=10&kikanCd=1100000079&kikanKbn=1", "url2": "http://reha.gunma.jp/", "内容": "公益社団法人　群馬県医師会　群馬リハビリテーション病院【1:病院】【診療科目:0】【一般病床数:39療養病床数:150精神病床数:0感染症病床数:0合計病床数:189】群馬県吾妻郡中之条町上沢渡２１３６" }, "geometry": { "type": "Point", "coordinates": [ 138.766036, 36.62531 ] } },
{ "type": "Feature", "properties": { "ID": 1011100000080, "正式名称": "医療法人社団寿山会田島病院", "機関区分": 1, "都道府県コード": 10, "市区町村コード": 421, "所在地": "群馬県吾妻郡中之条町中之条町１７８２", "緯度": 36.587117, "経度": 138.841925, "url": "https://www.iryou.teikyouseido.mhlw.go.jp/znk-web/juminkanja/S2430/initialize?prefCd=10&kikanCd=1100000080&kikanKbn=1", "url2": "http://www.h-tajima.info/", "内容": "医療法人社団寿山会田島病院【1:病院】【診療科目:0】【一般病床数:24療養病床数:43精神病床数:0感染症病床数:0合計病床数:67】群馬県吾妻郡中之条町中之条町１７８２" }, "geometry": { "type": "Point", "coordinates": [ 138.841925, 36.587117 ] } },
{ "type": "Feature", "properties": { "ID": 1011100000081, "正式名称": "医療法人弥生会吾妻さくら病院", "機関区分": 1, "都道府県コード": 10, "市区町村コード": 421, "所在地": "群馬県吾妻郡中之条町伊勢町", "緯度": 36.585944, "経度": 138.853026, "url": "https://www.iryou.teikyouseido.mhlw.go.jp/znk-web/juminkanja/S2430/initialize?prefCd=10&kikanCd=1100000081&kikanKbn=1", "url2": "http://www.a-sakurahosp.com", "内容": "医療法人弥生会吾妻さくら病院【1:病院】【診療科目:0】【一般病床数:7療養病床数:60精神病床数:0感染症病床数:0合計病床数:67】群馬県吾妻郡中之条町伊勢町" }, "geometry": { "type": "Point", "coordinates": [ 138.853026, 36.585944 ] } },
{ "type": "Feature", "properties": { "ID": 1011100000082, "正式名称": "吾妻広域町村圏振興整備組合立中之条病院", "機関区分": 1, "都道府県コード": 10, "市区町村コード": 421, "所在地": "群馬県吾妻郡中之条町五反田", "緯度": 36.613701, "経度": 138.835597, "url": "https://www.iryou.teikyouseido.mhlw.go.jp/znk-web/juminkanja/S2430/initialize?prefCd=10&kikanCd=1100000082&kikanKbn=1", "url2": "https://nakanojo-h.jp", "内容": "吾妻広域町村圏振興整備組合立中之条病院【1:病院】【診療科目:0】【一般病床数:0療養病床数:0精神病床数:223感染症病床数:0合計病床数:223】群馬県吾妻郡中之条町五反田" }, "geometry": { "type": "Point", "coordinates": [ 138.835597, 36.613701 ] } },
{ "type": "Feature", "properties": { "ID": 1011100000083, "正式名称": "原町赤十字病院", "機関区分": 1, "都道府県コード": 10, "市区町村コード": 429, "所在地": "群馬県吾妻郡東吾妻町原町６９８", "緯度": 36.572199, "経度": 138.825555, "url": "https://www.iryou.teikyouseido.mhlw.go.jp/znk-web/juminkanja/S2430/initialize?prefCd=10&kikanCd=1100000083&kikanKbn=1", "url2": "https://haramachi.jrc.or.jp", "内容": "原町赤十字病院【1:病院】【診療科目:0】【一般病床数:163療養病床数:19精神病床数:0感染症病床数:4合計病床数:186】群馬県吾妻郡東吾妻町原町６９８" }, "geometry": { "type": "Point", "coordinates": [ 138.825555, 36.572199 ] } },
{ "type": "Feature", "properties": { "ID": 1011100000085, "正式名称": "国立療養所栗生楽泉園", "機関区分": 1, "都道府県コード": 10, "市区町村コード": 426, "所在地": "群馬県吾妻郡草津町草津乙６４７", "緯度": 36.618972, "経度": 138.627377, "url": "https://www.iryou.teikyouseido.mhlw.go.jp/znk-web/juminkanja/S2430/initialize?prefCd=10&kikanCd=1100000085&kikanKbn=1", "url2": "https://www.mhlw.go.jp/seisakunitsuite/bunya/kenkou_iryou/iryou/hansen/kuriu/", "内容": "国立療養所栗生楽泉園【1:病院】【診療科目:0】【一般病床数:395療養病床数:0精神病床数:0感染症病床数:0合計病床数:395】群馬県吾妻郡草津町草津乙６４７" }, "geometry": { "type": "Point", "coordinates": [ 138.627377, 36.618972 ] } },
{ "type": "Feature", "properties": { "ID": 1011100000086, "正式名称": "医療法人修幸会草津こまくさ病院", "機関区分": 1, "都道府県コード": 10, "市区町村コード": 426, "所在地": "群馬県吾妻郡草津町草津", "緯度": 36.620081, "経度": 138.588248, "url": "https://www.iryou.teikyouseido.mhlw.go.jp/znk-web/juminkanja/S2430/initialize?prefCd=10&kikanCd=1100000086&kikanKbn=1", "url2": "https://k-syukokai.or.jp", "内容": "医療法人修幸会草津こまくさ病院【1:病院】【診療科目:0】【一般病床数:0療養病床数:109精神病床数:0感染症病床数:0合計病床数:109】群馬県吾妻郡草津町草津" }, "geometry": { "type": "Point", "coordinates": [ 138.588248, 36.620081 ] } },
{ "type": "Feature", "properties": { "ID": 1011100000087, "正式名称": "西吾妻福祉病院", "機関区分": 1, "都道府県コード": 10, "市区町村コード": 424, "所在地": "群馬県吾妻郡長野原町大津７４６－４", "緯度": 36.557361, "経度": 138.604266, "url": "https://www.iryou.teikyouseido.mhlw.go.jp/znk-web/juminkanja/S2430/initialize?prefCd=10&kikanCd=1100000087&kikanKbn=1", "url2": "https://www.nawh.jp/", "内容": "西吾妻福祉病院【1:病院】【診療科目:0】【一般病床数:74療養病床数:0精神病床数:0感染症病床数:0合計病床数:74】群馬県吾妻郡長野原町大津７４６－４" }, "geometry": { "type": "Point", "coordinates": [ 138.604266, 36.557361 ] } },
{ "type": "Feature", "properties": { "ID": 1011100000088, "正式名称": "独立行政法人国立病院機構沼田病院", "機関区分": 1, "都道府県コード": 10, "市区町村コード": 206, "所在地": "群馬県沼田市上原町１５５１ー４", "緯度": 36.645913, "経度": 139.061109, "url": "https://www.iryou.teikyouseido.mhlw.go.jp/znk-web/juminkanja/S2430/initialize?prefCd=10&kikanCd=1100000088&kikanKbn=1", "url2": "https://numata.hosp.go.jp/", "内容": "独立行政法人国立病院機構沼田病院【1:病院】【診療科目:0】【一般病床数:106療養病床数:0精神病床数:0感染症病床数:4合計病床数:110】群馬県沼田市上原町１５５１ー４" }, "geometry": { "type": "Point", "coordinates": [ 139.061109, 36.645913 ] } },
{ "type": "Feature", "properties": { "ID": 1011100000089, "正式名称": "利根中央病院", "機関区分": 1, "都道府県コード": 10, "市区町村コード": 206, "所在地": "群馬県沼田市沼須町９１０番地１", "緯度": 36.625557, "経度": 139.051462, "url": "https://www.iryou.teikyouseido.mhlw.go.jp/znk-web/juminkanja/S2430/initialize?prefCd=10&kikanCd=1100000089&kikanKbn=1", "url2": "https://www.tonehoken.or.jp/", "内容": "利根中央病院【1:病院】【診療科目:0】【一般病床数:253療養病床数:0精神病床数:0感染症病床数:0合計病床数:253】群馬県沼田市沼須町９１０番地１" }, "geometry": { "type": "Point", "coordinates": [ 139.051462, 36.625557 ] } },
{ "type": "Feature", "properties": { "ID": 1011100000090, "正式名称": "群馬パース病院", "機関区分": 1, "都道府県コード": 10, "市区町村コード": 444, "所在地": "群馬県利根郡川場村生品１８６１", "緯度": 36.669458, "経度": 139.078068, "url": "https://www.iryou.teikyouseido.mhlw.go.jp/znk-web/juminkanja/S2430/initialize?prefCd=10&kikanCd=1100000090&kikanKbn=1", "url2": "http://www.hotaka.or.jp/hospital", "内容": "群馬パース病院【1:病院】【診療科目:0】【一般病床数:55療養病床数:127精神病床数:0感染症病床数:0合計病床数:182】群馬県利根郡川場村生品１８６１" }, "geometry": { "type": "Point", "coordinates": [ 139.078068, 36.669458 ] } },
{ "type": "Feature", "properties": { "ID": 1011100000091, "正式名称": "（医）パテラ会月夜野病院", "機関区分": 1, "都道府県コード": 10, "市区町村コード": 449, "所在地": "群馬県利根郡みなかみ町真庭３１６番地", "緯度": 36.675273, "経度": 139.004607, "url": "https://www.iryou.teikyouseido.mhlw.go.jp/znk-web/juminkanja/S2430/initialize?prefCd=10&kikanCd=1100000091&kikanKbn=1", "url2": "https://tsukiyono-hosp.jp", "内容": "（医）パテラ会月夜野病院【1:病院】【診療科目:0】【一般病床数:32療養病床数:40精神病床数:0感染症病床数:0合計病床数:72】群馬県利根郡みなかみ町真庭３１６番地" }, "geometry": { "type": "Point", "coordinates": [ 139.004607, 36.675273 ] } },
{ "type": "Feature", "properties": { "ID": 1011100000092, "正式名称": "医療法人高徳会上牧温泉病院", "機関区分": 1, "都道府県コード": 10, "市区町村コード": 449, "所在地": "群馬県利根郡みなかみ町石倉１９８－２", "緯度": 36.739572, "経度": 138.982759, "url": "https://www.iryou.teikyouseido.mhlw.go.jp/znk-web/juminkanja/S2430/initialize?prefCd=10&kikanCd=1100000092&kikanKbn=1", "url2": "http://www.kamimoku-spa-hp.com/", "内容": "医療法人高徳会上牧温泉病院【1:病院】【診療科目:0】【一般病床数:40療養病床数:36精神病床数:0感染症病床数:0合計病床数:76】群馬県利根郡みなかみ町石倉１９８－２" }, "geometry": { "type": "Point", "coordinates": [ 138.982759, 36.739572 ] } },
{ "type": "Feature", "properties": { "ID": 1011100000093, "正式名称": "沼田脳神経外科循環器科病院", "機関区分": 1, "都道府県コード": 10, "市区町村コード": 206, "所在地": "群馬県沼田市栄町", "緯度": 36.637939, "経度": 139.052652, "url": "https://www.iryou.teikyouseido.mhlw.go.jp/znk-web/juminkanja/S2430/initialize?prefCd=10&kikanCd=1100000093&kikanKbn=1", "url2": "https://kijokai.or.jp/numata-nouge/", "内容": "沼田脳神経外科循環器科病院【1:病院】【診療科目:0】【一般病床数:84療養病床数:0精神病床数:0感染症病床数:0合計病床数:84】群馬県沼田市栄町" }, "geometry": { "type": "Point", "coordinates": [ 139.052652, 36.637939 ] } },
{ "type": "Feature", "properties": { "ID": 1011100000094, "正式名称": "医療法人　大誠会　内田病院", "機関区分": 1, "都道府県コード": 10, "市区町村コード": 206, "所在地": "群馬県沼田市久屋原町３４５－１", "緯度": 36.6659, "経度": 139.104377, "url": "https://www.iryou.teikyouseido.mhlw.go.jp/znk-web/juminkanja/S2430/initialize?prefCd=10&kikanCd=1100000094&kikanKbn=1", "url2": "http://taiseikai-group.com", "内容": "医療法人　大誠会　内田病院【1:病院】【診療科目:0】【一般病床数:49療養病床数:50精神病床数:0感染症病床数:0合計病床数:99】群馬県沼田市久屋原町３４５－１" }, "geometry": { "type": "Point", "coordinates": [ 139.104377, 36.6659 ] } },
{ "type": "Feature", "properties": { "ID": 1011100000095, "正式名称": "伊勢崎市民病院", "機関区分": 1, "都道府県コード": 10, "市区町村コード": 204, "所在地": "群馬県伊勢崎市連取本町１２ー１", "緯度": 36.323301, "経度": 139.178443, "url": "https://www.iryou.teikyouseido.mhlw.go.jp/znk-web/juminkanja/S2430/initialize?prefCd=10&kikanCd=1100000095&kikanKbn=1", "url2": "https://www.hospital.isesaki.gunma.jp", "内容": "伊勢崎市民病院【1:病院】【診療科目:0】【一般病床数:490療養病床数:0精神病床数:0感染症病床数:4合計病床数:494】群馬県伊勢崎市連取本町１２ー１" }, "geometry": { "type": "Point", "coordinates": [ 139.178443, 36.323301 ] } },
{ "type": "Feature", "properties": { "ID": 1011100000096, "正式名称": "一般財団法人資生会研究所大島病院", "機関区分": 1, "都道府県コード": 10, "市区町村コード": 204, "所在地": "群馬県伊勢崎市太田町５０８番地１", "緯度": 36.328533, "経度": 139.18397, "url": "https://www.iryou.teikyouseido.mhlw.go.jp/znk-web/juminkanja/S2430/initialize?prefCd=10&kikanCd=1100000096&kikanKbn=1", "url2": "http://www.oosima-hosp.jp/", "内容": "一般財団法人資生会研究所大島病院【1:病院】【診療科目:0】【一般病床数:0療養病床数:40精神病床数:141感染症病床数:0合計病床数:181】群馬県伊勢崎市太田町５０８番地１" }, "geometry": { "type": "Point", "coordinates": [ 139.18397, 36.328533 ] } },
{ "type": "Feature", "properties": { "ID": 1011100000097, "正式名称": "公益財団法人脳血管研究所美原記念病院", "機関区分": 1, "都道府県コード": 10, "市区町村コード": 204, "所在地": "群馬県伊勢崎市太田町", "緯度": 36.327976, "経度": 139.180424, "url": "https://www.iryou.teikyouseido.mhlw.go.jp/znk-web/juminkanja/S2430/initialize?prefCd=10&kikanCd=1100000097&kikanKbn=1", "url2": "http://mihara-ibbv.jp", "内容": "公益財団法人脳血管研究所美原記念病院【1:病院】【診療科目:0】【一般病床数:90療養病床数:99精神病床数:0感染症病床数:0合計病床数:189】群馬県伊勢崎市太田町" }, "geometry": { "type": "Point", "coordinates": [ 139.180424, 36.327976 ] } },
{ "type": "Feature", "properties": { "ID": 1011100000098, "正式名称": "伊勢崎福島病院", "機関区分": 1, "都道府県コード": 10, "市区町村コード": 204, "所在地": "群馬県伊勢崎市鹿島町５５６－２", "緯度": 36.332154, "経度": 139.204191, "url": "https://www.iryou.teikyouseido.mhlw.go.jp/znk-web/juminkanja/S2430/initialize?prefCd=10&kikanCd=1100000098&kikanKbn=1", "url2": "http://www.fukushima-hospital.com", "内容": "伊勢崎福島病院【1:病院】【診療科目:0】【一般病床数:137療養病床数:95精神病床数:0感染症病床数:0合計病床数:232】群馬県伊勢崎市鹿島町５５６－２" }, "geometry": { "type": "Point", "coordinates": [ 139.204191, 36.332154 ] } },
{ "type": "Feature", "properties": { "ID": 1011100000099, "正式名称": "一般社団法人伊勢崎佐波医師会病院", "機関区分": 1, "都道府県コード": 10, "市区町村コード": 204, "所在地": "群馬県伊勢崎市下植木町４８１番地", "緯度": 36.316113, "経度": 139.209015, "url": "https://www.iryou.teikyouseido.mhlw.go.jp/znk-web/juminkanja/S2430/initialize?prefCd=10&kikanCd=1100000099&kikanKbn=1", "url2": "http://isesakisawa.gunma.med.or.jp/hospital/index.html", "内容": "一般社団法人伊勢崎佐波医師会病院【1:病院】【診療科目:0】【一般病床数:205療養病床数:50精神病床数:0感染症病床数:0合計病床数:255】群馬県伊勢崎市下植木町４８１番地" }, "geometry": { "type": "Point", "coordinates": [ 139.209015, 36.316113 ] } },
{ "type": "Feature", "properties": { "ID": 1011100000100, "正式名称": "群馬県立精神医療センター", "機関区分": 1, "都道府県コード": 10, "市区町村コード": 204, "所在地": "群馬県伊勢崎市国定町２－２３７４", "緯度": 36.360343, "経度": 139.232912, "url": "https://www.iryou.teikyouseido.mhlw.go.jp/znk-web/juminkanja/S2430/initialize?prefCd=10&kikanCd=1100000100&kikanKbn=1", "url2": "https://www.pref.gunma.jp/site/seishin/", "内容": "群馬県立精神医療センター【1:病院】【診療科目:0】【一般病床数:0療養病床数:0精神病床数:265感染症病床数:0合計病床数:265】群馬県伊勢崎市国定町２－２３７４" }, "geometry": { "type": "Point", "coordinates": [ 139.232912, 36.360343 ] } },
{ "type": "Feature", "properties": { "ID": 1011100000101, "正式名称": "鶴谷病院", "機関区分": 1, "都道府県コード": 10, "市区町村コード": 204, "所在地": "群馬県伊勢崎市境百々", "緯度": 36.276933, "経度": 139.254493, "url": "https://www.iryou.teikyouseido.mhlw.go.jp/znk-web/juminkanja/S2430/initialize?prefCd=10&kikanCd=1100000101&kikanKbn=1", "url2": "http://www.tsurugaya.or.jp", "内容": "鶴谷病院【1:病院】【診療科目:0】【一般病床数:278療養病床数:42精神病床数:0感染症病床数:0合計病床数:320】群馬県伊勢崎市境百々" }, "geometry": { "type": "Point", "coordinates": [ 139.254493, 36.276933 ] } },
{ "type": "Feature", "properties": { "ID": 1011100000102, "正式名称": "医療法人原会原病院", "機関区分": 1, "都道府県コード": 10, "市区町村コード": 204, "所在地": "群馬県伊勢崎市境上武士８９８ー１", "緯度": 36.280268, "経度": 139.230314, "url": "https://www.iryou.teikyouseido.mhlw.go.jp/znk-web/juminkanja/S2430/initialize?prefCd=10&kikanCd=1100000102&kikanKbn=1", "url2": "http://www.hara-hospital.jp", "内容": "医療法人原会原病院【1:病院】【診療科目:0】【一般病床数:0療養病床数:0精神病床数:344感染症病床数:0合計病床数:344】群馬県伊勢崎市境上武士８９８ー１" }, "geometry": { "type": "Point", "coordinates": [ 139.230314, 36.280268 ] } },
{ "type": "Feature", "properties": { "ID": 1011100000103, "正式名称": "医療法人樹心会角田病院", "機関区分": 1, "都道府県コード": 10, "市区町村コード": 464, "所在地": "群馬県佐波郡玉村町上新田６７５ー４", "緯度": 36.311045, "経度": 139.097986, "url": "https://www.iryou.teikyouseido.mhlw.go.jp/znk-web/juminkanja/S2430/initialize?prefCd=10&kikanCd=1100000103&kikanKbn=1", "url2": "http://www.tsunoda.or.jp/", "内容": "医療法人樹心会角田病院【1:病院】【診療科目:0】【一般病床数:77療養病床数:48精神病床数:0感染症病床数:0合計病床数:125】群馬県佐波郡玉村町上新田６７５ー４" }, "geometry": { "type": "Point", "coordinates": [ 139.097986, 36.311045 ] } },
{ "type": "Feature", "properties": { "ID": 1011100000104, "正式名称": "医療法人　石井会　石井病院", "機関区分": 1, "都道府県コード": 10, "市区町村コード": 204, "所在地": "群馬県伊勢崎市波志江町１１５２番地", "緯度": 36.339305, "経度": 139.183298, "url": "https://www.iryou.teikyouseido.mhlw.go.jp/znk-web/juminkanja/S2430/initialize?prefCd=10&kikanCd=1100000104&kikanKbn=1", "url2": "http://www.ishii.or.jp", "内容": "医療法人　石井会　石井病院【1:病院】【診療科目:0】【一般病床数:188療養病床数:0精神病床数:0感染症病床数:0合計病床数:188】群馬県伊勢崎市波志江町１１５２番地" }, "geometry": { "type": "Point", "coordinates": [ 139.183298, 36.339305 ] } },
{ "type": "Feature", "properties": { "ID": 1011100000105, "正式名称": "せせらぎ病院", "機関区分": 1, "都道府県コード": 10, "市区町村コード": 204, "所在地": "群馬県伊勢崎市市場町１ー１３９９", "緯度": 36.371583, "経度": 139.220583, "url": "https://www.iryou.teikyouseido.mhlw.go.jp/znk-web/juminkanja/S2430/initialize?prefCd=10&kikanCd=1100000105&kikanKbn=1", "url2": "http://e-keisenkai.com/", "内容": "せせらぎ病院【1:病院】【診療科目:0】【一般病床数:49療養病床数:0精神病床数:0感染症病床数:0合計病床数:49】群馬県伊勢崎市市場町１ー１３９９" }, "geometry": { "type": "Point", "coordinates": [ 139.220583, 36.371583 ] } },
{ "type": "Feature", "properties": { "ID": 1011100000106, "正式名称": "桐生厚生総合病院", "機関区分": 1, "都道府県コード": 10, "市区町村コード": 203, "所在地": "群馬県桐生市織姫町６－３", "緯度": 36.405576, "経度": 139.327488, "url": "https://www.iryou.teikyouseido.mhlw.go.jp/znk-web/juminkanja/S2430/initialize?prefCd=10&kikanCd=1100000106&kikanKbn=1", "url2": "https://www.kosei-hospital.kiryu.gunma.jp/", "内容": "桐生厚生総合病院【1:病院】【診療科目:0】【一般病床数:400療養病床数:0精神病床数:0感染症病床数:4合計病床数:404】群馬県桐生市織姫町６－３" }, "geometry": { "type": "Point", "coordinates": [ 139.327488, 36.405576 ] } },
{ "type": "Feature", "properties": { "ID": 1011100000107, "正式名称": "（医）岸会　岸病院", "機関区分": 1, "都道府県コード": 10, "市区町村コード": 203, "所在地": "群馬県桐生市相生町２－２７７", "緯度": 36.414548, "経度": 139.314286, "url": "https://www.iryou.teikyouseido.mhlw.go.jp/znk-web/juminkanja/S2430/initialize?prefCd=10&kikanCd=1100000107&kikanKbn=1", "url2": "https://kishikai.org/", "内容": "（医）岸会　岸病院【1:病院】【診療科目:0】【一般病床数:0療養病床数:0精神病床数:286感染症病床数:0合計病床数:286】群馬県桐生市相生町２－２７７" }, "geometry": { "type": "Point", "coordinates": [ 139.314286, 36.414548 ] } },
{ "type": "Feature", "properties": { "ID": 1011100000108, "正式名称": "岩下病院", "機関区分": 1, "都道府県コード": 10, "市区町村コード": 203, "所在地": "群馬県桐生市本町４丁目３２０番地", "緯度": 36.413754, "経度": 139.340243, "url": "https://www.iryou.teikyouseido.mhlw.go.jp/znk-web/juminkanja/S2430/initialize?prefCd=10&kikanCd=1100000108&kikanKbn=1", "url2": null, "内容": "岩下病院【1:病院】【診療科目:0】【一般病床数:48療養病床数:0精神病床数:0感染症病床数:0合計病床数:48】群馬県桐生市本町４丁目３２０番地" }, "geometry": { "type": "Point", "coordinates": [ 139.340243, 36.413754 ] } },
{ "type": "Feature", "properties": { "ID": 1011100000109, "正式名称": "両毛整肢療護園", "機関区分": 1, "都道府県コード": 10, "市区町村コード": 203, "所在地": "群馬県桐生市広沢町１－２６４８－１", "緯度": 36.389194, "経度": 139.336028, "url": "https://www.iryou.teikyouseido.mhlw.go.jp/znk-web/juminkanja/S2430/initialize?prefCd=10&kikanCd=1100000109&kikanKbn=1", "url2": "https://ryouiku-futabakai.or.jp/ryogoen", "内容": "両毛整肢療護園【1:病院】【診療科目:0】【一般病床数:60療養病床数:0精神病床数:0感染症病床数:0合計病床数:60】群馬県桐生市広沢町１－２６４８－１" }, "geometry": { "type": "Point", "coordinates": [ 139.336028, 36.389194 ] } },
{ "type": "Feature", "properties": { "ID": 1011100000110, "正式名称": "医療法人社団全仁会高木病院", "機関区分": 1, "都道府県コード": 10, "市区町村コード": 203, "所在地": "群馬県桐生市相生町", "緯度": 36.407837, "経度": 139.30136, "url": "https://www.iryou.teikyouseido.mhlw.go.jp/znk-web/juminkanja/S2430/initialize?prefCd=10&kikanCd=1100000110&kikanKbn=1", "url2": "http://www.takagi-hp.com/", "内容": "医療法人社団全仁会高木病院【1:病院】【診療科目:0】【一般病床数:119療養病床数:48精神病床数:0感染症病床数:0合計病床数:167】群馬県桐生市相生町" }, "geometry": { "type": "Point", "coordinates": [ 139.30136, 36.407837 ] } },
{ "type": "Feature", "properties": { "ID": 1011100000111, "正式名称": "医療法人大和会大和病院", "機関区分": 1, "都道府県コード": 10, "市区町村コード": 203, "所在地": "群馬県桐生市稲荷町", "緯度": 36.40684, "経度": 139.332482, "url": "https://www.iryou.teikyouseido.mhlw.go.jp/znk-web/juminkanja/S2430/initialize?prefCd=10&kikanCd=1100000111&kikanKbn=1", "url2": null, "内容": "医療法人大和会大和病院【1:病院】【診療科目:0】【一般病床数:0療養病床数:40精神病床数:0感染症病床数:0合計病床数:40】群馬県桐生市稲荷町" }, "geometry": { "type": "Point", "coordinates": [ 139.332482, 36.40684 ] } },
{ "type": "Feature", "properties": { "ID": 1011100000112, "正式名称": "医療法人社団三思医光会　東邦病院", "機関区分": 1, "都道府県コード": 10, "市区町村コード": 212, "所在地": "群馬県みどり市笠懸町阿左美１１５５", "緯度": 36.390828, "経度": 139.308198, "url": "https://www.iryou.teikyouseido.mhlw.go.jp/znk-web/juminkanja/S2430/initialize?prefCd=10&kikanCd=1100000112&kikanKbn=1", "url2": "http://www.toho-hp.jp/", "内容": "医療法人社団三思医光会　東邦病院【1:病院】【診療科目:0】【一般病床数:221療養病床数:222精神病床数:0感染症病床数:0合計病床数:443】群馬県みどり市笠懸町阿左美１１５５" }, "geometry": { "type": "Point", "coordinates": [ 139.308198, 36.390828 ] } },
{ "type": "Feature", "properties": { "ID": 1011100000113, "正式名称": "社会福祉法人希望の家　療育センター　きぼう", "機関区分": 1, "都道府県コード": 10, "市区町村コード": 212, "所在地": "群馬県みどり市大間々町大間々２２ー４", "緯度": 36.415347, "経度": 139.285019, "url": "https://www.iryou.teikyouseido.mhlw.go.jp/znk-web/juminkanja/S2430/initialize?prefCd=10&kikanCd=1100000113&kikanKbn=1", "url2": "https://www.kibounoie.or.jp", "内容": "社会福祉法人希望の家　療育センター　きぼう【1:病院】【診療科目:0】【一般病床数:140療養病床数:0精神病床数:0感染症病床数:0合計病床数:140】群馬県みどり市大間々町大間々２２ー４" }, "geometry": { "type": "Point", "coordinates": [ 139.285019, 36.415347 ] } },
{ "type": "Feature", "properties": { "ID": 1011100000114, "正式名称": "（医社）東郷会恵愛堂病院", "機関区分": 1, "都道府県コード": 10, "市区町村コード": 212, "所在地": "群馬県みどり市大間々町大間々５０４－６", "緯度": 36.422463, "経度": 139.279501, "url": "https://www.iryou.teikyouseido.mhlw.go.jp/znk-web/juminkanja/S2430/initialize?prefCd=10&kikanCd=1100000114&kikanKbn=1", "url2": "http://wwwkeiaido.com", "内容": "（医社）東郷会恵愛堂病院【1:病院】【診療科目:0】【一般病床数:168療養病床数:102精神病床数:0感染症病床数:0合計病床数:270】群馬県みどり市大間々町大間々５０４－６" }, "geometry": { "type": "Point", "coordinates": [ 139.279501, 36.422463 ] } },
{ "type": "Feature", "properties": { "ID": 1011100000117, "正式名称": "医療法人社団明石会　桐生整形外科病院", "機関区分": 1, "都道府県コード": 10, "市区町村コード": 203, "所在地": "群馬県桐生市相生町", "緯度": 36.390725, "経度": 139.33694, "url": "https://www.iryou.teikyouseido.mhlw.go.jp/znk-web/juminkanja/S2430/initialize?prefCd=10&kikanCd=1100000117&kikanKbn=1", "url2": "http://www.kiryu-seikei.com/index.html", "内容": "医療法人社団明石会　桐生整形外科病院【1:病院】【診療科目:0】【一般病床数:38療養病床数:0精神病床数:0感染症病床数:0合計病床数:38】群馬県桐生市相生町" }, "geometry": { "type": "Point", "coordinates": [ 139.33694, 36.390725 ] } },
{ "type": "Feature", "properties": { "ID": 1011100000118, "正式名称": "医療法人日望会　みどり病院", "機関区分": 1, "都道府県コード": 10, "市区町村コード": 212, "所在地": "群馬県みどり市笠懸町鹿２６４６ー２", "緯度": 36.400296, "経度": 139.28134, "url": "https://www.iryou.teikyouseido.mhlw.go.jp/znk-web/juminkanja/S2430/initialize?prefCd=10&kikanCd=1100000118&kikanKbn=1", "url2": "http://sunhope.or.jp/", "内容": "医療法人日望会　みどり病院【1:病院】【診療科目:0】【一般病床数:0療養病床数:50精神病床数:0感染症病床数:0合計病床数:84】群馬県みどり市笠懸町鹿２６４６ー２" }, "geometry": { "type": "Point", "coordinates": [ 139.28134, 36.400296 ] } },
{ "type": "Feature", "properties": { "ID": 1011100000119, "正式名称": "医療法人山育会日新病院", "機関区分": 1, "都道府県コード": 10, "市区町村コード": 203, "所在地": "群馬県桐生市菱町３ー２０６９ー１", "緯度": 36.410015, "経度": 139.352213, "url": "https://www.iryou.teikyouseido.mhlw.go.jp/znk-web/juminkanja/S2430/initialize?prefCd=10&kikanCd=1100000119&kikanKbn=1", "url2": "http://www.sanikukai.com/nisshin/index.php", "内容": "医療法人山育会日新病院【1:病院】【診療科目:0】【一般病床数:39療養病床数:51精神病床数:0感染症病床数:0合計病床数:90】群馬県桐生市菱町３ー２０６９ー１" }, "geometry": { "type": "Point", "coordinates": [ 139.352213, 36.410015 ] } },
{ "type": "Feature", "properties": { "ID": 1011100000120, "正式名称": "群馬県立がんセンター", "機関区分": 1, "都道府県コード": 10, "市区町村コード": 205, "所在地": "群馬県太田市高林西町６１７ー１", "緯度": 36.257009, "経度": 139.364834, "url": "https://www.iryou.teikyouseido.mhlw.go.jp/znk-web/juminkanja/S2430/initialize?prefCd=10&kikanCd=1100000120&kikanKbn=1", "url2": "https://www.gunma-cc.jp/", "内容": "群馬県立がんセンター【1:病院】【診療科目:0】【一般病床数:314療養病床数:0精神病床数:0感染症病床数:0合計病床数:314】群馬県太田市高林西町６１７ー１" }, "geometry": { "type": "Point", "coordinates": [ 139.364834, 36.257009 ] } },
{ "type": "Feature", "properties": { "ID": 1011100000121, "正式名称": "ＳＵＢＡＲＵ健康保険組合太田記念病院", "機関区分": 1, "都道府県コード": 10, "市区町村コード": 205, "所在地": "群馬県太田市大島町４５５番地１", "緯度": 36.298503, "経度": 139.361486, "url": "https://www.iryou.teikyouseido.mhlw.go.jp/znk-web/juminkanja/S2430/initialize?prefCd=10&kikanCd=1100000121&kikanKbn=1", "url2": "https://www.ota-hosp.or.jp/", "内容": "ＳＵＢＡＲＵ健康保険組合太田記念病院【1:病院】【診療科目:0】【一般病床数:400療養病床数:0精神病床数:0感染症病床数:4合計病床数:404】群馬県太田市大島町４５５番地１" }, "geometry": { "type": "Point", "coordinates": [ 139.361486, 36.298503 ] } },
{ "type": "Feature", "properties": { "ID": 1011100000122, "正式名称": "本島総合病院", "機関区分": 1, "都道府県コード": 10, "市区町村コード": 205, "所在地": "群馬県太田市西本町３－８", "緯度": 36.295255, "経度": 139.369607, "url": "https://www.iryou.teikyouseido.mhlw.go.jp/znk-web/juminkanja/S2430/initialize?prefCd=10&kikanCd=1100000122&kikanKbn=1", "url2": "http://www.motojima.jp", "内容": "本島総合病院【1:病院】【診療科目:0】【一般病床数:148療養病床数:51精神病床数:0感染症病床数:0合計病床数:199】群馬県太田市西本町３－８" }, "geometry": { "type": "Point", "coordinates": [ 139.369607, 36.295255 ] } },
{ "type": "Feature", "properties": { "ID": 1011100000123, "正式名称": "医療法人　愛全会　武蔵野病院", "機関区分": 1, "都道府県コード": 10, "市区町村コード": 205, "所在地": "群馬県太田市龍舞町２９３番地", "緯度": 36.272597, "経度": 139.422598, "url": "https://www.iryou.teikyouseido.mhlw.go.jp/znk-web/juminkanja/S2430/initialize?prefCd=10&kikanCd=1100000123&kikanKbn=1", "url2": "http://www.ota-aizenkai.or.jp/", "内容": "医療法人　愛全会　武蔵野病院【1:病院】【診療科目:0】【一般病床数:0療養病床数:0精神病床数:185感染症病床数:0合計病床数:185】群馬県太田市龍舞町２９３番地" }, "geometry": { "type": "Point", "coordinates": [ 139.422598, 36.272597 ] } },
{ "type": "Feature", "properties": { "ID": 1011100000124, "正式名称": "医療法人赤城会三枚橋病院", "機関区分": 1, "都道府県コード": 10, "市区町村コード": 205, "所在地": "群馬県太田市長手町１７４４", "緯度": 36.310422, "経度": 139.365649, "url": "https://www.iryou.teikyouseido.mhlw.go.jp/znk-web/juminkanja/S2430/initialize?prefCd=10&kikanCd=1100000124&kikanKbn=1", "url2": "https://akagikai.jp/hospital", "内容": "医療法人赤城会三枚橋病院【1:病院】【診療科目:0】【一般病床数:0療養病床数:0精神病床数:220感染症病床数:0合計病床数:220】群馬県太田市長手町１７４４" }, "geometry": { "type": "Point", "coordinates": [ 139.365649, 36.310422 ] } },
{ "type": "Feature", "properties": { "ID": 1011100000125, "正式名称": "医療法人三省会　堀江病院", "機関区分": 1, "都道府県コード": 10, "市区町村コード": 205, "所在地": "群馬県太田市高林東町１８００", "緯度": 36.261752, "経度": 139.375993, "url": "https://www.iryou.teikyouseido.mhlw.go.jp/znk-web/juminkanja/S2430/initialize?prefCd=10&kikanCd=1100000125&kikanKbn=1", "url2": "http://www.horie.or.jp", "内容": "医療法人三省会　堀江病院【1:病院】【診療科目:0】【一般病床数:133療養病床数:45精神病床数:0感染症病床数:0合計病床数:178】群馬県太田市高林東町１８００" }, "geometry": { "type": "Point", "coordinates": [ 139.375993, 36.261752 ] } },
{ "type": "Feature", "properties": { "ID": 1011100000126, "正式名称": "医療法人財団明理会イムス太田中央総合病院", "機関区分": 1, "都道府県コード": 10, "市区町村コード": 205, "所在地": "群馬県太田市東今泉町８７５－１", "緯度": 36.328651, "経度": 139.38097, "url": "https://www.iryou.teikyouseido.mhlw.go.jp/znk-web/juminkanja/S2430/initialize?prefCd=10&kikanCd=1100000126&kikanKbn=1", "url2": "http://www.ims.gr.jp/ohta/", "内容": "医療法人財団明理会イムス太田中央総合病院【1:病院】【診療科目:0】【一般病床数:212療養病床数:138精神病床数:0感染症病床数:0合計病床数:350】群馬県太田市東今泉町８７５－１" }, "geometry": { "type": "Point", "coordinates": [ 139.38097, 36.328651 ] } },
{ "type": "Feature", "properties": { "ID": 1011100000127, "正式名称": "社会医療法人社団　慶友会　東毛敬愛病院", "機関区分": 1, "都道府県コード": 10, "市区町村コード": 205, "所在地": "群馬県太田市上小林町２３０ー１", "緯度": 36.314823, "経度": 139.399326, "url": "https://www.iryou.teikyouseido.mhlw.go.jp/znk-web/juminkanja/S2430/initialize?prefCd=10&kikanCd=1100000127&kikanKbn=1", "url2": "http://www.keiai-h.com/", "内容": "社会医療法人社団　慶友会　東毛敬愛病院【1:病院】【診療科目:0】【一般病床数:0療養病床数:48精神病床数:0感染症病床数:0合計病床数:48】群馬県太田市上小林町２３０ー１" }, "geometry": { "type": "Point", "coordinates": [ 139.399326, 36.314823 ] } },
{ "type": "Feature", "properties": { "ID": 1011100000128, "正式名称": "医療法人社団松嶺会冨士ヶ丘病院", "機関区分": 1, "都道府県コード": 10, "市区町村コード": 205, "所在地": "群馬県太田市熊野町３８―８１", "緯度": 36.307407, "経度": 139.383961, "url": "https://www.iryou.teikyouseido.mhlw.go.jp/znk-web/juminkanja/S2430/initialize?prefCd=10&kikanCd=1100000128&kikanKbn=1", "url2": "https://fujigaoka-hosp.jp", "内容": "医療法人社団松嶺会冨士ヶ丘病院【1:病院】【診療科目:0】【一般病床数:51療養病床数:39精神病床数:0感染症病床数:0合計病床数:90】群馬県太田市熊野町３８―８１" }, "geometry": { "type": "Point", "coordinates": [ 139.383961, 36.307407 ] } },
{ "type": "Feature", "properties": { "ID": 1011100000129, "正式名称": "医療法人　慶仁会　城山病院", "機関区分": 1, "都道府県コード": 10, "市区町村コード": 205, "所在地": "群馬県太田市飯塚町", "緯度": 36.280262, "経度": 139.379026, "url": "https://www.iryou.teikyouseido.mhlw.go.jp/znk-web/juminkanja/S2430/initialize?prefCd=10&kikanCd=1100000129&kikanKbn=1", "url2": "http://www.shiroyama-hospital.or.jp/", "内容": "医療法人　慶仁会　城山病院【1:病院】【診療科目:0】【一般病床数:86療養病床数:96精神病床数:0感染症病床数:0合計病床数:170】群馬県太田市飯塚町" }, "geometry": { "type": "Point", "coordinates": [ 139.379026, 36.280262 ] } },
{ "type": "Feature", "properties": { "ID": 1011100000131, "正式名称": "医療法人宏愛会宏愛会第一病院", "機関区分": 1, "都道府県コード": 10, "市区町村コード": 205, "所在地": "群馬県太田市六千石町９９－６３", "緯度": 36.338482, "経度": 139.286482, "url": "https://www.iryou.teikyouseido.mhlw.go.jp/znk-web/juminkanja/S2430/initialize?prefCd=10&kikanCd=1100000131&kikanKbn=1", "url2": "https://koaikai.jp/daiichi/", "内容": "医療法人宏愛会宏愛会第一病院【1:病院】【診療科目:0】【一般病床数:83療養病床数:40精神病床数:0感染症病床数:0合計病床数:123】群馬県太田市六千石町９９－６３" }, "geometry": { "type": "Point", "coordinates": [ 139.286482, 36.338482 ] } },
{ "type": "Feature", "properties": { "ID": 1011100000132, "正式名称": "邑楽館林医療企業団　公立館林厚生病院", "機関区分": 1, "都道府県コード": 10, "市区町村コード": 207, "所在地": "群馬県館林市成島町２６２ー１", "緯度": 36.248164, "経度": 139.518805, "url": "https://www.iryou.teikyouseido.mhlw.go.jp/znk-web/juminkanja/S2430/initialize?prefCd=10&kikanCd=1100000132&kikanKbn=1", "url2": "http://www.tatebayashikoseibyoin.jp/", "内容": "邑楽館林医療企業団　公立館林厚生病院【1:病院】【診療科目:0】【一般病床数:323療養病床数:0精神病床数:0感染症病床数:6合計病床数:329】群馬県館林市成島町２６２ー１" }, "geometry": { "type": "Point", "coordinates": [ 139.518805, 36.248164 ] } },
{ "type": "Feature", "properties": { "ID": 1011100000133, "正式名称": "医療法人康生会（社団）つつじメンタルホスピタル", "機関区分": 1, "都道府県コード": 10, "市区町村コード": 207, "所在地": "群馬県館林市小桑原町１５０５", "緯度": 36.232409, "経度": 139.518203, "url": "https://www.iryou.teikyouseido.mhlw.go.jp/znk-web/juminkanja/S2430/initialize?prefCd=10&kikanCd=1100000133&kikanKbn=1", "url2": "http://tsutsujimental.jp/", "内容": "医療法人康生会（社団）つつじメンタルホスピタル【1:病院】【診療科目:0】【一般病床数:0療養病床数:0精神病床数:172感染症病床数:0合計病床数:172】群馬県館林市小桑原町１５０５" }, "geometry": { "type": "Point", "coordinates": [ 139.518203, 36.232409 ] } },
{ "type": "Feature", "properties": { "ID": 1011100000134, "正式名称": "医療法人六花会　館林記念病院", "機関区分": 1, "都道府県コード": 10, "市区町村コード": 207, "所在地": "群馬県館林市台宿町７番１８号", "緯度": 36.254252, "経度": 139.534815, "url": "https://www.iryou.teikyouseido.mhlw.go.jp/znk-web/juminkanja/S2430/initialize?prefCd=10&kikanCd=1100000134&kikanKbn=1", "url2": "http://rikkakai.jp/kinenbyouin/", "内容": "医療法人六花会　館林記念病院【1:病院】【診療科目:0】【一般病床数:34療養病床数:70精神病床数:0感染症病床数:0合計病床数:104】群馬県館林市台宿町７番１８号" }, "geometry": { "type": "Point", "coordinates": [ 139.534815, 36.254252 ] } },
{ "type": "Feature", "properties": { "ID": 1011100000135, "正式名称": "（医社）田口会新橋病院", "機関区分": 1, "都道府県コード": 10, "市区町村コード": 207, "所在地": "群馬県館林市下三林町４５２番地", "緯度": 36.22102, "経度": 139.510959, "url": "https://www.iryou.teikyouseido.mhlw.go.jp/znk-web/juminkanja/S2430/initialize?prefCd=10&kikanCd=1100000135&kikanKbn=1", "url2": "http://www.shinbashi.or.jp/", "内容": "（医社）田口会新橋病院【1:病院】【診療科目:0】【一般病床数:46療養病床数:0精神病床数:0感染症病床数:0合計病床数:46】群馬県館林市下三林町４５２番地" }, "geometry": { "type": "Point", "coordinates": [ 139.510959, 36.22102 ] } },
{ "type": "Feature", "properties": { "ID": 1011100000136, "正式名称": "医療法人社団三思医光会おうら病院", "機関区分": 1, "都道府県コード": 10, "市区町村コード": 525, "所在地": "群馬県邑楽郡邑楽町篠塚３２３３－１", "緯度": 36.255057, "経度": 139.433036, "url": "https://www.iryou.teikyouseido.mhlw.go.jp/znk-web/juminkanja/S2430/initialize?prefCd=10&kikanCd=1100000136&kikanKbn=1", "url2": "http://www.ora-hosp.or.jp", "内容": "医療法人社団三思医光会おうら病院【1:病院】【診療科目:0】【一般病床数:39療養病床数:41精神病床数:0感染症病床数:0合計病床数:80】群馬県邑楽郡邑楽町篠塚３２３３－１" }, "geometry": { "type": "Point", "coordinates": [ 139.433036, 36.255057 ] } },
{ "type": "Feature", "properties": { "ID": 1011100000137, "正式名称": "社会医療法人　社団　慶友会　慶友整形外科病院", "機関区分": 1, "都道府県コード": 10, "市区町村コード": 207, "所在地": "群馬県館林市赤生田町２２６７番１", "緯度": 36.233457, "経度": 139.553409, "url": "https://www.iryou.teikyouseido.mhlw.go.jp/znk-web/juminkanja/S2430/initialize?prefCd=10&kikanCd=1100000137&kikanKbn=1", "url2": "http://www.ku-kai.or.jp", "内容": "社会医療法人　社団　慶友会　慶友整形外科病院【1:病院】【診療科目:0】【一般病床数:137療養病床数:0精神病床数:0感染症病床数:0合計病床数:137】群馬県館林市赤生田町２２６７番１" }, "geometry": { "type": "Point", "coordinates": [ 139.553409, 36.233457 ] } },
{ "type": "Feature", "properties": { "ID": 1011100000138, "正式名称": "（医）徹裕会蜂谷病院", "機関区分": 1, "都道府県コード": 10, "市区町村コード": 524, "所在地": "群馬県邑楽郡大泉町朝日４ー１１ー１", "緯度": 36.251152, "経度": 139.420452, "url": "https://www.iryou.teikyouseido.mhlw.go.jp/znk-web/juminkanja/S2430/initialize?prefCd=10&kikanCd=1100000138&kikanKbn=1", "url2": "http://www.hachiyahospital.jp/", "内容": "（医）徹裕会蜂谷病院【1:病院】【診療科目:0】【一般病床数:26療養病床数:48精神病床数:0感染症病床数:0合計病床数:74】群馬県邑楽郡大泉町朝日４ー１１ー１" }, "geometry": { "type": "Point", "coordinates": [ 139.420452, 36.251152 ] } },
{ "type": "Feature", "properties": { "ID": 1011100000139, "正式名称": "医療法人海宝会明和セントラル病院", "機関区分": 1, "都道府県コード": 10, "市区町村コード": 522, "所在地": "群馬県邑楽郡明和町中谷３３１番地１", "緯度": 36.221382, "経度": 139.53403, "url": "https://www.iryou.teikyouseido.mhlw.go.jp/znk-web/juminkanja/S2430/initialize?prefCd=10&kikanCd=1100000139&kikanKbn=1", "url2": "https://meiwa-central.jp/", "内容": "医療法人海宝会明和セントラル病院【1:病院】【診療科目:0】【一般病床数:39療養病床数:0精神病床数:0感染症病床数:0合計病床数:39】群馬県邑楽郡明和町中谷３３１番地１" }, "geometry": { "type": "Point", "coordinates": [ 139.53403, 36.221382 ] } },
{ "type": "Feature", "properties": { "ID": 1011100000145, "正式名称": "山王リハビリテーション病院", "機関区分": 1, "都道府県コード": 10, "市区町村コード": 201, "所在地": "群馬県前橋市山王町１３３", "緯度": 36.346917, "経度": 139.12775, "url": "https://www.iryou.teikyouseido.mhlw.go.jp/znk-web/juminkanja/S2430/initialize?prefCd=10&kikanCd=1100000145&kikanKbn=1", "url2": "http://www.sannou-life.jp", "内容": "山王リハビリテーション病院【1:病院】【診療科目:0】【一般病床数:46療養病床数:0精神病床数:0感染症病床数:0合計病床数:46】群馬県前橋市山王町１３３" }, "geometry": { "type": "Point", "coordinates": [ 139.12775, 36.346917 ] } },
{ "type": "Feature", "properties": { "ID": 1011100000147, "正式名称": "医療法人社団田貫会高瀬記念病院", "機関区分": 1, "都道府県コード": 10, "市区町村コード": 202, "所在地": "群馬県高崎市南大類町８８５－２", "緯度": 36.327339, "経度": 139.038294, "url": "https://www.iryou.teikyouseido.mhlw.go.jp/znk-web/juminkanja/S2430/initialize?prefCd=10&kikanCd=1100000147&kikanKbn=1", "url2": "https://www.takase-clinic.com", "内容": "医療法人社団田貫会高瀬記念病院【1:病院】【診療科目:0】【一般病床数:124療養病床数:46精神病床数:0感染症病床数:0合計病床数:170】群馬県高崎市南大類町８８５－２" }, "geometry": { "type": "Point", "coordinates": [ 139.038294, 36.327339 ] } }
]
}
