{
"type": "FeatureCollection",
"name": "geo_10_通所リハビリテーション",
"crs": { "type": "name", "properties": { "name": "urn:ogc:def:crs:OGC:1.3:CRS84" } },
"features": [
{ "type": "Feature", "properties": { "内容": "富沢病院訪問リハビリテーション事業所【通所リハビリテーション】群馬県前橋市朝日町4-17-1", "url": "https://www.kaigokensaku.mhlw.go.jp/10/index.php?action_kouhyou_detail_004_kani=true&JigyosyoCd=1010110516-00&ServiceCd=160&Type=search", "url2": "http://www.tomizawa-h.or.jp/outpatient" }, "geometry": { "type": "Point", "coordinates": [ 139.0903061, 36.38322 ] } },
{ "type": "Feature", "properties": { "内容": "山王リハビリテーションクリニックデイケア【通所リハビリテーション】群馬県前橋市山王町133番地", "url": "https://www.kaigokensaku.mhlw.go.jp/10/index.php?action_kouhyou_detail_004_kani=true&JigyosyoCd=1070101959-00&ServiceCd=160&Type=search", "url2": "http://www.sannou-life.jp" }, "geometry": { "type": "Point", "coordinates": [ 139.124543300000028, 36.3500372 ] } },
{ "type": "Feature", "properties": { "内容": "介護老人保健施設けやき苑【通所リハビリテーション】群馬県前橋市下大島町５９６－１", "url": "https://www.kaigokensaku.mhlw.go.jp/10/index.php?action_kouhyou_detail_004_kani=true&JigyosyoCd=1050180056-00&ServiceCd=160&Type=search", "url2": "http://keyaki-en.com" }, "geometry": { "type": "Point", "coordinates": [ 139.114931333590647, 36.360910826745609 ] } },
{ "type": "Feature", "properties": { "内容": "老人保健施設ビハーラ寿苑【通所リハビリテーション】群馬県前橋市江木町1072", "url": "https://www.kaigokensaku.mhlw.go.jp/10/index.php?action_kouhyou_detail_004_kani=true&JigyosyoCd=1050180049-00&ServiceCd=160&Type=search", "url2": "http://www3.wind.ne.jp/akagi-hospital/vihara/" }, "geometry": { "type": "Point", "coordinates": [ 139.138734600000021, 36.3998073 ] } },
{ "type": "Feature", "properties": { "内容": "独立行政法人地域医療機能推進機構群馬中央病院附属介護老人保健施設【通所リハビリテーション】群馬県前橋市紅雲町一丁目７番１３号", "url": "https://www.kaigokensaku.mhlw.go.jp/10/index.php?action_kouhyou_detail_004_kani=true&JigyosyoCd=1050180080-00&ServiceCd=160&Type=search", "url2": "http://gunma.jcho.go.jp/rouken/" }, "geometry": { "type": "Point", "coordinates": [ 139.060845913399106, 36.385989651922642 ] } },
{ "type": "Feature", "properties": { "内容": "介護老人保健施設　山王ライフ【通所リハビリテーション】群馬県前橋市山王町133番地", "url": "https://www.kaigokensaku.mhlw.go.jp/10/index.php?action_kouhyou_detail_004_kani=true&JigyosyoCd=1050180098-00&ServiceCd=160&Type=search", "url2": "http://www.sannou-life.jp" }, "geometry": { "type": "Point", "coordinates": [ 139.124543300000028, 36.3500372 ] } },
{ "type": "Feature", "properties": { "内容": "介護老人保健施設やまぶき【通所リハビリテーション】群馬県前橋市小屋原町977-3", "url": "https://www.kaigokensaku.mhlw.go.jp/10/index.php?action_kouhyou_detail_004_kani=true&JigyosyoCd=1050180114-00&ServiceCd=160&Type=search", "url2": null }, "geometry": { "type": "Point", "coordinates": [ 139.135668547576898, 36.357546843981567 ] } },
{ "type": "Feature", "properties": { "内容": "老人保健施設　一羊館【通所リハビリテーション】群馬県前橋市小坂子町1012-5", "url": "https://www.kaigokensaku.mhlw.go.jp/10/index.php?action_kouhyou_detail_004_kani=true&JigyosyoCd=1050180064-00&ServiceCd=160&Type=search", "url2": "http://www3.alpha-net.ne.jp/users/sheep2/" }, "geometry": { "type": "Point", "coordinates": [ 139.115393400000016, 36.4228755 ] } },
{ "type": "Feature", "properties": { "内容": "社会福祉法人恩賜財団済生会支部群馬県済生会老人保健施設あずま荘【通所リハビリテーション】群馬県前橋市上新田町603-1", "url": "https://www.kaigokensaku.mhlw.go.jp/10/index.php?action_kouhyou_detail_004_kani=true&JigyosyoCd=1050180023-00&ServiceCd=160&Type=search", "url2": "www.maebashi.saiseikai.or.jp/azumasou/" }, "geometry": { "type": "Point", "coordinates": [ 139.060476200000039, 36.3681624 ] } },
{ "type": "Feature", "properties": { "内容": "医療法人相生会わかば病院　通所リハビリテーションわかば【通所リハビリテーション】群馬県前橋市新前橋町4-4", "url": "https://www.kaigokensaku.mhlw.go.jp/10/index.php?action_kouhyou_detail_004_kani=true&JigyosyoCd=1010111324-00&ServiceCd=160&Type=search", "url2": "http://www.wakaba-hp.gr.jp/" }, "geometry": { "type": "Point", "coordinates": [ 139.0533557, 36.3806742 ] } },
{ "type": "Feature", "properties": { "内容": "介護老人保健施設青梨子荘【通所リハビリテーション】群馬県前橋市青梨子町１６７０", "url": "https://www.kaigokensaku.mhlw.go.jp/10/index.php?action_kouhyou_detail_004_kani=true&JigyosyoCd=1050180072-00&ServiceCd=160&Type=search", "url2": "https://hotakakai.or.jp" }, "geometry": { "type": "Point", "coordinates": [ 139.011307200000033, 36.4058111 ] } },
{ "type": "Feature", "properties": { "内容": "介護老人保健施設おうみ【通所リハビリテーション】群馬県前橋市総社町総社２６２８介護老人保健施設おうみ", "url": "https://www.kaigokensaku.mhlw.go.jp/10/index.php?action_kouhyou_detail_004_kani=true&JigyosyoCd=1050180122-00&ServiceCd=160&Type=search", "url2": "http://ken-ei-kai.or.jp/publics/index/103/" }, "geometry": { "type": "Point", "coordinates": [ 139.032905699999986, 36.3956938 ] } },
{ "type": "Feature", "properties": { "内容": "群馬老人保健センター陽光苑【通所リハビリテーション】群馬県前橋市大友町3-26-8", "url": "https://www.kaigokensaku.mhlw.go.jp/10/index.php?action_kouhyou_detail_004_kani=true&JigyosyoCd=1050180015-00&ServiceCd=160&Type=search", "url2": "http://www.ronenbyo.or.jp/youkouen/" }, "geometry": { "type": "Point", "coordinates": [ 139.042285399999969, 36.3927889 ] } },
{ "type": "Feature", "properties": { "内容": "前橋協立病院　通所リハビリテーションセンター　未来【通所リハビリテーション】群馬県前橋市朝倉町８２８－１", "url": "https://www.kaigokensaku.mhlw.go.jp/10/index.php?action_kouhyou_detail_004_kani=true&JigyosyoCd=1070102841-00&ServiceCd=160&Type=search", "url2": "http://www.kyouritsu.or.jp/html/kanjyasanmuke/tusho-mirai.html" }, "geometry": { "type": "Point", "coordinates": [ 139.086471409925792, 36.370088719743187 ] } },
{ "type": "Feature", "properties": { "内容": "介護老人保健施設　創春館【通所リハビリテーション】群馬県前橋市日輪寺町342番地2号", "url": "https://www.kaigokensaku.mhlw.go.jp/10/index.php?action_kouhyou_detail_004_kani=true&JigyosyoCd=1050180106-00&ServiceCd=160&Type=search", "url2": "http://www.sousyunkan.or.jp" }, "geometry": { "type": "Point", "coordinates": [ 139.062683358335903, 36.432589725945938 ] } },
{ "type": "Feature", "properties": { "内容": "医療法人富士たちばなクリニック【通所リハビリテーション】群馬県前橋市日輪寺町字東田３４２－２", "url": "https://www.kaigokensaku.mhlw.go.jp/10/index.php?action_kouhyou_detail_004_kani=true&JigyosyoCd=1010111175-00&ServiceCd=160&Type=search", "url2": "http://www.sousyunkan.or.jp/" }, "geometry": { "type": "Point", "coordinates": [ 139.062345400000027, 36.432853 ] } },
{ "type": "Feature", "properties": { "内容": "医療法人社団栗林小児科医院【通所リハビリテーション】群馬県前橋市平和町二丁目７番地１", "url": "https://www.kaigokensaku.mhlw.go.jp/10/index.php?action_kouhyou_detail_004_kani=true&JigyosyoCd=1010111258-00&ServiceCd=160&Type=search", "url2": null }, "geometry": { "type": "Point", "coordinates": [ 139.062364, 36.3987886 ] } },
{ "type": "Feature", "properties": { "内容": "介護老人保健施設　森の泉【通所リハビリテーション】群馬県高崎市井出町1280-4", "url": "https://www.kaigokensaku.mhlw.go.jp/10/index.php?action_kouhyou_detail_004_kani=true&JigyosyoCd=1052180047-00&ServiceCd=160&Type=search", "url2": "http://care-net.biz/1-/erin" }, "geometry": { "type": "Point", "coordinates": [ 138.9841626, 36.3738178 ] } },
{ "type": "Feature", "properties": { "内容": "群馬リウマチクリニック通所リハビリテーション【通所リハビリテーション】群馬県高崎市井野町1040", "url": "https://www.kaigokensaku.mhlw.go.jp/10/index.php?action_kouhyou_detail_004_kani=true&JigyosyoCd=1011011184-00&ServiceCd=160&Type=search", "url2": "https://www.ra-inoue-hp.com/racl/" }, "geometry": { "type": "Point", "coordinates": [ 139.027082834918247, 36.353096785328354 ] } },
{ "type": "Feature", "properties": { "内容": "介護老人保健施設　太陽【通所リハビリテーション】群馬県高崎市井野町1040", "url": "https://www.kaigokensaku.mhlw.go.jp/10/index.php?action_kouhyou_detail_004_kani=true&JigyosyoCd=1050280070-00&ServiceCd=160&Type=search", "url2": "https://www.ra-inoue-hp.com/taiyo/" }, "geometry": { "type": "Point", "coordinates": [ 139.027093563754306, 36.353135668840451 ] } },
{ "type": "Feature", "properties": { "内容": "介護老人保健施設　グッドウェル【通所リハビリテーション】群馬県高崎市吉井町吉井415-1", "url": "https://www.kaigokensaku.mhlw.go.jp/10/index.php?action_kouhyou_detail_004_kani=true&JigyosyoCd=1052380019-00&ServiceCd=160&Type=search", "url2": null }, "geometry": { "type": "Point", "coordinates": [ 138.983693, 36.2563809 ] } },
{ "type": "Feature", "properties": { "内容": "介護老人保健施設　ウェルライフ三愛【通所リハビリテーション】群馬県高崎市金古町1758", "url": "https://www.kaigokensaku.mhlw.go.jp/10/index.php?action_kouhyou_detail_004_kani=true&JigyosyoCd=1052180039-00&ServiceCd=160&Type=search", "url2": "http://www.sanaiclinic.or.jp" }, "geometry": { "type": "Point", "coordinates": [ 138.988103099999989, 36.4168869 ] } },
{ "type": "Feature", "properties": { "内容": "介護老人保健施設　春照苑【通所リハビリテーション】群馬県高崎市江木町７１７番地春照苑", "url": "https://www.kaigokensaku.mhlw.go.jp/10/index.php?action_kouhyou_detail_004_kani=true&JigyosyoCd=1050280047-00&ServiceCd=160&Type=search", "url2": "http://www.kibokan-hp.or.jp/shunshouen/" }, "geometry": { "type": "Point", "coordinates": [ 139.020228, 36.335642 ] } },
{ "type": "Feature", "properties": { "内容": "医療法人社団水火会　もてき脳神経外科【通所リハビリテーション】群馬県高崎市上小塙町567", "url": "https://www.kaigokensaku.mhlw.go.jp/10/index.php?action_kouhyou_detail_004_kani=true&JigyosyoCd=1011010855-00&ServiceCd=160&Type=search", "url2": "http://www.suika.or.jp/" }, "geometry": { "type": "Point", "coordinates": [ 138.97919015396721, 36.359433019435912 ] } },
{ "type": "Feature", "properties": { "内容": "介護老人保健施設　若宮苑【通所リハビリテーション】群馬県高崎市上大類町７５９", "url": "https://www.kaigokensaku.mhlw.go.jp/10/index.php?action_kouhyou_detail_004_kani=true&JigyosyoCd=1050280021-00&ServiceCd=160&Type=search", "url2": "http://www.juuyakukai.or.jp" }, "geometry": { "type": "Point", "coordinates": [ 139.030210500000067, 36.3339895 ] } },
{ "type": "Feature", "properties": { "内容": "介護老人保健施設　ケアピース【通所リハビリテーション】群馬県高崎市上豊岡町1165", "url": "https://www.kaigokensaku.mhlw.go.jp/10/index.php?action_kouhyou_detail_004_kani=true&JigyosyoCd=1050280054-00&ServiceCd=160&Type=search", "url2": "https://carepeace.net/" }, "geometry": { "type": "Point", "coordinates": [ 138.970033393917902, 36.342872996310447 ] } },
{ "type": "Feature", "properties": { "内容": "介護老人保健施設あけぼの苑高崎【通所リハビリテーション】群馬県高崎市上豊岡町８２７－１", "url": "https://www.kaigokensaku.mhlw.go.jp/10/index.php?action_kouhyou_detail_004_kani=true&JigyosyoCd=1050280062-00&ServiceCd=160&Type=search", "url2": "http://www.harunaso.or.jp/" }, "geometry": { "type": "Point", "coordinates": [ 138.966756600000053, 36.3432708 ] } },
{ "type": "Feature", "properties": { "内容": "二之沢パナケア介護老人保健施設【通所リハビリテーション】群馬県高崎市足門町158番地2", "url": "https://www.kaigokensaku.mhlw.go.jp/10/index.php?action_kouhyou_detail_004_kani=true&JigyosyoCd=1052180021-00&ServiceCd=160&Type=search", "url2": "http://www.ninosawa.jp/rouken" }, "geometry": { "type": "Point", "coordinates": [ 138.981405212303088, 36.402713988050166 ] } },
{ "type": "Feature", "properties": { "内容": "デイケアくろさわ（介護老人保健施設老健くろさわ通所リハビリテーション）【通所リハビリテーション】群馬県高崎市中居町3-19-2", "url": "https://www.kaigokensaku.mhlw.go.jp/10/index.php?action_kouhyou_detail_004_kani=true&JigyosyoCd=1050280153-00&ServiceCd=160&Type=search", "url2": "http://www.bishinkai.or.jp/roken_kurosawa/" }, "geometry": { "type": "Point", "coordinates": [ 139.0407768, 36.3144099 ] } },
{ "type": "Feature", "properties": { "内容": "介護老人保健施設　あけぼの苑【通所リハビリテーション】群馬県高崎市中室田町2258-1あけぼの苑", "url": "https://www.kaigokensaku.mhlw.go.jp/10/index.php?action_kouhyou_detail_004_kani=true&JigyosyoCd=1052180013-00&ServiceCd=160&Type=search", "url2": "http://www.harunaso.or.jp/akebonoen/" }, "geometry": { "type": "Point", "coordinates": [ 138.859269290212978, 36.397572832250063 ] } },
{ "type": "Feature", "properties": { "内容": "医療法人中央群馬脳神経外科病院【通所リハビリテーション】群馬県高崎市中尾町64－1医療法人中央群馬脳神経外科病院", "url": "https://www.kaigokensaku.mhlw.go.jp/10/index.php?action_kouhyou_detail_004_kani=true&JigyosyoCd=1011010988-00&ServiceCd=160&Type=search", "url2": "http://cgn-h.com/" }, "geometry": { "type": "Point", "coordinates": [ 139.032942400000024, 36.3747414 ] } },
{ "type": "Feature", "properties": { "内容": "通町診療所【通所リハビリテーション】群馬県高崎市通町143-2", "url": "https://www.kaigokensaku.mhlw.go.jp/10/index.php?action_kouhyou_detail_004_kani=true&JigyosyoCd=1011010301-00&ServiceCd=160&Type=search", "url2": "http://www.harunacoop.jp/torimachi/" }, "geometry": { "type": "Point", "coordinates": [ 139.009604, 36.325900400000016 ] } },
{ "type": "Feature", "properties": { "内容": "医療法人井上病院【通所リハビリテーション】群馬県高崎市通町55番地", "url": "https://www.kaigokensaku.mhlw.go.jp/10/index.php?action_kouhyou_detail_004_kani=true&JigyosyoCd=1011010368-00&ServiceCd=160&Type=search", "url2": "http://www.ra-inoue-hp.com/" }, "geometry": { "type": "Point", "coordinates": [ 139.008893100000023, 36.3239671 ] } },
{ "type": "Feature", "properties": { "内容": "リハビリセンターかなは【通所リハビリテーション】群馬県高崎市浜川町１７４０－３", "url": "https://www.kaigokensaku.mhlw.go.jp/10/index.php?action_kouhyou_detail_004_kani=true&JigyosyoCd=1070202542-00&ServiceCd=160&Type=search", "url2": null }, "geometry": { "type": "Point", "coordinates": [ 138.985096099999964, 36.3620997 ] } },
{ "type": "Feature", "properties": { "内容": "医療法人　関越中央病院【通所リハビリテーション】群馬県高崎市北原町71", "url": "https://www.kaigokensaku.mhlw.go.jp/10/index.php?action_kouhyou_detail_004_kani=true&JigyosyoCd=1011510128-00&ServiceCd=160&Type=search", "url2": "http://www.kan-etsu-hospital.com" }, "geometry": { "type": "Point", "coordinates": [ 139.025117099999989, 36.405781 ] } },
{ "type": "Feature", "properties": { "内容": "介護老人保健施設みさと【通所リハビリテーション】群馬県高崎市箕郷町上芝６２８－１", "url": "https://www.kaigokensaku.mhlw.go.jp/10/index.php?action_kouhyou_detail_004_kani=true&JigyosyoCd=1052180005-00&ServiceCd=160&Type=search", "url2": "http://mizuhokai-misato.or.jp/" }, "geometry": { "type": "Point", "coordinates": [ 138.956623, 36.3830489 ] } },
{ "type": "Feature", "properties": { "内容": "介護老人保健施設いずみ【通所リハビリテーション】群馬県高崎市箕郷町矢原12番地1", "url": "https://www.kaigokensaku.mhlw.go.jp/10/index.php?action_kouhyou_detail_004_kani=true&JigyosyoCd=1050280187-00&ServiceCd=160&Type=search", "url2": "http://www.izuminosono.com" }, "geometry": { "type": "Point", "coordinates": [ 138.96272010000007, 36.3972649 ] } },
{ "type": "Feature", "properties": { "内容": "高崎老人保健施設　福寿苑【通所リハビリテーション】群馬県高崎市矢中町841", "url": "https://www.kaigokensaku.mhlw.go.jp/10/index.php?action_kouhyou_detail_004_kani=true&JigyosyoCd=1050280039-00&ServiceCd=160&Type=search", "url2": "http:/www.iwata-hp.or.jp" }, "geometry": { "type": "Point", "coordinates": [ 139.051315100000011, 36.3047688 ] } },
{ "type": "Feature", "properties": { "内容": "介護老人保健施設　和光園【通所リハビリテーション】群馬県高崎市矢島町449‐2", "url": "https://www.kaigokensaku.mhlw.go.jp/10/index.php?action_kouhyou_detail_004_kani=true&JigyosyoCd=1050280013-00&ServiceCd=160&Type=search", "url2": "http://www.komai-hp.com/wakoen.html" }, "geometry": { "type": "Point", "coordinates": [ 139.049367, 36.3391454 ] } },
{ "type": "Feature", "properties": { "内容": "介護老人保健施設　クララトーホー【通所リハビリテーション】群馬県桐生市広沢町２-３２０８-１", "url": "https://www.kaigokensaku.mhlw.go.jp/10/index.php?action_kouhyou_detail_004_kani=true&JigyosyoCd=1050380037-00&ServiceCd=160&Type=search", "url2": "http://www.kurara-toho.or.jp/index.html" }, "geometry": { "type": "Point", "coordinates": [ 139.321063800000047, 36.390644900000034 ] } },
{ "type": "Feature", "properties": { "内容": "桐生整形外科広沢クリニック　通所リハビリテーション【通所リハビリテーション】群馬県桐生市広沢町間ノ島284-1", "url": "https://www.kaigokensaku.mhlw.go.jp/10/index.php?action_kouhyou_detail_004_kani=true&JigyosyoCd=1012410823-00&ServiceCd=160&Type=search", "url2": "https://kiryu-seikei.com/clinic.php" }, "geometry": { "type": "Point", "coordinates": [ 139.336733596295176, 36.391006235549121 ] } },
{ "type": "Feature", "properties": { "内容": "おりひめ医院通所リハビリテーション【通所リハビリテーション】群馬県桐生市織姫町4番33号", "url": "https://www.kaigokensaku.mhlw.go.jp/10/index.php?action_kouhyou_detail_004_kani=true&JigyosyoCd=1012410682-00&ServiceCd=160&Type=search", "url2": "http://www.orihime.byoinnavi.jp" }, "geometry": { "type": "Point", "coordinates": [ 139.32834532579497, 36.402575288292915 ] } },
{ "type": "Feature", "properties": { "内容": "介護老人保健施設さくら苑【通所リハビリテーション】群馬県桐生市新里町新川２４８８", "url": "https://www.kaigokensaku.mhlw.go.jp/10/index.php?action_kouhyou_detail_004_kani=true&JigyosyoCd=1052080023-00&ServiceCd=160&Type=search", "url2": "http://www.kiryuushisakura.com/" }, "geometry": { "type": "Point", "coordinates": [ 139.250720099999967, 36.4221876 ] } },
{ "type": "Feature", "properties": { "内容": "介護老人保健施設　かがやき【通所リハビリテーション】群馬県桐生市川内町１－４０７－１", "url": "https://www.kaigokensaku.mhlw.go.jp/10/index.php?action_kouhyou_detail_004_kani=true&JigyosyoCd=1050380029-00&ServiceCd=160&Type=search", "url2": "http://www.sanikukai.com" }, "geometry": { "type": "Point", "coordinates": [ 139.324015799999984, 36.4346094 ] } },
{ "type": "Feature", "properties": { "内容": "医療法人社団　藤井クリニック【通所リハビリテーション】群馬県桐生市川内町４丁目２０８番地", "url": "https://www.kaigokensaku.mhlw.go.jp/10/index.php?action_kouhyou_detail_004_kani=true&JigyosyoCd=1012410633-00&ServiceCd=160&Type=search", "url2": null }, "geometry": { "type": "Point", "coordinates": [ 139.296110099999964, 36.4337504 ] } },
{ "type": "Feature", "properties": { "内容": "介護老人保健施設　ナーシングケア川内の杜【通所リハビリテーション】群馬県桐生市川内町4丁目315-1", "url": "https://www.kaigokensaku.mhlw.go.jp/10/index.php?action_kouhyou_detail_004_kani=true&JigyosyoCd=1050380045-00&ServiceCd=160&Type=search", "url2": "http://www.koaikai.or.jp" }, "geometry": { "type": "Point", "coordinates": [ 139.293896014900184, 36.433281996220643 ] } },
{ "type": "Feature", "properties": { "内容": "医療法人社団明石会桐生整形外科病院【通所リハビリテーション】群馬県桐生市相生町1丁目253-1", "url": "https://www.kaigokensaku.mhlw.go.jp/10/index.php?action_kouhyou_detail_004_kani=true&JigyosyoCd=1012410781-00&ServiceCd=160&Type=search", "url2": "http://www.kiryu-seikei.com" }, "geometry": { "type": "Point", "coordinates": [ 139.3217818, 36.398061 ] } },
{ "type": "Feature", "properties": { "内容": "医療法人宏愛会篠原クリニック【通所リハビリテーション】群馬県桐生市相生町3-174-22", "url": "https://www.kaigokensaku.mhlw.go.jp/10/index.php?action_kouhyou_detail_004_kani=true&JigyosyoCd=1012410229-00&ServiceCd=160&Type=search", "url2": "https://www.koaikai.jp/sinohara/" }, "geometry": { "type": "Point", "coordinates": [ 139.303472350926171, 36.418687180917637 ] } },
{ "type": "Feature", "properties": { "内容": "こんどう整形外科リハビリテーション科医院【通所リハビリテーション】群馬県桐生市仲町２丁目１１号６番地", "url": "https://www.kaigokensaku.mhlw.go.jp/10/index.php?action_kouhyou_detail_004_kani=true&JigyosyoCd=1012400287-00&ServiceCd=160&Type=search", "url2": "http://www.kondoiin.jp" }, "geometry": { "type": "Point", "coordinates": [ 139.342728, 36.4091819 ] } },
{ "type": "Feature", "properties": { "内容": "医療法人山育会　日新病院【通所リハビリテーション】群馬県桐生市菱町３丁目２０６９－１", "url": "https://www.kaigokensaku.mhlw.go.jp/10/index.php?action_kouhyou_detail_004_kani=true&JigyosyoCd=1012410542-00&ServiceCd=160&Type=search", "url2": "http://www.sanikukai.com" }, "geometry": { "type": "Point", "coordinates": [ 139.352252, 36.4101263 ] } },
{ "type": "Feature", "properties": { "内容": "介護老人保健施設　旭ヶ丘【通所リハビリテーション】群馬県伊勢崎市間野谷町135-1", "url": "https://www.kaigokensaku.mhlw.go.jp/10/index.php?action_kouhyou_detail_004_kani=true&JigyosyoCd=1052880034-00&ServiceCd=160&Type=search", "url2": "ｈｔｔｐ：//ｗｗｗ.asahigaoka.or.jp" }, "geometry": { "type": "Point", "coordinates": [ 139.26671650000003, 36.3740785 ] } },
{ "type": "Feature", "properties": { "内容": "介護老人保健施設鶴寿園【通所リハビリテーション】群馬県伊勢崎市境百々421", "url": "https://www.kaigokensaku.mhlw.go.jp/10/index.php?action_kouhyou_detail_004_kani=true&JigyosyoCd=1052880018-00&ServiceCd=160&Type=search", "url2": null }, "geometry": { "type": "Point", "coordinates": [ 139.2544239, 36.2772801 ] } },
{ "type": "Feature", "properties": { "内容": "介護老人保健施設アルボース【通所リハビリテーション】群馬県伊勢崎市太田町427-3", "url": "https://www.kaigokensaku.mhlw.go.jp/10/index.php?action_kouhyou_detail_004_kani=true&JigyosyoCd=1050480019-00&ServiceCd=160&Type=search", "url2": "http://mihara-ibbv.jp/arbos/" }, "geometry": { "type": "Point", "coordinates": [ 139.180096264418012, 36.328406670637776 ] } },
{ "type": "Feature", "properties": { "内容": "介護老人保健施設まゆ玉【通所リハビリテーション】群馬県伊勢崎市長沼町２６６４－１", "url": "https://www.kaigokensaku.mhlw.go.jp/10/index.php?action_kouhyou_detail_004_kani=true&JigyosyoCd=1050480035-00&ServiceCd=160&Type=search", "url2": "http://www.mayudama.jp" }, "geometry": { "type": "Point", "coordinates": [ 139.213297900000043, 36.2648893 ] } },
{ "type": "Feature", "properties": { "内容": "介護老人保健施設　ひまわり【通所リハビリテーション】群馬県伊勢崎市連取本町１２番地1", "url": "https://www.kaigokensaku.mhlw.go.jp/10/index.php?action_kouhyou_detail_004_kani=true&JigyosyoCd=1050480043-00&ServiceCd=160&Type=search", "url2": "http://www.hospital.isesaki.gunma.jp" }, "geometry": { "type": "Point", "coordinates": [ 139.17756380000003, 36.3230399 ] } },
{ "type": "Feature", "properties": { "内容": "医療法人鹿山整形外科医院　通所リハビリテーションきらら【通所リハビリテーション】群馬県太田市飯田町1103-1", "url": "https://www.kaigokensaku.mhlw.go.jp/10/index.php?action_kouhyou_detail_004_kani=true&JigyosyoCd=1012510259-00&ServiceCd=160&Type=search", "url2": "http://kayama-seikei.jp/" }, "geometry": { "type": "Point", "coordinates": [ 139.382908319689989, 36.290754585810198 ] } },
{ "type": "Feature", "properties": { "内容": "介護老人保健施設　希望の苑【通所リハビリテーション】群馬県太田市高林北町1138", "url": "https://www.kaigokensaku.mhlw.go.jp/10/index.php?action_kouhyou_detail_004_kani=true&JigyosyoCd=1050580024-00&ServiceCd=160&Type=search", "url2": "http://www.horie.or.jp/group/sono/" }, "geometry": { "type": "Point", "coordinates": [ 139.371441600000026, 36.2636 ] } },
{ "type": "Feature", "properties": { "内容": "介護老人保健施設　あけぼの荘【通所リハビリテーション】群馬県太田市西本町１３－９", "url": "https://www.kaigokensaku.mhlw.go.jp/10/index.php?action_kouhyou_detail_004_kani=true&JigyosyoCd=1050580032-00&ServiceCd=160&Type=search", "url2": "http://www.motojima.jp" }, "geometry": { "type": "Point", "coordinates": [ 139.36690729999998, 36.2947856 ] } },
{ "type": "Feature", "properties": { "内容": "太田協立診療所【通所リハビリテーション】群馬県太田市石原町927", "url": "https://www.kaigokensaku.mhlw.go.jp/10/index.php?action_kouhyou_detail_004_kani=true&JigyosyoCd=1012510747-00&ServiceCd=160&Type=search", "url2": "http://www.kyouritsu.org/hospital_clinic/ota_cl.htm" }, "geometry": { "type": "Point", "coordinates": [ 139.405448400000068, 36.2976998 ] } },
{ "type": "Feature", "properties": { "内容": "医療法人財団　明理会　介護老人保健施設　イムスやぶづかロイヤルケアセンター【通所リハビリテーション】群馬県太田市大原町531-3", "url": "https://www.kaigokensaku.mhlw.go.jp/10/index.php?action_kouhyou_detail_004_kani=true&JigyosyoCd=1050580073-00&ServiceCd=160&Type=search", "url2": "http://www.ims.gr.jp/yabuduka-royal/" }, "geometry": { "type": "Point", "coordinates": [ 139.296267, 36.3568174 ] } },
{ "type": "Feature", "properties": { "内容": "医療法人財団明理会　イムス太田中央総合病院【通所リハビリテーション】群馬県太田市東今泉町875-1", "url": "https://www.kaigokensaku.mhlw.go.jp/10/index.php?action_kouhyou_detail_004_kani=true&JigyosyoCd=1012510697-00&ServiceCd=160&Type=search", "url2": "http://www.ims.gr.jp/ohta/" }, "geometry": { "type": "Point", "coordinates": [ 139.3809013, 36.3286979 ] } },
{ "type": "Feature", "properties": { "内容": "介護老人保健施設　ふじあく光荘【通所リハビリテーション】群馬県太田市藤阿久町３４５", "url": "https://www.kaigokensaku.mhlw.go.jp/10/index.php?action_kouhyou_detail_004_kani=true&JigyosyoCd=1050580065-00&ServiceCd=160&Type=search", "url2": "http://www.f-hikari.com" }, "geometry": { "type": "Point", "coordinates": [ 139.360691299999985, 36.2852643 ] } },
{ "type": "Feature", "properties": { "内容": "介護老人保健施設　高砂荘【通所リハビリテーション】群馬県太田市飯塚町973-1", "url": "https://www.kaigokensaku.mhlw.go.jp/10/index.php?action_kouhyou_detail_004_kani=true&JigyosyoCd=1050580040-00&ServiceCd=160&Type=search", "url2": "http://www.takasagosou.org" }, "geometry": { "type": "Point", "coordinates": [ 139.388856499999946, 36.2767544 ] } },
{ "type": "Feature", "properties": { "内容": "介護老人保健施設　宏愛苑【通所リハビリテーション】群馬県太田市六千石町５９", "url": "https://www.kaigokensaku.mhlw.go.jp/10/index.php?action_kouhyou_detail_004_kani=true&JigyosyoCd=1050380011-00&ServiceCd=160&Type=search", "url2": "http://www.koaikai.jp/koaien/index.html" }, "geometry": { "type": "Point", "coordinates": [ 139.288329476737999, 36.335421000539206 ] } },
{ "type": "Feature", "properties": { "内容": "沼田クリニック【通所リハビリテーション】群馬県沼田市栄町61－3", "url": "https://www.kaigokensaku.mhlw.go.jp/10/index.php?action_kouhyou_detail_004_kani=true&JigyosyoCd=1010310272-00&ServiceCd=160&Type=search", "url2": "https://kijokai.or.jp/numata-clinic/" }, "geometry": { "type": "Point", "coordinates": [ 139.051599673016426, 36.639631835489027 ] } },
{ "type": "Feature", "properties": { "内容": "パース通所リハビリテーション【通所リハビリテーション】群馬県沼田市下久屋町９４０番地１", "url": "https://www.kaigokensaku.mhlw.go.jp/10/index.php?action_kouhyou_detail_004_kani=true&JigyosyoCd=1070600406-00&ServiceCd=160&Type=search", "url2": "http://www.hotaka.or.jp" }, "geometry": { "type": "Point", "coordinates": [ 139.0852456, 36.6591618 ] } },
{ "type": "Feature", "properties": { "内容": "介護老人保健施設　大誠苑【通所リハビリテーション】群馬県沼田市久屋原町３４５－１", "url": "https://www.kaigokensaku.mhlw.go.jp/10/index.php?action_kouhyou_detail_004_kani=true&JigyosyoCd=1050680014-00&ServiceCd=160&Type=search", "url2": "http://www.taiseikai-group.com" }, "geometry": { "type": "Point", "coordinates": [ 139.10431589999996, 36.6658499 ] } },
{ "type": "Feature", "properties": { "内容": "介護老人保健施設　恵寿の園【通所リハビリテーション】群馬県沼田市上原町１５５５－３", "url": "https://www.kaigokensaku.mhlw.go.jp/10/index.php?action_kouhyou_detail_004_kani=true&JigyosyoCd=1050680022-00&ServiceCd=160&Type=search", "url2": null }, "geometry": { "type": "Point", "coordinates": [ 139.059678800000029, 36.6472327 ] } },
{ "type": "Feature", "properties": { "内容": "介護老人保健施設とね【通所リハビリテーション】群馬県沼田市東原新町1917番地1", "url": "https://www.kaigokensaku.mhlw.go.jp/10/index.php?action_kouhyou_detail_004_kani=true&JigyosyoCd=1050680030-00&ServiceCd=160&Type=search", "url2": "http://www.tonehoken.or.jp" }, "geometry": { "type": "Point", "coordinates": [ 139.055176299999971, 36.6508156 ] } },
{ "type": "Feature", "properties": { "内容": "医療法人つる舞会さくらクリニック通所リハビリテーション『ユートピア』【通所リハビリテーション】群馬県館林市木戸町596番地の1", "url": "https://www.kaigokensaku.mhlw.go.jp/10/index.php?action_kouhyou_detail_004_kani=true&JigyosyoCd=1070700636-00&ServiceCd=160&Type=search", "url2": "https://sakura-utopia.sakura.ne.jp/" }, "geometry": { "type": "Point", "coordinates": [ 139.5169717, 36.2782821 ] } },
{ "type": "Feature", "properties": { "内容": "新橋病院　デイケア【通所リハビリテーション】群馬県館林市下三林町452番地", "url": "https://www.kaigokensaku.mhlw.go.jp/10/index.php?action_kouhyou_detail_004_kani=true&JigyosyoCd=1070700248-00&ServiceCd=160&Type=search", "url2": "http://www.shinbashi.or.jp" }, "geometry": { "type": "Point", "coordinates": [ 139.51111579999997, 36.2211114 ] } },
{ "type": "Feature", "properties": { "内容": "介護老人保健施設　すみれの里【通所リハビリテーション】群馬県館林市坂下町３１９１－１", "url": "https://www.kaigokensaku.mhlw.go.jp/10/index.php?action_kouhyou_detail_004_kani=true&JigyosyoCd=1050780020-00&ServiceCd=160&Type=search", "url2": "http://www.rikkakai.jp" }, "geometry": { "type": "Point", "coordinates": [ 139.53446550000001, 36.2560438 ] } },
{ "type": "Feature", "properties": { "内容": "小曽根整形外科デイケア松沼【通所リハビリテーション】群馬県館林市松沼町29‐27", "url": "https://www.kaigokensaku.mhlw.go.jp/10/index.php?action_kouhyou_detail_004_kani=true&JigyosyoCd=1070700701-00&ServiceCd=160&Type=search", "url2": "http://www.ozoneseikei.jp/" }, "geometry": { "type": "Point", "coordinates": [ 139.498190900000054, 36.2512541 ] } },
{ "type": "Feature", "properties": { "内容": "介護老人保健施設虹の郷すわ【通所リハビリテーション】群馬県館林市諏訪町1509", "url": "https://www.kaigokensaku.mhlw.go.jp/10/index.php?action_kouhyou_detail_004_kani=true&JigyosyoCd=1050780038-00&ServiceCd=160&Type=search", "url2": "https://tsutsujimental.jp/sw/" }, "geometry": { "type": "Point", "coordinates": [ 139.5172814, 36.2321466 ] } },
{ "type": "Feature", "properties": { "内容": "介護老人保健施設　ナーシングホーム館林【通所リハビリテーション】群馬県館林市赤生田町1865-1", "url": "https://www.kaigokensaku.mhlw.go.jp/10/index.php?action_kouhyou_detail_004_kani=true&JigyosyoCd=1050780012-00&ServiceCd=160&Type=search", "url2": null }, "geometry": { "type": "Point", "coordinates": [ 139.563347099999987, 36.2271847 ] } },
{ "type": "Feature", "properties": { "内容": "館林記念病院【通所リハビリテーション】群馬県館林市台宿町7番18号", "url": "https://www.kaigokensaku.mhlw.go.jp/10/index.php?action_kouhyou_detail_004_kani=true&JigyosyoCd=1012610109-00&ServiceCd=160&Type=search", "url2": "http://www.rikkakai.jp" }, "geometry": { "type": "Point", "coordinates": [ 139.534796, 36.2542246 ] } },
{ "type": "Feature", "properties": { "内容": "堀越医院【通所リハビリテーション】群馬県館林市北成島町651-1", "url": "https://www.kaigokensaku.mhlw.go.jp/10/index.php?action_kouhyou_detail_004_kani=true&JigyosyoCd=1012600894-00&ServiceCd=160&Type=search", "url2": null }, "geometry": { "type": "Point", "coordinates": [ 139.511409, 36.2570789 ] } },
{ "type": "Feature", "properties": { "内容": "介護老人保健施設からたちの丘【通所リハビリテーション】群馬県渋川市赤城町津久田4013-1", "url": "https://www.kaigokensaku.mhlw.go.jp/10/index.php?action_kouhyou_detail_004_kani=true&JigyosyoCd=1050880036-00&ServiceCd=160&Type=search", "url2": "http://www.karatachi-web.com/" }, "geometry": { "type": "Point", "coordinates": [ 139.0532671, 36.5376978 ] } },
{ "type": "Feature", "properties": { "内容": "介護老人保健施設　たちばな荘【通所リハビリテーション】群馬県渋川市北橘町上南室163番地1", "url": "https://www.kaigokensaku.mhlw.go.jp/10/index.php?action_kouhyou_detail_004_kani=true&JigyosyoCd=1052080015-00&ServiceCd=160&Type=search", "url2": null }, "geometry": { "type": "Point", "coordinates": [ 139.066178400000013, 36.4992903 ] } },
{ "type": "Feature", "properties": { "内容": "渋川中央病院【通所リハビリテーション】群馬県渋川市石原５０８－１", "url": "https://www.kaigokensaku.mhlw.go.jp/10/index.php?action_kouhyou_detail_004_kani=true&JigyosyoCd=1011110226-00&ServiceCd=160&Type=search", "url2": "http://shibutyu.com" }, "geometry": { "type": "Point", "coordinates": [ 139.006645, 36.4865293 ] } },
{ "type": "Feature", "properties": { "内容": "介護老人保健施設　銀玲【通所リハビリテーション】群馬県渋川市石原564-1", "url": "https://www.kaigokensaku.mhlw.go.jp/10/index.php?action_kouhyou_detail_004_kani=true&JigyosyoCd=1050880010-00&ServiceCd=160&Type=search", "url2": "http://hirakatakai.jp" }, "geometry": { "type": "Point", "coordinates": [ 139.004211899999973, 36.4848267 ] } },
{ "type": "Feature", "properties": { "内容": "介護老人保健施設　赤城苑【通所リハビリテーション】群馬県渋川市赤城町北赤城山1055-1", "url": "https://www.kaigokensaku.mhlw.go.jp/10/index.php?action_kouhyou_detail_004_kani=true&JigyosyoCd=1052080031-00&ServiceCd=160&Type=search", "url2": "https://www.akagien.com/" }, "geometry": { "type": "Point", "coordinates": [ 139.067188200000032, 36.5403991 ] } },
{ "type": "Feature", "properties": { "内容": "通所リハビリほくもう【通所リハビリテーション】群馬県渋川市有馬259-1", "url": "https://www.kaigokensaku.mhlw.go.jp/10/index.php?action_kouhyou_detail_004_kani=true&JigyosyoCd=1050880002-00&ServiceCd=160&Type=search", "url2": null }, "geometry": { "type": "Point", "coordinates": [ 139.0074224, 36.4721707 ] } },
{ "type": "Feature", "properties": { "内容": "介護老人保健施設　藤岡みどりの園【通所リハビリテーション】群馬県藤岡市下大塚字東イツナ５２５", "url": "https://www.kaigokensaku.mhlw.go.jp/10/index.php?action_kouhyou_detail_004_kani=true&JigyosyoCd=1050980018-00&ServiceCd=160&Type=search", "url2": "http://www.shinozuka-hp." }, "geometry": { "type": "Point", "coordinates": [ 139.064268136599964, 36.258321016677641 ] } },
{ "type": "Feature", "properties": { "内容": "藤岡市国民健康保険鬼石病院【通所リハビリテーション】群馬県藤岡市鬼石１３９－１", "url": "https://www.kaigokensaku.mhlw.go.jp/10/index.php?action_kouhyou_detail_004_kani=true&JigyosyoCd=1011210349-00&ServiceCd=160&Type=search", "url2": "https://www.city.fujioka.gunma.jp" }, "geometry": { "type": "Point", "coordinates": [ 139.060901906082108, 36.157303125592279 ] } },
{ "type": "Feature", "properties": { "内容": "藤岡市介護老人保健施設鬼石【通所リハビリテーション】群馬県藤岡市鬼石１３９－１", "url": "https://www.kaigokensaku.mhlw.go.jp/10/index.php?action_kouhyou_detail_004_kani=true&JigyosyoCd=1050980000-00&ServiceCd=160&Type=search", "url2": "http://www.city.fujioka.gunma.jp/" }, "geometry": { "type": "Point", "coordinates": [ 139.0616207380981, 36.157606311261887 ] } },
{ "type": "Feature", "properties": { "内容": "介護老人保健施設ミドルホーム富岡【通所リハビリテーション】群馬県富岡市岡本９６５", "url": "https://www.kaigokensaku.mhlw.go.jp/10/index.php?action_kouhyou_detail_004_kani=true&JigyosyoCd=1051080016-00&ServiceCd=160&Type=search", "url2": "http://www.middle-home.org/" }, "geometry": { "type": "Point", "coordinates": [ 138.8886781, 36.2381682 ] } },
{ "type": "Feature", "properties": { "内容": "通所リハビリテーション　ルルド【通所リハビリテーション】群馬県富岡市七日市555-1", "url": "https://www.kaigokensaku.mhlw.go.jp/10/index.php?action_kouhyou_detail_004_kani=true&JigyosyoCd=1071000390-00&ServiceCd=160&Type=search", "url2": "http://www.kounai-clinic.com" }, "geometry": { "type": "Point", "coordinates": [ 138.882891100000052, 36.2616015 ] } },
{ "type": "Feature", "properties": { "内容": "介護老人保健施設ココン【通所リハビリテーション】群馬県富岡市上小林47", "url": "https://www.kaigokensaku.mhlw.go.jp/10/index.php?action_kouhyou_detail_004_kani=true&JigyosyoCd=1051080032-00&ServiceCd=160&Type=search", "url2": "http://www3.wind.ne.jp/cocon/" }, "geometry": { "type": "Point", "coordinates": [ 138.825994900000069, 36.2372239 ] } },
{ "type": "Feature", "properties": { "内容": "ゆうあい整形外科【通所リハビリテーション】群馬県富岡市富岡市曾木543", "url": "https://www.kaigokensaku.mhlw.go.jp/10/index.php?action_kouhyou_detail_004_kani=true&JigyosyoCd=1011310305-00&ServiceCd=160&Type=search", "url2": "http://website2.infomity.net./8440000046/" }, "geometry": { "type": "Point", "coordinates": [ 138.910860002902155, 36.258195947604577 ] } },
{ "type": "Feature", "properties": { "内容": "介護老人保健施設こまち【通所リハビリテーション】群馬県富岡市相野田469", "url": "https://www.kaigokensaku.mhlw.go.jp/10/index.php?action_kouhyou_detail_004_kani=true&JigyosyoCd=1051080024-00&ServiceCd=160&Type=search", "url2": "www.ryokuyou.jp" }, "geometry": { "type": "Point", "coordinates": [ 138.924873849598725, 36.283502603364006 ] } },
{ "type": "Feature", "properties": { "内容": "通所リハビリテーション細谷【通所リハビリテーション】群馬県富岡市富岡1375番地", "url": "https://www.kaigokensaku.mhlw.go.jp/10/index.php?action_kouhyou_detail_004_kani=true&JigyosyoCd=1051080073-00&ServiceCd=160&Type=search", "url2": "www.hosoya.or.jp" }, "geometry": { "type": "Point", "coordinates": [ 138.894032399999986, 36.2573534 ] } },
{ "type": "Feature", "properties": { "内容": "介護老人保健施設　めぐみ【通所リハビリテーション】群馬県安中市安中3-25-13", "url": "https://www.kaigokensaku.mhlw.go.jp/10/index.php?action_kouhyou_detail_004_kani=true&JigyosyoCd=1051180014-00&ServiceCd=160&Type=search", "url2": "http://med.wind.ne.jp/sutoh-hp" }, "geometry": { "type": "Point", "coordinates": [ 138.90023640000004, 36.3287816 ] } },
{ "type": "Feature", "properties": { "内容": "公立碓氷病院　通所リハビリテーション　そよかぜ【通所リハビリテーション】群馬県安中市原市１－９－１０", "url": "https://www.kaigokensaku.mhlw.go.jp/10/index.php?action_kouhyou_detail_004_kani=true&JigyosyoCd=1071100430-00&ServiceCd=160&Type=search", "url2": "https://usui-hospital.jp/" }, "geometry": { "type": "Point", "coordinates": [ 138.858208142160038, 36.316802056317449 ] } },
{ "type": "Feature", "properties": { "内容": "介護老人保健施設うららく【通所リハビリテーション】群馬県安中市鷺宮２０５－１", "url": "https://www.kaigokensaku.mhlw.go.jp/10/index.php?action_kouhyou_detail_004_kani=true&JigyosyoCd=1051180022-00&ServiceCd=160&Type=search", "url2": "http://www.honda-hospital.jp/" }, "geometry": { "type": "Point", "coordinates": [ 138.89696570000001, 36.3051779 ] } },
{ "type": "Feature", "properties": { "内容": "介護老人保健施設　せせらぎ苑【通所リハビリテーション】群馬県安中市松井田町新堀1300-1", "url": "https://www.kaigokensaku.mhlw.go.jp/10/index.php?action_kouhyou_detail_004_kani=true&JigyosyoCd=1052580014-00&ServiceCd=160&Type=search", "url2": "http://www.matuida-hp.com/institution.php" }, "geometry": { "type": "Point", "coordinates": [ 138.792669, 36.3183193 ] } },
{ "type": "Feature", "properties": { "内容": "介護老人保健施設サンホープ笠懸【通所リハビリテーション】群馬県みどり市笠懸町鹿２６４６－１", "url": "https://www.kaigokensaku.mhlw.go.jp/10/index.php?action_kouhyou_detail_004_kani=true&JigyosyoCd=1052980024-00&ServiceCd=160&Type=search", "url2": "http://sunhope.or.jp" }, "geometry": { "type": "Point", "coordinates": [ 139.281562399999984, 36.399737600000016 ] } },
{ "type": "Feature", "properties": { "内容": "みどり病院【通所リハビリテーション】群馬県みどり市笠懸町鹿2646-2", "url": "https://www.kaigokensaku.mhlw.go.jp/10/index.php?action_kouhyou_detail_004_kani=true&JigyosyoCd=1012710099-00&ServiceCd=160&Type=search", "url2": "https://sunhope.or.jp" }, "geometry": { "type": "Point", "coordinates": [ 139.281412400000022, 36.4002459 ] } },
{ "type": "Feature", "properties": { "内容": "介護老人保健施設　プランタンおおまま【通所リハビリテーション】群馬県みどり市大間々町桐原1570-498", "url": "https://www.kaigokensaku.mhlw.go.jp/10/index.php?action_kouhyou_detail_004_kani=true&JigyosyoCd=1053080014-00&ServiceCd=160&Type=search", "url2": "http://www.syunkoukai.or.jp/" }, "geometry": { "type": "Point", "coordinates": [ 139.265759900000035, 36.4417463 ] } },
{ "type": "Feature", "properties": { "内容": "介護老人保健施設リハビリホーム喜望峰【通所リハビリテーション】群馬県北群馬郡榛東村山子田2547-1", "url": "https://www.kaigokensaku.mhlw.go.jp/10/index.php?action_kouhyou_detail_004_kani=true&JigyosyoCd=1052280003-00&ServiceCd=160&Type=search", "url2": "http://inoseikei.webmedipr.jp/" }, "geometry": { "type": "Point", "coordinates": [ 138.966487, 36.4401668 ] } },
{ "type": "Feature", "properties": { "内容": "井野整形外科リハビリ内科【通所リハビリテーション】群馬県北群馬郡吉岡町南下917-2", "url": "https://www.kaigokensaku.mhlw.go.jp/10/index.php?action_kouhyou_detail_004_kani=true&JigyosyoCd=1011610100-00&ServiceCd=160&Type=search", "url2": "http://inoseikei.webmedipr.jp/" }, "geometry": { "type": "Point", "coordinates": [ 139.004372600000011, 36.4377349 ] } },
{ "type": "Feature", "properties": { "内容": "中之条町介護老人保健施設ゆうあい荘【通所リハビリテーション】群馬県吾妻郡中之条町大字上沢渡２１３３－４", "url": "https://www.kaigokensaku.mhlw.go.jp/10/index.php?action_kouhyou_detail_004_kani=true&JigyosyoCd=1052680020-00&ServiceCd=160&Type=search", "url2": null }, "geometry": { "type": "Point", "coordinates": [ 138.766373700000031, 36.6248592 ] } },
{ "type": "Feature", "properties": { "内容": "西吾妻福祉病院【通所リハビリテーション】群馬県吾妻郡長野原町大津746-4", "url": "https://www.kaigokensaku.mhlw.go.jp/10/index.php?action_kouhyou_detail_004_kani=true&JigyosyoCd=1012110324-00&ServiceCd=160&Type=search", "url2": "http://www.nawh.jp" }, "geometry": { "type": "Point", "coordinates": [ 138.605746599999947, 36.5562802 ] } },
{ "type": "Feature", "properties": { "内容": "介護老人保健施設りんどうの里【通所リハビリテーション】群馬県吾妻郡高山村大字中山２７１５番地２", "url": "https://www.kaigokensaku.mhlw.go.jp/10/index.php?action_kouhyou_detail_004_kani=true&JigyosyoCd=1052680038-00&ServiceCd=160&Type=search", "url2": "http://www.rindo.jp" }, "geometry": { "type": "Point", "coordinates": [ 138.951940199999967, 36.6226336 ] } },
{ "type": "Feature", "properties": { "内容": "吾妻脳神経外科循環器科【通所リハビリテーション】群馬県吾妻郡東吾妻町大字原町760番地1", "url": "https://www.kaigokensaku.mhlw.go.jp/10/index.php?action_kouhyou_detail_004_kani=true&JigyosyoCd=1012110282-00&ServiceCd=160&Type=search", "url2": "https://ssl.kijokai.or.jp/agatsuma-nouge/" }, "geometry": { "type": "Point", "coordinates": [ 138.829385900000034, 36.5756781 ] } },
{ "type": "Feature", "properties": { "内容": "介護老人保健施設武尊荘通所リハビリテーション【通所リハビリテーション】群馬県利根郡川場村生品１８６１", "url": "https://www.kaigokensaku.mhlw.go.jp/10/index.php?action_kouhyou_detail_004_kani=true&JigyosyoCd=1052780010-00&ServiceCd=160&Type=search", "url2": "http://www.hotaka.or.jp/hotakasou/index.htm" }, "geometry": { "type": "Point", "coordinates": [ 139.078455655958578, 36.669260117227395 ] } },
{ "type": "Feature", "properties": { "内容": "月夜野病院【通所リハビリテーション】群馬県利根郡みなかみ町真庭316番地", "url": "https://www.kaigokensaku.mhlw.go.jp/10/index.php?action_kouhyou_detail_004_kani=true&JigyosyoCd=1010510061-00&ServiceCd=160&Type=search", "url2": "http://moon-hp.or.jp/" }, "geometry": { "type": "Point", "coordinates": [ 139.004596799999945, 36.6751251 ] } },
{ "type": "Feature", "properties": { "内容": "介護老人保健施設たまむら【通所リハビリテーション】群馬県佐波郡玉村町上新田６７５-１", "url": "https://www.kaigokensaku.mhlw.go.jp/10/index.php?action_kouhyou_detail_004_kani=true&JigyosyoCd=1052880026-00&ServiceCd=160&Type=search", "url2": "https://www.jyushinkai.or.jp/rouken/" }, "geometry": { "type": "Point", "coordinates": [ 139.098101700000029, 36.3108591 ] } },
{ "type": "Feature", "properties": { "内容": "医療法人海宝会　明和セントラル病院【通所リハビリテーション】群馬県邑楽郡明和町331番地1", "url": "https://www.kaigokensaku.mhlw.go.jp/10/index.php?action_kouhyou_detail_004_kani=true&JigyosyoCd=1013010358-00&ServiceCd=160&Type=search", "url2": "https://meiwa-central.jp/" }, "geometry": { "type": "Point", "coordinates": [ 139.527053487774651, 36.209952748615677 ] } },
{ "type": "Feature", "properties": { "内容": "介護老人保健施設　いずみの里【通所リハビリテーション】群馬県邑楽郡大泉町北小泉1丁目26－1", "url": "https://www.kaigokensaku.mhlw.go.jp/10/index.php?action_kouhyou_detail_004_kani=true&JigyosyoCd=1053180020-00&ServiceCd=160&Type=search", "url2": "http://www.houenkai.jp/izumi/index.htm" }, "geometry": { "type": "Point", "coordinates": [ 139.421701100000064, 36.2652008 ] } },
{ "type": "Feature", "properties": { "内容": "介護老人保健施設　おうらの光【通所リハビリテーション】群馬県邑楽郡邑楽町篠塚3233-1", "url": "https://www.kaigokensaku.mhlw.go.jp/10/index.php?action_kouhyou_detail_004_kani=true&JigyosyoCd=1050580057-00&ServiceCd=160&Type=search", "url2": "https://hikari.ora-hosp.or.jp/" }, "geometry": { "type": "Point", "coordinates": [ 139.433056648585563, 36.255090976107255 ] } },
{ "type": "Feature", "properties": { "内容": "介護老人保健施設　ラポール・レイゾン【通所リハビリテーション】群馬県邑楽郡邑楽町大字赤堀１０３１番地", "url": "https://www.kaigokensaku.mhlw.go.jp/10/index.php?action_kouhyou_detail_004_kani=true&JigyosyoCd=1053180012-00&ServiceCd=160&Type=search", "url2": null }, "geometry": { "type": "Point", "coordinates": [ 139.4847843, 36.235761 ] } }
]
}
