{
"type": "FeatureCollection",
"name": "geo_10_定期巡回・随時対応型訪問介護看護",
"crs": { "type": "name", "properties": { "name": "urn:ogc:def:crs:OGC:1.3:CRS84" } },
"features": [
{ "type": "Feature", "properties": { "内容": "定期巡回随時訪問じゃんけんぽん前橋【定期巡回・随時対応型訪問介護看護】群馬県前橋市上新田町881", "url2": "https://www.kaigokensaku.mhlw.go.jp/10/index.php?action_kouhyou_detail_004_kani=true&JigyosyoCd=1090101088-00&ServiceCd=760&Type=search" }, "geometry": { "type": "Point", "coordinates": [ 139.0648965, 36.3660763 ] } },
{ "type": "Feature", "properties": { "内容": "エムダブルエス日高サポートセンター【定期巡回・随時対応型訪問介護看護】群馬県前橋市元総社町1213-2元総社公社賃貸住宅", "url2": "https://www.kaigokensaku.mhlw.go.jp/10/index.php?action_kouhyou_detail_004_kani=true&JigyosyoCd=1090100379-00&ServiceCd=760&Type=search" }, "geometry": { "type": "Point", "coordinates": [ 139.028170569606004, 36.385928081976793 ] } },
{ "type": "Feature", "properties": { "内容": "定期巡回・随時対応型訪問介護看護グランポルト前橋【定期巡回・随時対応型訪問介護看護】群馬県前橋市昭和町3-11-18", "url2": "https://www.kaigokensaku.mhlw.go.jp/10/index.php?action_kouhyou_detail_004_kani=true&JigyosyoCd=1090100775-00&ServiceCd=760&Type=search" }, "geometry": { "type": "Point", "coordinates": [ 139.06293740000001, 36.4054292 ] } },
{ "type": "Feature", "properties": { "内容": "定期巡回・随時対応型訪問介護看護メディカルケア片貝【定期巡回・随時対応型訪問介護看護】群馬県前橋市東片貝町1079", "url2": "https://www.kaigokensaku.mhlw.go.jp/10/index.php?action_kouhyou_detail_004_kani=true&JigyosyoCd=1090101013-00&ServiceCd=760&Type=search" }, "geometry": { "type": "Point", "coordinates": [ 139.111913, 36.3842464 ] } },
{ "type": "Feature", "properties": { "内容": "訪問介護看護じゃんけんぽん金井淵【定期巡回・随時対応型訪問介護看護】群馬県高崎市金井淵町137-5", "url2": "https://www.kaigokensaku.mhlw.go.jp/10/index.php?action_kouhyou_detail_004_kani=true&JigyosyoCd=1090200732-00&ServiceCd=760&Type=search" }, "geometry": { "type": "Point", "coordinates": [ 138.956660151468469, 36.349797414435272 ] } },
{ "type": "Feature", "properties": { "内容": "キュアステーションようざん【定期巡回・随時対応型訪問介護看護】群馬県高崎市飯塚町1030-1", "url2": "https://www.kaigokensaku.mhlw.go.jp/10/index.php?action_kouhyou_detail_004_kani=true&JigyosyoCd=1090200518-00&ServiceCd=760&Type=search" }, "geometry": { "type": "Point", "coordinates": [ 139.003237200000058, 36.3400161 ] } },
{ "type": "Feature", "properties": { "内容": "関越中央病院　介護・福祉村北原の里　定期巡回･随時対応型訪問介護看護「北原の里」【定期巡回・随時対応型訪問介護看護】群馬県高崎市北原町179-1", "url2": "https://www.kaigokensaku.mhlw.go.jp/10/index.php?action_kouhyou_detail_004_kani=true&JigyosyoCd=1090201243-00&ServiceCd=760&Type=search" }, "geometry": { "type": "Point", "coordinates": [ 139.0223842, 36.4065638 ] } },
{ "type": "Feature", "properties": { "内容": "グランドケア箕輪【定期巡回・随時対応型訪問介護看護】群馬県高崎市箕郷町上芝８４５番３グランドホーム箕輪", "url2": "https://www.kaigokensaku.mhlw.go.jp/10/index.php?action_kouhyou_detail_004_kani=true&JigyosyoCd=1090200807-00&ServiceCd=760&Type=search" }, "geometry": { "type": "Point", "coordinates": [ 138.959578299999976, 36.3852292 ] } },
{ "type": "Feature", "properties": { "内容": "定期巡回訪問みのわ【定期巡回・随時対応型訪問介護看護】群馬県高崎市箕郷町東明屋452-7", "url2": "https://www.kaigokensaku.mhlw.go.jp/10/index.php?action_kouhyou_detail_004_kani=true&JigyosyoCd=1090200567-00&ServiceCd=760&Type=search" }, "geometry": { "type": "Point", "coordinates": [ 138.959329780317717, 36.399104790394624 ] } },
{ "type": "Feature", "properties": { "内容": "アムールフィーリングケア高崎【定期巡回・随時対応型訪問介護看護】群馬県高崎市問屋町1-6-4", "url2": "https://www.kaigokensaku.mhlw.go.jp/10/index.php?action_kouhyou_detail_004_kani=true&JigyosyoCd=1090200864-00&ServiceCd=760&Type=search" }, "geometry": { "type": "Point", "coordinates": [ 139.009425400000026, 36.3495238 ] } },
{ "type": "Feature", "properties": { "内容": "社会福祉法人邦知会　グレイス広沢【定期巡回・随時対応型訪問介護看護】群馬県桐生市広沢町6-307-11", "url2": "https://www.kaigokensaku.mhlw.go.jp/10/index.php?action_kouhyou_detail_004_kani=true&JigyosyoCd=1090300367-00&ServiceCd=760&Type=search" }, "geometry": { "type": "Point", "coordinates": [ 139.358778460049507, 36.372257670327087 ] } },
{ "type": "Feature", "properties": { "内容": "ケアサポ２４【定期巡回・随時対応型訪問介護看護】群馬県伊勢崎市三光町20-9", "url2": "https://www.kaigokensaku.mhlw.go.jp/10/index.php?action_kouhyou_detail_004_kani=true&JigyosyoCd=1090400563-00&ServiceCd=760&Type=search" }, "geometry": { "type": "Point", "coordinates": [ 139.1919921, 36.316113236670574 ] } },
{ "type": "Feature", "properties": { "内容": "定期巡回・随時対応型訪問介護看護24サービス【定期巡回・随時対応型訪問介護看護】群馬県沼田市久屋原345番地1", "url2": "https://www.kaigokensaku.mhlw.go.jp/10/index.php?action_kouhyou_detail_004_kani=true&JigyosyoCd=1090600154-00&ServiceCd=760&Type=search" }, "geometry": { "type": "Point", "coordinates": [ 139.104536098533572, 36.665540355653846 ] } },
{ "type": "Feature", "properties": { "内容": "定期巡回・随時対応型訪問介護看護24サービス【定期巡回・随時対応型訪問介護看護】群馬県沼田市久屋原町414-1", "url2": "https://www.kaigokensaku.mhlw.go.jp/10/index.php?action_kouhyou_detail_004_kani=true&JigyosyoCd=1090600303-00&ServiceCd=760&Type=search" }, "geometry": { "type": "Point", "coordinates": [ 139.107599, 36.666211 ] } },
{ "type": "Feature", "properties": { "内容": "ナーシングホーム石原の里【定期巡回・随時対応型訪問介護看護】群馬県渋川市石原３４３－１ナーシングホーム石原の里", "url2": "https://www.kaigokensaku.mhlw.go.jp/10/index.php?action_kouhyou_detail_004_kani=true&JigyosyoCd=1090800101-00&ServiceCd=760&Type=search" }, "geometry": { "type": "Point", "coordinates": [ 139.003556300000014, 36.4868626 ] } },
{ "type": "Feature", "properties": { "内容": "ベルジ南渋川【定期巡回・随時対応型訪問介護看護】群馬県渋川市半田2726-1", "url2": "https://www.kaigokensaku.mhlw.go.jp/10/index.php?action_kouhyou_detail_004_kani=true&JigyosyoCd=1090800093-00&ServiceCd=760&Type=search" }, "geometry": { "type": "Point", "coordinates": [ 139.026441100000056, 36.4665569 ] } },
{ "type": "Feature", "properties": { "内容": "月夜野トータルケアステーションさくらんぼ【定期巡回・随時対応型訪問介護看護】群馬県利根郡みなかみ町真庭377-5", "url2": "https://www.kaigokensaku.mhlw.go.jp/10/index.php?action_kouhyou_detail_004_kani=true&JigyosyoCd=1092700101-00&ServiceCd=760&Type=search" }, "geometry": { "type": "Point", "coordinates": [ 139.004246, 36.675188 ] } }
]
}
