{
"type": "FeatureCollection",
"name": "geo_10_短期大学",
"crs": { "type": "name", "properties": { "name": "urn:ogc:def:crs:EPSG::6668" } },
"features": [
{ "type": "Feature", "properties": { "P29_001": "10204", "P29_002": "F210310101852", "P29_003": "16006", "P29_004": "東京福祉大学短期大学部", "P29_005": "群馬県伊勢崎市山王町2020-1", "P29_006": "4", "P29_007": "0", "P29_008": "00", "P29_009": null }, "geometry": { "type": "Point", "coordinates": [ 139.193273423617796, 36.285899750821336 ] } },
{ "type": "Feature", "properties": { "P29_001": "10201", "P29_002": "F210310101861", "P29_003": "16006", "P29_004": "群馬医療福祉大学短期大学部", "P29_005": "群馬県前橋市川曲町191-1", "P29_006": "4", "P29_007": "0", "P29_008": "00", "P29_009": null }, "geometry": { "type": "Point", "coordinates": [ 139.047508230204471, 36.355503194346689 ] } },
{ "type": "Feature", "properties": { "P29_001": "10202", "P29_002": "F210310101870", "P29_003": "16006", "P29_004": "高崎商科大学短期大学部", "P29_005": "群馬県高崎市根小屋町741", "P29_006": "4", "P29_007": "0", "P29_008": "00", "P29_009": null }, "geometry": { "type": "Point", "coordinates": [ 139.034121047545852, 36.285691567563688 ] } },
{ "type": "Feature", "properties": { "P29_001": "10202", "P29_002": "F210310101889", "P29_003": "16006", "P29_004": "新島学園短期大学", "P29_005": "群馬県高崎市昭和町53", "P29_006": "4", "P29_007": "0", "P29_008": "00", "P29_009": null }, "geometry": { "type": "Point", "coordinates": [ 139.00487477053224, 36.337374162436355 ] } },
{ "type": "Feature", "properties": { "P29_001": "10212", "P29_002": "F210310101905", "P29_003": "16006", "P29_004": "桐生大学短期大学部", "P29_005": "群馬県みどり市笠懸町阿左美606-7", "P29_006": "4", "P29_007": "0", "P29_008": "00", "P29_009": null }, "geometry": { "type": "Point", "coordinates": [ 139.29551464858983, 36.378599888149544 ] } },
{ "type": "Feature", "properties": { "P29_001": "10201", "P29_002": "F210310101914", "P29_003": "16006", "P29_004": "共愛学園前橋国際大学短期大学部", "P29_005": "群馬県前橋市昭和町3-7-27", "P29_006": "4", "P29_007": "0", "P29_008": "00", "P29_009": null }, "geometry": { "type": "Point", "coordinates": [ 139.063741506681168, 36.405723042807793 ] } },
{ "type": "Feature", "properties": { "P29_001": "10202", "P29_002": "F210310101923", "P29_003": "16006", "P29_004": "育英短期大学", "P29_005": "群馬県高崎市京目町1656-1", "P29_006": "4", "P29_007": "0", "P29_008": "00", "P29_009": null }, "geometry": { "type": "Point", "coordinates": [ 139.050831269876511, 36.349382437201228 ] } }
]
}
