{
"type": "FeatureCollection",
"name": "geo_10_訪問入浴介護",
"crs": { "type": "name", "properties": { "name": "urn:ogc:def:crs:OGC:1.3:CRS84" } },
"features": [
{ "type": "Feature", "properties": { "内容": "株式会社　For　Peace　前橋事業所【訪問入浴介護】群馬県前橋市下小出町二丁目38番地1マンション車留夢101号室", "url": "https://www.kaigokensaku.mhlw.go.jp/10/index.php?action_kouhyou_detail_004_kani=true&JigyosyoCd=1070105000-00&ServiceCd=120&Type=search", "url2": null }, "geometry": { "type": "Point", "coordinates": [ 139.065029800000048, 36.4119728 ] } },
{ "type": "Feature", "properties": { "内容": "パナケア真中株式会社岩神事業所【訪問入浴介護】群馬県前橋市岩神町2-4-7", "url": "https://www.kaigokensaku.mhlw.go.jp/10/index.php?action_kouhyou_detail_004_kani=true&JigyosyoCd=1070106149-00&ServiceCd=120&Type=search", "url2": "http://www.pmanaka.com/" }, "geometry": { "type": "Point", "coordinates": [ 139.059385960713115, 36.402056847438807 ] } },
{ "type": "Feature", "properties": { "内容": "株式会社アスツグ【訪問入浴介護】群馬県前橋市青柳町755-1ハイツフレンド青柳203号", "url": "https://www.kaigokensaku.mhlw.go.jp/10/index.php?action_kouhyou_detail_004_kani=true&JigyosyoCd=1070106685-00&ServiceCd=120&Type=search", "url2": null }, "geometry": { "type": "Point", "coordinates": [ 139.068575900000042, 36.4247627 ] } },
{ "type": "Feature", "properties": { "内容": "明和介護サービスセンター(株)明和工業【訪問入浴介護】群馬県前橋市前箱田町３９－5", "url": "https://www.kaigokensaku.mhlw.go.jp/10/index.php?action_kouhyou_detail_004_kani=true&JigyosyoCd=1070100357-00&ServiceCd=120&Type=search", "url2": null }, "geometry": { "type": "Point", "coordinates": [ 139.05076889999998, 36.3640154 ] } },
{ "type": "Feature", "properties": { "内容": "訪問入浴ステーションこはる【訪問入浴介護】群馬県前橋市堀越町362-3B2階", "url": "https://www.kaigokensaku.mhlw.go.jp/10/index.php?action_kouhyou_detail_004_kani=true&JigyosyoCd=1070108194-00&ServiceCd=120&Type=search", "url2": "info@coharu-st.com" }, "geometry": { "type": "Point", "coordinates": [ 139.146841673016382, 36.413531006088881 ] } },
{ "type": "Feature", "properties": { "内容": "アースサポート高崎【訪問入浴介護】群馬県高崎市井野町178番地18", "url": "https://www.kaigokensaku.mhlw.go.jp/10/index.php?action_kouhyou_detail_004_kani=true&JigyosyoCd=1070201940-00&ServiceCd=120&Type=search", "url2": "https://www.earthsupport.co.jp" }, "geometry": { "type": "Point", "coordinates": [ 139.022163399999954, 36.356168 ] } },
{ "type": "Feature", "properties": { "内容": "トータルケアセンター　まなか訪問入浴サービス【訪問入浴介護】群馬県高崎市下中居町109-1", "url": "https://www.kaigokensaku.mhlw.go.jp/10/index.php?action_kouhyou_detail_004_kani=true&JigyosyoCd=1070201536-00&ServiceCd=120&Type=search", "url2": "www.pmanaka.com" }, "geometry": { "type": "Point", "coordinates": [ 139.036966200000052, 36.3094683 ] } },
{ "type": "Feature", "properties": { "内容": "ヒャクノハナ株式会社　ハナの湯桐生事業所【訪問入浴介護】群馬県桐生市相生町５丁目470-10", "url": "https://www.kaigokensaku.mhlw.go.jp/10/index.php?action_kouhyou_detail_004_kani=true&JigyosyoCd=1070302862-00&ServiceCd=120&Type=search", "url2": "http://hyakunohana.com/" }, "geometry": { "type": "Point", "coordinates": [ 139.290311200000019, 36.4150053 ] } },
{ "type": "Feature", "properties": { "内容": "訪問入浴サービス　　いいゆだな【訪問入浴介護】群馬県桐生市広沢町1-2566-1", "url": "https://www.kaigokensaku.mhlw.go.jp/10/index.php?action_kouhyou_detail_004_kani=true&JigyosyoCd=1070302318-00&ServiceCd=120&Type=search", "url2": "http:www.sanikukai.com" }, "geometry": { "type": "Point", "coordinates": [ 139.329599, 36.390739 ] } },
{ "type": "Feature", "properties": { "内容": "伊勢崎市社会福祉協議会伊勢崎事業所【訪問入浴介護】群馬県伊勢崎市上泉町151番地", "url": "https://www.kaigokensaku.mhlw.go.jp/10/index.php?action_kouhyou_detail_004_kani=true&JigyosyoCd=1070401003-00&ServiceCd=120&Type=search", "url2": "http://ise-shakyo.or.jp/" }, "geometry": { "type": "Point", "coordinates": [ 139.1920321, 36.3107416 ] } },
{ "type": "Feature", "properties": { "内容": "訪問入浴くれよん　伊勢崎事業所【訪問入浴介護】群馬県伊勢崎市曲沢町1586", "url": "https://www.kaigokensaku.mhlw.go.jp/10/index.php?action_kouhyou_detail_004_kani=true&JigyosyoCd=1070401789-00&ServiceCd=120&Type=search", "url2": "http://www.kureyon.co.jp/" }, "geometry": { "type": "Point", "coordinates": [ 139.253147678678943, 36.371688416673685 ] } },
{ "type": "Feature", "properties": { "内容": "アスケア訪問入浴　伊勢崎【訪問入浴介護】群馬県伊勢崎市太田町５５７－４", "url": "https://www.kaigokensaku.mhlw.go.jp/10/index.php?action_kouhyou_detail_004_kani=true&JigyosyoCd=1070404361-00&ServiceCd=120&Type=search", "url2": "https://www.as-care.co.jp/" }, "geometry": { "type": "Point", "coordinates": [ 139.185538500000035, 36.3279695 ] } },
{ "type": "Feature", "properties": { "内容": "みづほの里訪問入浴介護事業所【訪問入浴介護】群馬県太田市牛沢町156-1", "url": "https://www.kaigokensaku.mhlw.go.jp/10/index.php?action_kouhyou_detail_004_kani=true&JigyosyoCd=1070501547-00&ServiceCd=120&Type=search", "url2": "http://www.gunma-doujinkai.or.jp" }, "geometry": { "type": "Point", "coordinates": [ 139.358120399999962, 36.2620196 ] } },
{ "type": "Feature", "properties": { "内容": "アースサポート太田新井【訪問入浴介護】群馬県太田市新井町520番地18", "url": "https://www.kaigokensaku.mhlw.go.jp/10/index.php?action_kouhyou_detail_004_kani=true&JigyosyoCd=1070501570-00&ServiceCd=120&Type=search", "url2": "https://www.earthsupport.co.jp" }, "geometry": { "type": "Point", "coordinates": [ 139.37288209999997, 36.2890308 ] } },
{ "type": "Feature", "properties": { "内容": "ホームケアまつかぜ【訪問入浴介護】群馬県利根郡昭和村糸井１２２３", "url": "https://www.kaigokensaku.mhlw.go.jp/10/index.php?action_kouhyou_detail_004_kani=true&JigyosyoCd=1070600596-00&ServiceCd=120&Type=search", "url2": "https://kijokai.or.jp/homecare-matsukaze/" }, "geometry": { "type": "Point", "coordinates": [ 139.0727539, 36.6407757 ] } },
{ "type": "Feature", "properties": { "内容": "クローバー荘【訪問入浴介護】群馬県館林市田谷町１１８７－１", "url": "https://www.kaigokensaku.mhlw.go.jp/10/index.php?action_kouhyou_detail_004_kani=true&JigyosyoCd=1070700016-00&ServiceCd=120&Type=search", "url2": "http://www.popurakai.or.jp" }, "geometry": { "type": "Point", "coordinates": [ 139.5785899, 36.2579698 ] } },
{ "type": "Feature", "properties": { "内容": "社会福祉法人嬬恋村社会福祉協議会【訪問入浴介護】群馬県吾妻郡嬬恋村大字大前1110－1", "url": "https://www.kaigokensaku.mhlw.go.jp/10/index.php?action_kouhyou_detail_004_kani=true&JigyosyoCd=1072600032-00&ServiceCd=120&Type=search", "url2": "http://tsumagoi-shakyo.or.jp" }, "geometry": { "type": "Point", "coordinates": [ 138.5319819, 36.515188 ] } },
{ "type": "Feature", "properties": { "内容": "あがつま在宅ケアセンター【訪問入浴介護】群馬県吾妻郡東吾妻町大字原町705-1", "url": "https://www.kaigokensaku.mhlw.go.jp/10/index.php?action_kouhyou_detail_004_kani=true&JigyosyoCd=1072600024-00&ServiceCd=120&Type=search", "url2": "http://kijokai.or,jp/agatuma-zaitaku/" }, "geometry": { "type": "Point", "coordinates": [ 138.8260754, 36.5732799 ] } },
{ "type": "Feature", "properties": { "内容": "明和町社会福祉協議会訪問入浴介護事業所【訪問入浴介護】群馬県邑楽郡明和町新里３１１番地１明和町デイサービスセンター内", "url": "https://www.kaigokensaku.mhlw.go.jp/10/index.php?action_kouhyou_detail_004_kani=true&JigyosyoCd=1073100099-00&ServiceCd=120&Type=search", "url2": "http://meiwa-syakyo.or.jp/" }, "geometry": { "type": "Point", "coordinates": [ 139.537735800000064, 36.2102666 ] } }
]
}
