{
"type": "FeatureCollection",
"name": "geo_10_幼保連携型認定こども園",
"crs": { "type": "name", "properties": { "name": "urn:ogc:def:crs:EPSG::6668" } },
"features": [
{ "type": "Feature", "properties": { "P29_001": "10449", "P29_002": "A210210000018", "P29_003": "16013", "P29_004": "みなかみ町立にいはるこども園", "P29_005": "群馬県利根郡みなかみ町須川774-1", "P29_006": "3", "P29_007": "0", "P29_008": "00", "P29_009": null }, "geometry": { "type": "Point", "coordinates": [ 138.905989521336522, 36.69755456866217 ] } },
{ "type": "Feature", "properties": { "P29_001": "10522", "P29_002": "A210210000027", "P29_003": "16013", "P29_004": "明和町立明和こども園", "P29_005": "群馬県邑楽郡明和町田島8-1", "P29_006": "3", "P29_007": "0", "P29_008": "00", "P29_009": null }, "geometry": { "type": "Point", "coordinates": [ 139.542831935429717, 36.21128199821721 ] } },
{ "type": "Feature", "properties": { "P29_001": "10523", "P29_002": "A210210000036", "P29_003": "16013", "P29_004": "千代田町立東こども園", "P29_005": "群馬県邑楽郡千代田町上五箇522-1", "P29_006": "3", "P29_007": "0", "P29_008": "00", "P29_009": null }, "geometry": { "type": "Point", "coordinates": [ 139.466814933757036, 36.199283466908739 ] } },
{ "type": "Feature", "properties": { "P29_001": "10523", "P29_002": "A210210000045", "P29_003": "16013", "P29_004": "千代田町立西こども園", "P29_005": "群馬県邑楽郡千代田町赤岩2119-6", "P29_006": "3", "P29_007": "0", "P29_008": "00", "P29_009": null }, "geometry": { "type": "Point", "coordinates": [ 139.446834378345329, 36.219645086688551 ] } },
{ "type": "Feature", "properties": { "P29_001": "10525", "P29_002": "A210210000054", "P29_003": "16013", "P29_004": "邑楽町立おうらこども園", "P29_005": "群馬県邑楽郡邑楽町藤川451-4", "P29_006": "3", "P29_007": "0", "P29_008": "00", "P29_009": null }, "geometry": { "type": "Point", "coordinates": [ 139.452429425811061, 36.27359149094697 ] } },
{ "type": "Feature", "properties": { "P29_001": "10201", "P29_002": "A210310000016", "P29_003": "16013", "P29_004": "いずみ幼稚園", "P29_005": "群馬県前橋市女屋町1094-5", "P29_006": "4", "P29_007": "0", "P29_008": "00", "P29_009": null }, "geometry": { "type": "Point", "coordinates": [ 139.132572297083755, 36.37692943108388 ] } },
{ "type": "Feature", "properties": { "P29_001": "10201", "P29_002": "A210310000025", "P29_003": "16013", "P29_004": "第二あさひ幼稚園", "P29_005": "群馬県前橋市三俣町2-10-3", "P29_006": "4", "P29_007": "0", "P29_008": "00", "P29_009": null }, "geometry": { "type": "Point", "coordinates": [ 139.087910783989344, 36.398244867139887 ] } },
{ "type": "Feature", "properties": { "P29_001": "10201", "P29_002": "A210310000034", "P29_003": "16013", "P29_004": "慈照幼稚園", "P29_005": "群馬県前橋市二之宮町1812-7", "P29_006": "4", "P29_007": "0", "P29_008": "00", "P29_009": null }, "geometry": { "type": "Point", "coordinates": [ 139.166980199186099, 36.362765214230699 ] } },
{ "type": "Feature", "properties": { "P29_001": "10201", "P29_002": "A210310000043", "P29_003": "16013", "P29_004": "元総社幼稚園", "P29_005": "群馬県前橋市元総社町1372-1", "P29_006": "4", "P29_007": "0", "P29_008": "00", "P29_009": null }, "geometry": { "type": "Point", "coordinates": [ 139.030734018176275, 36.389934325238649 ] } },
{ "type": "Feature", "properties": { "P29_001": "10201", "P29_002": "A210310000052", "P29_003": "16013", "P29_004": "清心幼稚園", "P29_005": "群馬県前橋市大手町3-1-21", "P29_006": "4", "P29_007": "0", "P29_008": "00", "P29_009": null }, "geometry": { "type": "Point", "coordinates": [ 139.062619597608403, 36.39318299709231 ] } },
{ "type": "Feature", "properties": { "P29_001": "10201", "P29_002": "A210310000061", "P29_003": "16013", "P29_004": "あおぞら総社", "P29_005": "群馬県前橋市総社町植野511-1", "P29_006": "4", "P29_007": "0", "P29_008": "00", "P29_009": null }, "geometry": { "type": "Point", "coordinates": [ 139.034028997732207, 36.415184996579249 ] } },
{ "type": "Feature", "properties": { "P29_001": "10201", "P29_002": "A210310000070", "P29_003": "16013", "P29_004": "あおぞら北", "P29_005": "群馬県前橋市関根町3-6-1", "P29_006": "4", "P29_007": "0", "P29_008": "00", "P29_009": null }, "geometry": { "type": "Point", "coordinates": [ 139.043093510989081, 36.433350286715708 ] } },
{ "type": "Feature", "properties": { "P29_001": "10201", "P29_002": "A210310000089", "P29_003": "16013", "P29_004": "二之宮保育園", "P29_005": "群馬県前橋市二之宮町1810-1", "P29_006": "4", "P29_007": "0", "P29_008": "00", "P29_009": null }, "geometry": { "type": "Point", "coordinates": [ 139.166485001396154, 36.362069000272371 ] } },
{ "type": "Feature", "properties": { "P29_001": "10201", "P29_002": "A210310000098", "P29_003": "16013", "P29_004": "もものき", "P29_005": "群馬県前橋市上沖町731-4", "P29_006": "4", "P29_007": "0", "P29_008": "00", "P29_009": null }, "geometry": { "type": "Point", "coordinates": [ 139.091911040204877, 36.403932892392632 ] } },
{ "type": "Feature", "properties": { "P29_001": "10201", "P29_002": "A210310000105", "P29_003": "16013", "P29_004": "赤城育心こども園", "P29_005": "群馬県前橋市市之関町401", "P29_006": "4", "P29_007": "0", "P29_008": "00", "P29_009": null }, "geometry": { "type": "Point", "coordinates": [ 139.148539218634255, 36.453181622907152 ] } },
{ "type": "Feature", "properties": { "P29_001": "10201", "P29_002": "A210310000114", "P29_003": "16013", "P29_004": "ろっくひよこプリスクール", "P29_005": "群馬県前橋市上佐鳥町538-3", "P29_006": "4", "P29_007": "0", "P29_008": "00", "P29_009": null }, "geometry": { "type": "Point", "coordinates": [ 139.074742632646206, 36.374141599056976 ] } },
{ "type": "Feature", "properties": { "P29_001": "10201", "P29_002": "A210310000123", "P29_003": "16013", "P29_004": "おりーぶの森", "P29_005": "群馬県前橋市朝倉町138", "P29_006": "4", "P29_007": "0", "P29_008": "00", "P29_009": null }, "geometry": { "type": "Point", "coordinates": [ 139.092210138034176, 36.366804377976017 ] } },
{ "type": "Feature", "properties": { "P29_001": "10201", "P29_002": "A210310000132", "P29_003": "16013", "P29_004": "たちばな", "P29_005": "群馬県前橋市下大島町1055-93", "P29_006": "4", "P29_007": "0", "P29_008": "00", "P29_009": null }, "geometry": { "type": "Point", "coordinates": [ 139.126378107047799, 36.358640437179531 ] } },
{ "type": "Feature", "properties": { "P29_001": "10201", "P29_002": "A210310000141", "P29_003": "16013", "P29_004": "駒形こども園", "P29_005": "群馬県前橋市駒形町410-3", "P29_006": "4", "P29_007": "0", "P29_008": "00", "P29_009": null }, "geometry": { "type": "Point", "coordinates": [ 139.137748156081102, 36.341390353642637 ] } },
{ "type": "Feature", "properties": { "P29_001": "10201", "P29_002": "A210310000150", "P29_003": "16013", "P29_004": "大胡第２こども園", "P29_005": "群馬県前橋市堀越町1390-3", "P29_006": "4", "P29_007": "0", "P29_008": "00", "P29_009": null }, "geometry": { "type": "Point", "coordinates": [ 139.155650982638377, 36.423523516279857 ] } },
{ "type": "Feature", "properties": { "P29_001": "10201", "P29_002": "A210310000169", "P29_003": "16013", "P29_004": "ぽらりすこども園", "P29_005": "群馬県前橋市富士見町原之郷1268", "P29_006": "4", "P29_007": "0", "P29_008": "00", "P29_009": null }, "geometry": { "type": "Point", "coordinates": [ 139.072691535322065, 36.440909794916742 ] } },
{ "type": "Feature", "properties": { "P29_001": "10201", "P29_002": "A210310000178", "P29_003": "16013", "P29_004": "共愛学園こども園", "P29_005": "群馬県前橋市小屋原町1125-1", "P29_006": "4", "P29_007": "0", "P29_008": "00", "P29_009": null }, "geometry": { "type": "Point", "coordinates": [ 139.142829484925556, 36.359269462717123 ] } },
{ "type": "Feature", "properties": { "P29_001": "10201", "P29_002": "A210310000187", "P29_003": "16013", "P29_004": "あさひ幼稚園", "P29_005": "群馬県前橋市東片貝町1061-1", "P29_006": "4", "P29_007": "0", "P29_008": "00", "P29_009": null }, "geometry": { "type": "Point", "coordinates": [ 139.110447413359225, 36.385443371481379 ] } },
{ "type": "Feature", "properties": { "P29_001": "10201", "P29_002": "A210310000196", "P29_003": "16013", "P29_004": "静和幼稚園", "P29_005": "群馬県前橋市文京町1-29-18", "P29_006": "4", "P29_007": "0", "P29_008": "00", "P29_009": null }, "geometry": { "type": "Point", "coordinates": [ 139.076970310637932, 36.381062766583028 ] } },
{ "type": "Feature", "properties": { "P29_001": "10201", "P29_002": "A210310000203", "P29_003": "16013", "P29_004": "相愛館", "P29_005": "群馬県前橋市日吉町2-27-28", "P29_006": "4", "P29_007": "0", "P29_008": "00", "P29_009": null }, "geometry": { "type": "Point", "coordinates": [ 139.081183528355496, 36.396636726655892 ] } },
{ "type": "Feature", "properties": { "P29_001": "10201", "P29_002": "A210310000212", "P29_003": "16013", "P29_004": "ＳｕｒｕＳｕ祝昌こども園", "P29_005": "群馬県前橋市公田町556-1", "P29_006": "4", "P29_007": "0", "P29_008": "00", "P29_009": null }, "geometry": { "type": "Point", "coordinates": [ 139.080778440079797, 36.344844373728812 ] } },
{ "type": "Feature", "properties": { "P29_001": "10201", "P29_002": "A210310000221", "P29_003": "16013", "P29_004": "ひまわりこども園", "P29_005": "群馬県前橋市粕川町女渕1058-1", "P29_006": "4", "P29_007": "0", "P29_008": "00", "P29_009": null }, "geometry": { "type": "Point", "coordinates": [ 139.207888996472491, 36.403555348401824 ] } },
{ "type": "Feature", "properties": { "P29_001": "10201", "P29_002": "A210310000230", "P29_003": "16013", "P29_004": "大利根育英幼稚園", "P29_005": "群馬県前橋市川曲町529-1", "P29_006": "4", "P29_007": "0", "P29_008": "00", "P29_009": null }, "geometry": { "type": "Point", "coordinates": [ 139.051620262448921, 36.352003331641036 ] } },
{ "type": "Feature", "properties": { "P29_001": "10201", "P29_002": "A210310000249", "P29_003": "16013", "P29_004": "明和幼稚園", "P29_005": "群馬県前橋市勝沢町282", "P29_006": "4", "P29_007": "0", "P29_008": "00", "P29_009": null }, "geometry": { "type": "Point", "coordinates": [ 139.093208736360509, 36.425398143129847 ] } },
{ "type": "Feature", "properties": { "P29_001": "10201", "P29_002": "A210310000258", "P29_003": "16013", "P29_004": "こまがた幼稚園", "P29_005": "群馬県前橋市駒形町807-1", "P29_006": "4", "P29_007": "0", "P29_008": "00", "P29_009": null }, "geometry": { "type": "Point", "coordinates": [ 139.13900772388962, 36.342946187419031 ] } },
{ "type": "Feature", "properties": { "P29_001": "10201", "P29_002": "A210310000267", "P29_003": "16013", "P29_004": "二子山幼稚園", "P29_005": "群馬県前橋市朝倉町1-3-7", "P29_006": "4", "P29_007": "0", "P29_008": "00", "P29_009": null }, "geometry": { "type": "Point", "coordinates": [ 139.092006957500161, 36.374438128120978 ] } },
{ "type": "Feature", "properties": { "P29_001": "10201", "P29_002": "A210310000276", "P29_003": "16013", "P29_004": "ふたばこども園", "P29_005": "群馬県前橋市五代町1301-3", "P29_006": "4", "P29_007": "0", "P29_008": "00", "P29_009": null }, "geometry": { "type": "Point", "coordinates": [ 139.119287196419407, 36.417750970996657 ] } },
{ "type": "Feature", "properties": { "P29_001": "10201", "P29_002": "A210310000294", "P29_003": "16013", "P29_004": "山王幼稚園", "P29_005": "群馬県前橋市山王町2-9-5", "P29_006": "4", "P29_007": "0", "P29_008": "00", "P29_009": null }, "geometry": { "type": "Point", "coordinates": [ 139.126502211422093, 36.352485414634472 ] } },
{ "type": "Feature", "properties": { "P29_001": "10201", "P29_002": "A210310000301", "P29_003": "16013", "P29_004": "しょうび第二幼稚園", "P29_005": "群馬県前橋市新堀町1040", "P29_006": "4", "P29_007": "0", "P29_008": "00", "P29_009": null }, "geometry": { "type": "Point", "coordinates": [ 139.091510144104063, 36.329569227281638 ] } },
{ "type": "Feature", "properties": { "P29_001": "10201", "P29_002": "A210310000310", "P29_003": "16013", "P29_004": "いしい幼稚園", "P29_005": "群馬県前橋市富士見町石井896-1", "P29_006": "4", "P29_007": "0", "P29_008": "00", "P29_009": null }, "geometry": { "type": "Point", "coordinates": [ 139.087605986121417, 36.461873791121796 ] } },
{ "type": "Feature", "properties": { "P29_001": "10201", "P29_002": "A210310000329", "P29_003": "16013", "P29_004": "まえばしこども園", "P29_005": "群馬県前橋市平和町1-2-7", "P29_006": "4", "P29_007": "0", "P29_008": "00", "P29_009": null }, "geometry": { "type": "Point", "coordinates": [ 139.063607713877161, 36.396721290952634 ] } },
{ "type": "Feature", "properties": { "P29_001": "10201", "P29_002": "A210310000338", "P29_003": "16013", "P29_004": "幼保連携型認定こども園わかくさ幼稚園", "P29_005": "群馬県前橋市嶺町1365-5", "P29_006": "4", "P29_007": "0", "P29_008": "00", "P29_009": null }, "geometry": { "type": "Point", "coordinates": [ 139.117635101684954, 36.451031912665854 ] } },
{ "type": "Feature", "properties": { "P29_001": "10201", "P29_002": "A210310000347", "P29_003": "16013", "P29_004": "幼保連携型認定こども園木の実幼稚園", "P29_005": "群馬県前橋市粕川町室沢267-1", "P29_006": "4", "P29_007": "0", "P29_008": "00", "P29_009": null }, "geometry": { "type": "Point", "coordinates": [ 139.204528859755158, 36.449803681260107 ] } },
{ "type": "Feature", "properties": { "P29_001": "10201", "P29_002": "A210310000356", "P29_003": "16013", "P29_004": "清華幼稚園", "P29_005": "群馬県前橋市東大室町929-1", "P29_006": "4", "P29_007": "0", "P29_008": "00", "P29_009": null }, "geometry": { "type": "Point", "coordinates": [ 139.197681672025027, 36.376383796421877 ] } },
{ "type": "Feature", "properties": { "P29_001": "10201", "P29_002": "A210310000365", "P29_003": "16013", "P29_004": "敷島幼稚園", "P29_005": "群馬県前橋市川原町2-24-1", "P29_006": "4", "P29_007": "0", "P29_008": "00", "P29_009": null }, "geometry": { "type": "Point", "coordinates": [ 139.039651710890013, 36.429011849691044 ] } },
{ "type": "Feature", "properties": { "P29_001": "10201", "P29_002": "A210310000374", "P29_003": "16013", "P29_004": "ポケット幼稚園", "P29_005": "群馬県前橋市富士見町時沢2120-8", "P29_006": "4", "P29_007": "0", "P29_008": "00", "P29_009": null }, "geometry": { "type": "Point", "coordinates": [ 139.060513918640197, 36.459705434406139 ] } },
{ "type": "Feature", "properties": { "P29_001": "10202", "P29_002": "A210310000383", "P29_003": "16013", "P29_004": "幼保連携型認定こども園みどり幼稚園", "P29_005": "群馬県高崎市下佐野町735", "P29_006": "4", "P29_007": "0", "P29_008": "00", "P29_009": null }, "geometry": { "type": "Point", "coordinates": [ 139.028162158239013, 36.299458084299715 ] } },
{ "type": "Feature", "properties": { "P29_001": "10202", "P29_002": "A210310000392", "P29_003": "16013", "P29_004": "中川幼稚園", "P29_005": "群馬県高崎市浜尻町614", "P29_006": "4", "P29_007": "0", "P29_008": "00", "P29_009": null }, "geometry": { "type": "Point", "coordinates": [ 139.013832308045721, 36.355356139377825 ] } },
{ "type": "Feature", "properties": { "P29_001": "10202", "P29_002": "A210310000409", "P29_003": "16013", "P29_004": "認定こども園中居幼稚園", "P29_005": "群馬県高崎市中居町3-33", "P29_006": "4", "P29_007": "0", "P29_008": "00", "P29_009": null }, "geometry": { "type": "Point", "coordinates": [ 139.041264843049674, 36.315576165266322 ] } },
{ "type": "Feature", "properties": { "P29_001": "10202", "P29_002": "A210310000418", "P29_003": "16013", "P29_004": "いず海第一こども園", "P29_005": "群馬県高崎市江木町163-6", "P29_006": "4", "P29_007": "0", "P29_008": "00", "P29_009": null }, "geometry": { "type": "Point", "coordinates": [ 139.020047262949163, 36.329083070963634 ] } },
{ "type": "Feature", "properties": { "P29_001": "10202", "P29_002": "A210310000427", "P29_003": "16013", "P29_004": "エデュカーレ城之内", "P29_005": "群馬県高崎市浜川町249-3", "P29_006": "4", "P29_007": "0", "P29_008": "00", "P29_009": null }, "geometry": { "type": "Point", "coordinates": [ 138.976675077056171, 36.368486324565232 ] } },
{ "type": "Feature", "properties": { "P29_001": "10202", "P29_002": "A210310000436", "P29_003": "16013", "P29_004": "杉の子保育園", "P29_005": "群馬県高崎市中居町4-24-1", "P29_006": "4", "P29_007": "0", "P29_008": "00", "P29_009": null }, "geometry": { "type": "Point", "coordinates": [ 139.04368800329334, 36.311948996430878 ] } },
{ "type": "Feature", "properties": { "P29_001": "10202", "P29_002": "A210310000445", "P29_003": "16013", "P29_004": "ひよこプリスクール", "P29_005": "群馬県高崎市新保町297-1", "P29_006": "4", "P29_007": "0", "P29_008": "00", "P29_009": null }, "geometry": { "type": "Point", "coordinates": [ 139.037202140498806, 36.348841240874656 ] } },
{ "type": "Feature", "properties": { "P29_001": "10202", "P29_002": "A210310000454", "P29_003": "16013", "P29_004": "真明こども園", "P29_005": "群馬県高崎市石原町1552", "P29_006": "4", "P29_007": "0", "P29_008": "00", "P29_009": null }, "geometry": { "type": "Point", "coordinates": [ 138.997304664385155, 36.308720828275426 ] } },
{ "type": "Feature", "properties": { "P29_001": "10202", "P29_002": "A210310000463", "P29_003": "16013", "P29_004": "新町かぜいろこども園", "P29_005": "群馬県高崎市新町730-3", "P29_006": "4", "P29_007": "0", "P29_008": "00", "P29_009": null }, "geometry": { "type": "Point", "coordinates": [ 139.120185994673079, 36.273450998365675 ] } },
{ "type": "Feature", "properties": { "P29_001": "10202", "P29_002": "A210310000472", "P29_003": "16013", "P29_004": "ねむの木こどもの森", "P29_005": "群馬県高崎市吉井町池1151-1", "P29_006": "4", "P29_007": "0", "P29_008": "00", "P29_009": null }, "geometry": { "type": "Point", "coordinates": [ 138.994928291235453, 36.263630302655358 ] } },
{ "type": "Feature", "properties": { "P29_001": "10202", "P29_002": "A210310000481", "P29_003": "16013", "P29_004": "大森こども園", "P29_005": "群馬県高崎市上小塙町613", "P29_006": "4", "P29_007": "0", "P29_008": "00", "P29_009": null }, "geometry": { "type": "Point", "coordinates": [ 138.980689998964436, 36.358761003569057 ] } },
{ "type": "Feature", "properties": { "P29_001": "10202", "P29_002": "A210310000490", "P29_003": "16013", "P29_004": "片岡ナーサリー", "P29_005": "群馬県高崎市片岡町3-27-7", "P29_006": "4", "P29_007": "0", "P29_008": "00", "P29_009": null }, "geometry": { "type": "Point", "coordinates": [ 138.990983318647835, 36.315022309245037 ] } },
{ "type": "Feature", "properties": { "P29_001": "10202", "P29_002": "A210310000506", "P29_003": "16013", "P29_004": "すみれものがたり", "P29_005": "群馬県高崎市沖町212-1", "P29_006": "4", "P29_007": "0", "P29_008": "00", "P29_009": null }, "geometry": { "type": "Point", "coordinates": [ 138.95943134261708, 36.361426014648579 ] } },
{ "type": "Feature", "properties": { "P29_001": "10202", "P29_002": "A210310000515", "P29_003": "16013", "P29_004": "たいせいこども園", "P29_005": "群馬県高崎市下小塙町569", "P29_006": "4", "P29_007": "0", "P29_008": "00", "P29_009": null }, "geometry": { "type": "Point", "coordinates": [ 138.982535387514929, 36.34777768087163 ] } },
{ "type": "Feature", "properties": { "P29_001": "10202", "P29_002": "A210310000524", "P29_003": "16013", "P29_004": "法輪寺ブロッサムガーデン", "P29_005": "群馬県高崎市羅漢町72-3", "P29_006": "4", "P29_007": "0", "P29_008": "00", "P29_009": null }, "geometry": { "type": "Point", "coordinates": [ 139.008896537787308, 36.328503380382202 ] } },
{ "type": "Feature", "properties": { "P29_001": "10202", "P29_002": "A210310000533", "P29_003": "16013", "P29_004": "幼保連携型認定こども園国分寺幼稚園", "P29_005": "群馬県高崎市西国分町11-2", "P29_006": "4", "P29_007": "0", "P29_008": "00", "P29_009": null }, "geometry": { "type": "Point", "coordinates": [ 139.018325403984392, 36.398769538823238 ] } },
{ "type": "Feature", "properties": { "P29_001": "10202", "P29_002": "A210310000542", "P29_003": "16013", "P29_004": "石原かがやきこども園", "P29_005": "群馬県高崎市石原町3960", "P29_006": "4", "P29_007": "0", "P29_008": "00", "P29_009": null }, "geometry": { "type": "Point", "coordinates": [ 139.004462568189012, 36.302796067514045 ] } },
{ "type": "Feature", "properties": { "P29_001": "10202", "P29_002": "A210310000551", "P29_003": "16013", "P29_004": "上中居こども園", "P29_005": "群馬県高崎市上中居町1782", "P29_006": "4", "P29_007": "0", "P29_008": "00", "P29_009": null }, "geometry": { "type": "Point", "coordinates": [ 139.03235977559001, 36.320644035323767 ] } },
{ "type": "Feature", "properties": { "P29_001": "10202", "P29_002": "A210310000560", "P29_003": "16013", "P29_004": "ひだまりこども園", "P29_005": "群馬県高崎市石原町1245", "P29_006": "4", "P29_007": "0", "P29_008": "00", "P29_009": null }, "geometry": { "type": "Point", "coordinates": [ 139.000830002261551, 36.312172999441621 ] } },
{ "type": "Feature", "properties": { "P29_001": "10202", "P29_002": "A210310000579", "P29_003": "16013", "P29_004": "はちの木こども園", "P29_005": "群馬県高崎市上佐野町609", "P29_006": "4", "P29_007": "0", "P29_008": "00", "P29_009": null }, "geometry": { "type": "Point", "coordinates": [ 139.022386207296108, 36.305650928143123 ] } },
{ "type": "Feature", "properties": { "P29_001": "10202", "P29_002": "A210310000588", "P29_003": "16013", "P29_004": "上大類こども園", "P29_005": "群馬県高崎市上大類町972", "P29_006": "4", "P29_007": "0", "P29_008": "00", "P29_009": null }, "geometry": { "type": "Point", "coordinates": [ 139.031182683624252, 36.337572085630541 ] } },
{ "type": "Feature", "properties": { "P29_001": "10202", "P29_002": "A210310000597", "P29_003": "16013", "P29_004": "鼻高こども園", "P29_005": "群馬県高崎市鼻高町48-5", "P29_006": "4", "P29_007": "0", "P29_008": "00", "P29_009": null }, "geometry": { "type": "Point", "coordinates": [ 138.942585078891994, 36.332326880711484 ] } },
{ "type": "Feature", "properties": { "P29_001": "10202", "P29_002": "A210310000604", "P29_003": "16013", "P29_004": "しみずざかこども園", "P29_005": "群馬県高崎市吉井町吉井川771", "P29_006": "4", "P29_007": "0", "P29_008": "00", "P29_009": null }, "geometry": { "type": "Point", "coordinates": [ 138.986047320402861, 36.249596071933674 ] } },
{ "type": "Feature", "properties": { "P29_001": "10202", "P29_002": "A210310000613", "P29_003": "16013", "P29_004": "吉井めざめこども園", "P29_005": "群馬県高崎市吉井町小暮58-1", "P29_006": "4", "P29_007": "0", "P29_008": "00", "P29_009": null }, "geometry": { "type": "Point", "coordinates": [ 139.018348491777658, 36.26884205069085 ] } },
{ "type": "Feature", "properties": { "P29_001": "10202", "P29_002": "A210310000622", "P29_003": "16013", "P29_004": "高崎保育所", "P29_005": "群馬県高崎市九蔵町75", "P29_006": "4", "P29_007": "0", "P29_008": "00", "P29_009": null }, "geometry": { "type": "Point", "coordinates": [ 139.009001056034691, 36.330634851444344 ] } },
{ "type": "Feature", "properties": { "P29_001": "10202", "P29_002": "A210310000631", "P29_003": "16013", "P29_004": "慈光こども園", "P29_005": "群馬県高崎市通町90-1", "P29_006": "4", "P29_007": "0", "P29_008": "00", "P29_009": null }, "geometry": { "type": "Point", "coordinates": [ 139.0095792027127, 36.324277310229725 ] } },
{ "type": "Feature", "properties": { "P29_001": "10202", "P29_002": "A210310000640", "P29_003": "16013", "P29_004": "貝沢保育園", "P29_005": "群馬県高崎市貝沢町1-13", "P29_006": "4", "P29_007": "0", "P29_008": "00", "P29_009": null }, "geometry": { "type": "Point", "coordinates": [ 139.026319875291108, 36.350195989799339 ] } },
{ "type": "Feature", "properties": { "P29_001": "10202", "P29_002": "A210310000659", "P29_003": "16013", "P29_004": "ベルコートみどり岡", "P29_005": "群馬県高崎市下豊岡町1353-1", "P29_006": "4", "P29_007": "0", "P29_008": "00", "P29_009": null }, "geometry": { "type": "Point", "coordinates": [ 138.976140235391227, 36.338184009550453 ] } },
{ "type": "Feature", "properties": { "P29_001": "10202", "P29_002": "A210310000668", "P29_003": "16013", "P29_004": "山名双葉こども園", "P29_005": "群馬県高崎市山名町1712-1", "P29_006": "4", "P29_007": "0", "P29_008": "00", "P29_009": null }, "geometry": { "type": "Point", "coordinates": [ 139.035790148805916, 36.277519368387935 ] } },
{ "type": "Feature", "properties": { "P29_001": "10202", "P29_002": "A210310000677", "P29_003": "16013", "P29_004": "星の光こども園", "P29_005": "群馬県高崎市金古町1921-1", "P29_006": "4", "P29_007": "0", "P29_008": "00", "P29_009": null }, "geometry": { "type": "Point", "coordinates": [ 139.001597231302469, 36.408693752136408 ] } },
{ "type": "Feature", "properties": { "P29_001": "10202", "P29_002": "A210310000686", "P29_003": "16013", "P29_004": "櫻丘幼稚園", "P29_005": "群馬県高崎市石原町3685-2", "P29_006": "4", "P29_007": "0", "P29_008": "00", "P29_009": null }, "geometry": { "type": "Point", "coordinates": [ 139.004762997041922, 36.297886996500239 ] } },
{ "type": "Feature", "properties": { "P29_001": "10202", "P29_002": "A210310000695", "P29_003": "16013", "P29_004": "中河原こども園", "P29_005": "群馬県高崎市新町1402-1", "P29_006": "4", "P29_007": "0", "P29_008": "00", "P29_009": null }, "geometry": { "type": "Point", "coordinates": [ 139.109541507050494, 36.264758921280048 ] } },
{ "type": "Feature", "properties": { "P29_001": "10202", "P29_002": "A210310000702", "P29_003": "16013", "P29_004": "明徳幼稚園", "P29_005": "群馬県高崎市通町75", "P29_006": "4", "P29_007": "0", "P29_008": "00", "P29_009": null }, "geometry": { "type": "Point", "coordinates": [ 139.009446254148713, 36.325344015321271 ] } },
{ "type": "Feature", "properties": { "P29_001": "10202", "P29_002": "A210310000711", "P29_003": "16013", "P29_004": "むつみ幼稚園", "P29_005": "群馬県高崎市下小鳥町76-8", "P29_006": "4", "P29_007": "0", "P29_008": "00", "P29_009": null }, "geometry": { "type": "Point", "coordinates": [ 138.99126424753814, 36.351204092098079 ] } },
{ "type": "Feature", "properties": { "P29_001": "10202", "P29_002": "A210310000720", "P29_003": "16013", "P29_004": "新町こども園", "P29_005": "群馬県高崎市新町1720", "P29_006": "4", "P29_007": "0", "P29_008": "00", "P29_009": null }, "geometry": { "type": "Point", "coordinates": [ 139.107043035765798, 36.270674072233916 ] } },
{ "type": "Feature", "properties": { "P29_001": "10202", "P29_002": "A210310000739", "P29_003": "16013", "P29_004": "冷水かがやきこども園", "P29_005": "群馬県高崎市冷水町190-1", "P29_006": "4", "P29_007": "0", "P29_008": "00", "P29_009": null }, "geometry": { "type": "Point", "coordinates": [ 139.007136148208957, 36.403307181801217 ] } },
{ "type": "Feature", "properties": { "P29_001": "10202", "P29_002": "A210310000748", "P29_003": "16013", "P29_004": "ひばり幼稚園", "P29_005": "群馬県高崎市中里町334-1", "P29_006": "4", "P29_007": "0", "P29_008": "00", "P29_009": null }, "geometry": { "type": "Point", "coordinates": [ 138.986911168045935, 36.388315546869308 ] } },
{ "type": "Feature", "properties": { "P29_001": "10203", "P29_002": "A210310000757", "P29_003": "16013", "P29_004": "広沢保育園", "P29_005": "群馬県桐生市広沢町3-3811", "P29_006": "4", "P29_007": "0", "P29_008": "00", "P29_009": null }, "geometry": { "type": "Point", "coordinates": [ 139.325972182632654, 36.387917839905519 ] } },
{ "type": "Feature", "properties": { "P29_001": "10203", "P29_002": "A210310000766", "P29_003": "16013", "P29_004": "認定こども園おおぞら", "P29_005": "群馬県桐生市広沢町1-2903-2", "P29_006": "4", "P29_007": "0", "P29_008": "00", "P29_009": null }, "geometry": { "type": "Point", "coordinates": [ 139.325568329553533, 36.396020024262477 ] } },
{ "type": "Feature", "properties": { "P29_001": "10203", "P29_002": "A210310000775", "P29_003": "16013", "P29_004": "認定こども園はなぞの", "P29_005": "群馬県桐生市川内町5-1609", "P29_006": "4", "P29_007": "0", "P29_008": "00", "P29_009": null }, "geometry": { "type": "Point", "coordinates": [ 139.317896197220705, 36.452953067446401 ] } },
{ "type": "Feature", "properties": { "P29_001": "10203", "P29_002": "A210310000784", "P29_003": "16013", "P29_004": "たかぞのこども園", "P29_005": "群馬県桐生市梅田町1-273-1", "P29_006": "4", "P29_007": "0", "P29_008": "00", "P29_009": null }, "geometry": { "type": "Point", "coordinates": [ 139.357815387028552, 36.43759638773156 ] } },
{ "type": "Feature", "properties": { "P29_001": "10203", "P29_002": "A210310000793", "P29_003": "16013", "P29_004": "認定こども園すぎの子幼稚園", "P29_005": "群馬県桐生市新里町関550-1", "P29_006": "4", "P29_007": "0", "P29_008": "00", "P29_009": null }, "geometry": { "type": "Point", "coordinates": [ 139.229866787782186, 36.442102412203788 ] } },
{ "type": "Feature", "properties": { "P29_001": "10203", "P29_002": "A210310000800", "P29_003": "16013", "P29_004": "桐生北こども園", "P29_005": "群馬県桐生市東久方町1-1-36", "P29_006": "4", "P29_007": "0", "P29_008": "00", "P29_009": null }, "geometry": { "type": "Point", "coordinates": [ 139.347870064993288, 36.419993437217606 ] } },
{ "type": "Feature", "properties": { "P29_001": "10203", "P29_002": "A210310000819", "P29_003": "16013", "P29_004": "昭和こども園", "P29_005": "群馬県桐生市東2-4-45", "P29_006": "4", "P29_007": "0", "P29_008": "00", "P29_009": null }, "geometry": { "type": "Point", "coordinates": [ 139.347972349881502, 36.415415812327957 ] } },
{ "type": "Feature", "properties": { "P29_001": "10203", "P29_002": "A210310000828", "P29_003": "16013", "P29_004": "大雄保育園", "P29_005": "群馬県桐生市広沢町3-3601", "P29_006": "4", "P29_007": "0", "P29_008": "00", "P29_009": null }, "geometry": { "type": "Point", "coordinates": [ 139.329651186327169, 36.384226081165828 ] } },
{ "type": "Feature", "properties": { "P29_001": "10203", "P29_002": "A210310000837", "P29_003": "16013", "P29_004": "認定こども園太子保育園", "P29_005": "群馬県桐生市相生町5-456", "P29_006": "4", "P29_007": "0", "P29_008": "00", "P29_009": null }, "geometry": { "type": "Point", "coordinates": [ 139.290832466474598, 36.417057160275824 ] } },
{ "type": "Feature", "properties": { "P29_001": "10203", "P29_002": "A210310000846", "P29_003": "16013", "P29_004": "新里こども園", "P29_005": "群馬県桐生市新里町新川2422", "P29_006": "4", "P29_007": "0", "P29_008": "00", "P29_009": null }, "geometry": { "type": "Point", "coordinates": [ 139.252658088158597, 36.421862024264342 ] } },
{ "type": "Feature", "properties": { "P29_001": "10203", "P29_002": "A210310000855", "P29_003": "16013", "P29_004": "菱保育園", "P29_005": "群馬県桐生市菱町3-1992-1", "P29_006": "4", "P29_007": "0", "P29_008": "00", "P29_009": null }, "geometry": { "type": "Point", "coordinates": [ 139.354669383707602, 36.412126123138286 ] } },
{ "type": "Feature", "properties": { "P29_001": "10203", "P29_002": "A210310000864", "P29_003": "16013", "P29_004": "たかのす聖母保育園", "P29_005": "群馬県桐生市川内町2-81-4", "P29_006": "4", "P29_007": "0", "P29_008": "00", "P29_009": null }, "geometry": { "type": "Point", "coordinates": [ 139.311306305961438, 36.426506322046002 ] } },
{ "type": "Feature", "properties": { "P29_001": "10203", "P29_002": "A210310000873", "P29_003": "16013", "P29_004": "認定こども園おおぞら幼保園", "P29_005": "群馬県桐生市新里町関548-4", "P29_006": "4", "P29_007": "0", "P29_008": "00", "P29_009": null }, "geometry": { "type": "Point", "coordinates": [ 139.229959626456889, 36.441607129784146 ] } },
{ "type": "Feature", "properties": { "P29_001": "10203", "P29_002": "A210310000882", "P29_003": "16013", "P29_004": "幼保連携型認定こども園上の台保育園", "P29_005": "群馬県桐生市川内町3-730-1", "P29_006": "4", "P29_007": "0", "P29_008": "00", "P29_009": null }, "geometry": { "type": "Point", "coordinates": [ 139.302594528276643, 36.436719165824982 ] } },
{ "type": "Feature", "properties": { "P29_001": "10203", "P29_002": "A210310000891", "P29_003": "16013", "P29_004": "ひかりこども園", "P29_005": "群馬県桐生市東4-1-18", "P29_006": "4", "P29_007": "0", "P29_008": "00", "P29_009": null }, "geometry": { "type": "Point", "coordinates": [ 139.34422769009538, 36.410033079986476 ] } },
{ "type": "Feature", "properties": { "P29_001": "10203", "P29_002": "A210310000908", "P29_003": "16013", "P29_004": "のびのびこども園", "P29_005": "群馬県桐生市新里町新川3580-5", "P29_006": "4", "P29_007": "0", "P29_008": "00", "P29_009": null }, "geometry": { "type": "Point", "coordinates": [ 139.265225305808599, 36.429924481538251 ] } },
{ "type": "Feature", "properties": { "P29_001": "10204", "P29_002": "A210310000917", "P29_003": "16013", "P29_004": "幼保連携型認定こども園ゆたか保育園", "P29_005": "群馬県伊勢崎市馬見塚町1196-1", "P29_006": "4", "P29_007": "0", "P29_008": "00", "P29_009": null }, "geometry": { "type": "Point", "coordinates": [ 139.212434998249336, 36.272694000277291 ] } },
{ "type": "Feature", "properties": { "P29_001": "10204", "P29_002": "A210310000926", "P29_003": "16013", "P29_004": "幼保連携型認定こども園ゆたか第二保育園", "P29_005": "群馬県伊勢崎市今泉町1-1430", "P29_006": "4", "P29_007": "0", "P29_008": "00", "P29_009": null }, "geometry": { "type": "Point", "coordinates": [ 139.211542470265385, 36.308663030891992 ] } },
{ "type": "Feature", "properties": { "P29_001": "10204", "P29_002": "A210310000935", "P29_003": "16013", "P29_004": "幼保連携型認定こども園島村めぐみ保育園", "P29_005": "群馬県伊勢崎市境島村2509", "P29_006": "4", "P29_007": "0", "P29_008": "00", "P29_009": null }, "geometry": { "type": "Point", "coordinates": [ 139.246184190046705, 36.244997105668176 ] } },
{ "type": "Feature", "properties": { "P29_001": "10204", "P29_002": "A210310000944", "P29_003": "16013", "P29_004": "西園こども園", "P29_005": "群馬県伊勢崎市安堀町853", "P29_006": "4", "P29_007": "0", "P29_008": "00", "P29_009": null }, "geometry": { "type": "Point", "coordinates": [ 139.170412897245171, 36.333309239816423 ] } },
{ "type": "Feature", "properties": { "P29_001": "10204", "P29_002": "A210310000953", "P29_003": "16013", "P29_004": "あずまの森こども園", "P29_005": "群馬県伊勢崎市田部井町1-1092-1", "P29_006": "4", "P29_007": "0", "P29_008": "00", "P29_009": null }, "geometry": { "type": "Point", "coordinates": [ 139.247233806929501, 36.357921726878082 ] } },
{ "type": "Feature", "properties": { "P29_001": "10204", "P29_002": "A210310000962", "P29_003": "16013", "P29_004": "伊勢崎あすか幼稚舎", "P29_005": "群馬県伊勢崎市田中島町1509-1", "P29_006": "4", "P29_007": "0", "P29_008": "00", "P29_009": null }, "geometry": { "type": "Point", "coordinates": [ 139.17984086190117, 36.3411213908646 ] } },
{ "type": "Feature", "properties": { "P29_001": "10204", "P29_002": "A210310000971", "P29_003": "16013", "P29_004": "茂呂こども園", "P29_005": "群馬県伊勢崎市茂呂町2-2836-1", "P29_006": "4", "P29_007": "0", "P29_008": "00", "P29_009": null }, "geometry": { "type": "Point", "coordinates": [ 139.208784996369786, 36.300330999504773 ] } },
{ "type": "Feature", "properties": { "P29_001": "10204", "P29_002": "A210310000980", "P29_003": "16013", "P29_004": "みやさと保育園", "P29_005": "群馬県伊勢崎市田中島町489-1", "P29_006": "4", "P29_007": "0", "P29_008": "00", "P29_009": null }, "geometry": { "type": "Point", "coordinates": [ 139.166846006019711, 36.323286453163938 ] } },
{ "type": "Feature", "properties": { "P29_001": "10204", "P29_002": "A210310000999", "P29_003": "16013", "P29_004": "二葉こども園", "P29_005": "群馬県伊勢崎市茂呂南町3081-2", "P29_006": "4", "P29_007": "0", "P29_008": "00", "P29_009": null }, "geometry": { "type": "Point", "coordinates": [ 139.20966500145326, 36.292097002921444 ] } },
{ "type": "Feature", "properties": { "P29_001": "10204", "P29_002": "A210310001006", "P29_003": "16013", "P29_004": "あかいしこども園", "P29_005": "群馬県伊勢崎市曲輪町24-11", "P29_006": "4", "P29_007": "0", "P29_008": "00", "P29_009": null }, "geometry": { "type": "Point", "coordinates": [ 139.19127202765236, 36.324333910287898 ] } },
{ "type": "Feature", "properties": { "P29_001": "10204", "P29_002": "A210310001015", "P29_003": "16013", "P29_004": "三郷こども園", "P29_005": "群馬県伊勢崎市波志江町2381-7", "P29_006": "4", "P29_007": "0", "P29_008": "00", "P29_009": null }, "geometry": { "type": "Point", "coordinates": [ 139.192817639007586, 36.354119913670715 ] } },
{ "type": "Feature", "properties": { "P29_001": "10204", "P29_002": "A210310001024", "P29_003": "16013", "P29_004": "すみれこども園", "P29_005": "群馬県伊勢崎市境上武士983-3", "P29_006": "4", "P29_007": "0", "P29_008": "00", "P29_009": null }, "geometry": { "type": "Point", "coordinates": [ 139.229784694594429, 36.28089506801858 ] } },
{ "type": "Feature", "properties": { "P29_001": "10205", "P29_002": "A210310001033", "P29_003": "16013", "P29_004": "認定こども園学校法人若葉幼稚園", "P29_005": "群馬県太田市下小林町677", "P29_006": "4", "P29_007": "0", "P29_008": "00", "P29_009": null }, "geometry": { "type": "Point", "coordinates": [ 139.405049504210467, 36.295532137234616 ] } },
{ "type": "Feature", "properties": { "P29_001": "10205", "P29_002": "A210310001042", "P29_003": "16013", "P29_004": "認定こども園太田いずみ幼稚園", "P29_005": "群馬県太田市東今泉町801-1", "P29_006": "4", "P29_007": "0", "P29_008": "00", "P29_009": null }, "geometry": { "type": "Point", "coordinates": [ 139.381876095124369, 36.328167044972759 ] } },
{ "type": "Feature", "properties": { "P29_001": "10205", "P29_002": "A210310001051", "P29_003": "16013", "P29_004": "幼保連携型認定こども園きざきまち幼稚園", "P29_005": "群馬県太田市新田木崎町1391-2", "P29_006": "4", "P29_007": "0", "P29_008": "00", "P29_009": null }, "geometry": { "type": "Point", "coordinates": [ 139.305258735370188, 36.285179445856357 ] } },
{ "type": "Feature", "properties": { "P29_001": "10205", "P29_002": "A210310001060", "P29_003": "16013", "P29_004": "認定こども園ＬｉｔｔｌｅＶｉｌｌａｇｅ世良田の杜", "P29_005": "群馬県太田市世良田町3119-7", "P29_006": "4", "P29_007": "0", "P29_008": "00", "P29_009": null }, "geometry": { "type": "Point", "coordinates": [ 139.275668344841222, 36.263405362401592 ] } },
{ "type": "Feature", "properties": { "P29_001": "10205", "P29_002": "A210310001079", "P29_003": "16013", "P29_004": "強戸こども園", "P29_005": "群馬県太田市寺井町695-5", "P29_006": "4", "P29_007": "0", "P29_008": "00", "P29_009": null }, "geometry": { "type": "Point", "coordinates": [ 139.33726339388943, 36.329817588468053 ] } },
{ "type": "Feature", "properties": { "P29_001": "10205", "P29_002": "A210310001088", "P29_003": "16013", "P29_004": "太田愛育こども園", "P29_005": "群馬県太田市下浜田町768-1", "P29_006": "4", "P29_007": "0", "P29_008": "00", "P29_009": null }, "geometry": { "type": "Point", "coordinates": [ 139.364301506440341, 36.27968319698418 ] } },
{ "type": "Feature", "properties": { "P29_001": "10205", "P29_002": "A210310001097", "P29_003": "16013", "P29_004": "大原南こども園", "P29_005": "群馬県太田市大原町110", "P29_006": "4", "P29_007": "0", "P29_008": "00", "P29_009": null }, "geometry": { "type": "Point", "coordinates": [ 139.292253621666504, 36.348201866482462 ] } },
{ "type": "Feature", "properties": { "P29_001": "10205", "P29_002": "A210310001104", "P29_003": "16013", "P29_004": "なかはらこども園", "P29_005": "群馬県太田市藪塚町2158-5", "P29_006": "4", "P29_007": "0", "P29_008": "00", "P29_009": null }, "geometry": { "type": "Point", "coordinates": [ 139.304723989804359, 36.368783682787182 ] } },
{ "type": "Feature", "properties": { "P29_001": "10205", "P29_002": "A210310001113", "P29_003": "16013", "P29_004": "とりやまこども園", "P29_005": "群馬県太田市鳥山中町1074-5", "P29_006": "4", "P29_007": "0", "P29_008": "00", "P29_009": null }, "geometry": { "type": "Point", "coordinates": [ 139.349626660639728, 36.319404382482645 ] } },
{ "type": "Feature", "properties": { "P29_001": "10205", "P29_002": "A210310001122", "P29_003": "16013", "P29_004": "幼保連携型認定こども園ＫｉｄｓＩｓｌａｎｄうちがしま", "P29_005": "群馬県太田市内ヶ島町1012-1", "P29_006": "4", "P29_007": "0", "P29_008": "00", "P29_009": null }, "geometry": { "type": "Point", "coordinates": [ 139.394442157609546, 36.286273826633277 ] } },
{ "type": "Feature", "properties": { "P29_001": "10205", "P29_002": "A210310001131", "P29_003": "16013", "P29_004": "毛里田こども園", "P29_005": "群馬県太田市矢田堀町388-3", "P29_006": "4", "P29_007": "0", "P29_008": "00", "P29_009": null }, "geometry": { "type": "Point", "coordinates": [ 139.378874628589614, 36.335302616139273 ] } },
{ "type": "Feature", "properties": { "P29_001": "10205", "P29_002": "A210310001140", "P29_003": "16013", "P29_004": "育実こども園", "P29_005": "群馬県太田市富若町530-1", "P29_006": "4", "P29_007": "0", "P29_008": "00", "P29_009": null }, "geometry": { "type": "Point", "coordinates": [ 139.399620586721426, 36.322004771795157 ] } },
{ "type": "Feature", "properties": { "P29_001": "10205", "P29_002": "A210310001159", "P29_003": "16013", "P29_004": "牛沢こども園", "P29_005": "群馬県太田市牛沢町1077-1", "P29_006": "4", "P29_007": "0", "P29_008": "00", "P29_009": null }, "geometry": { "type": "Point", "coordinates": [ 139.361320492231158, 36.259140571586663 ] } },
{ "type": "Feature", "properties": { "P29_001": "10205", "P29_002": "A210310001168", "P29_003": "16013", "P29_004": "認定こども園こまどり", "P29_005": "群馬県太田市石原町1038", "P29_006": "4", "P29_007": "0", "P29_008": "00", "P29_009": null }, "geometry": { "type": "Point", "coordinates": [ 139.40833773486068, 36.297602186607079 ] } },
{ "type": "Feature", "properties": { "P29_001": "10205", "P29_002": "A210310001177", "P29_003": "16013", "P29_004": "薮塚本町保育園", "P29_005": "群馬県太田市藪塚町1578", "P29_006": "4", "P29_007": "0", "P29_008": "00", "P29_009": null }, "geometry": { "type": "Point", "coordinates": [ 139.300091878665995, 36.35860608600683 ] } },
{ "type": "Feature", "properties": { "P29_001": "10205", "P29_002": "A210310001186", "P29_003": "16013", "P29_004": "スマイル幼稚園", "P29_005": "群馬県太田市藪塚町1745-3", "P29_006": "4", "P29_007": "0", "P29_008": "00", "P29_009": null }, "geometry": { "type": "Point", "coordinates": [ 139.297609004314182, 36.360134997410917 ] } },
{ "type": "Feature", "properties": { "P29_001": "10205", "P29_002": "A210310001195", "P29_003": "16013", "P29_004": "認定こども園いなり幼稚園", "P29_005": "群馬県太田市細谷町22-1", "P29_006": "4", "P29_007": "0", "P29_008": "00", "P29_009": null }, "geometry": { "type": "Point", "coordinates": [ 139.351288273349383, 36.268030527226415 ] } },
{ "type": "Feature", "properties": { "P29_001": "10205", "P29_002": "A210310001202", "P29_003": "16013", "P29_004": "なかよし幼稚園", "P29_005": "群馬県太田市新島町688", "P29_006": "4", "P29_007": "0", "P29_008": "00", "P29_009": null }, "geometry": { "type": "Point", "coordinates": [ 139.386554926620931, 36.289719326941345 ] } },
{ "type": "Feature", "properties": { "P29_001": "10205", "P29_002": "A210310001211", "P29_003": "16013", "P29_004": "にしのもりこども園", "P29_005": "群馬県太田市新野町843-8", "P29_006": "4", "P29_007": "0", "P29_008": "00", "P29_009": null }, "geometry": { "type": "Point", "coordinates": [ 139.339519935617687, 36.306009786295114 ] } },
{ "type": "Feature", "properties": { "P29_001": "10205", "P29_002": "A210310001220", "P29_003": "16013", "P29_004": "太田東保育園", "P29_005": "群馬県太田市東長岡町1407-5", "P29_006": "4", "P29_007": "0", "P29_008": "00", "P29_009": null }, "geometry": { "type": "Point", "coordinates": [ 139.393542469871107, 36.304699118245061 ] } },
{ "type": "Feature", "properties": { "P29_001": "10206", "P29_002": "A210310001239", "P29_003": "16013", "P29_004": "認定こども園沼田幼稚園", "P29_005": "群馬県沼田市坊新田町1105-3", "P29_006": "4", "P29_007": "0", "P29_008": "00", "P29_009": null }, "geometry": { "type": "Point", "coordinates": [ 139.045541000844622, 36.642628999274358 ] } },
{ "type": "Feature", "properties": { "P29_001": "10206", "P29_002": "A210310001248", "P29_003": "16013", "P29_004": "ちぐさこども園", "P29_005": "群馬県沼田市柳町394", "P29_006": "4", "P29_007": "0", "P29_008": "00", "P29_009": null }, "geometry": { "type": "Point", "coordinates": [ 139.045218123998467, 36.653792136921879 ] } },
{ "type": "Feature", "properties": { "P29_001": "10206", "P29_002": "A210310001257", "P29_003": "16013", "P29_004": "幼保連携型認定こども園沼田めぐみこども園", "P29_005": "群馬県沼田市清水町4330", "P29_006": "4", "P29_007": "0", "P29_008": "00", "P29_009": null }, "geometry": { "type": "Point", "coordinates": [ 139.037673556252457, 36.641022085400515 ] } },
{ "type": "Feature", "properties": { "P29_001": "10207", "P29_002": "A210310001266", "P29_003": "16013", "P29_004": "富士こども園", "P29_005": "群馬県館林市富士見町5-1", "P29_006": "4", "P29_007": "0", "P29_008": "00", "P29_009": null }, "geometry": { "type": "Point", "coordinates": [ 139.524473386500091, 36.244917072201325 ] } },
{ "type": "Feature", "properties": { "P29_001": "10208", "P29_002": "A210310001275", "P29_003": "16013", "P29_004": "半田こども園", "P29_005": "群馬県渋川市半田1162-1", "P29_006": "4", "P29_007": "0", "P29_008": "00", "P29_009": null }, "geometry": { "type": "Point", "coordinates": [ 139.025282922911856, 36.465779052535822 ] } },
{ "type": "Feature", "properties": { "P29_001": "10209", "P29_002": "A210310001284", "P29_003": "16013", "P29_004": "認定こども園ナースリープレスクール", "P29_005": "群馬県藤岡市藤岡1403-2", "P29_006": "4", "P29_007": "0", "P29_008": "00", "P29_009": null }, "geometry": { "type": "Point", "coordinates": [ 139.067448327336649, 36.246363629852205 ] } },
{ "type": "Feature", "properties": { "P29_001": "10209", "P29_002": "A210310001293", "P29_003": "16013", "P29_004": "幼保連携型認定こども園ふじおか中央こども園", "P29_005": "群馬県藤岡市藤岡1618-1", "P29_006": "4", "P29_007": "0", "P29_008": "00", "P29_009": null }, "geometry": { "type": "Point", "coordinates": [ 139.077985823758894, 36.246127289653792 ] } },
{ "type": "Feature", "properties": { "P29_001": "10209", "P29_002": "A210310001300", "P29_003": "16013", "P29_004": "藤岡幼稚園", "P29_005": "群馬県藤岡市藤岡845", "P29_006": "4", "P29_007": "0", "P29_008": "00", "P29_009": null }, "geometry": { "type": "Point", "coordinates": [ 139.080329039138974, 36.249474605000877 ] } },
{ "type": "Feature", "properties": { "P29_001": "10209", "P29_002": "A210310001319", "P29_003": "16013", "P29_004": "くまの幼稚園", "P29_005": "群馬県藤岡市上戸塚354-3", "P29_006": "4", "P29_007": "0", "P29_008": "00", "P29_009": null }, "geometry": { "type": "Point", "coordinates": [ 139.090403001898181, 36.246521996488177 ] } },
{ "type": "Feature", "properties": { "P29_001": "10209", "P29_002": "A210310001328", "P29_003": "16013", "P29_004": "あかねこども園", "P29_005": "群馬県藤岡市上大塚1593-1", "P29_006": "4", "P29_007": "0", "P29_008": "00", "P29_009": null }, "geometry": { "type": "Point", "coordinates": [ 139.051164339197555, 36.243160058017168 ] } },
{ "type": "Feature", "properties": { "P29_001": "10209", "P29_002": "A210310001337", "P29_003": "16013", "P29_004": "平井こども園", "P29_005": "群馬県藤岡市東平井1088-1", "P29_006": "4", "P29_007": "0", "P29_008": "00", "P29_009": null }, "geometry": { "type": "Point", "coordinates": [ 139.042158042658286, 36.226243585094906 ] } },
{ "type": "Feature", "properties": { "P29_001": "10209", "P29_002": "A210310001346", "P29_003": "16013", "P29_004": "幼保連携型認定こども園神流保育園", "P29_005": "群馬県藤岡市岡之郷907", "P29_006": "4", "P29_007": "0", "P29_008": "00", "P29_009": null }, "geometry": { "type": "Point", "coordinates": [ 139.094868996672147, 36.268792070438323 ] } },
{ "type": "Feature", "properties": { "P29_001": "10209", "P29_002": "A210310001355", "P29_003": "16013", "P29_004": "直心こども園", "P29_005": "群馬県藤岡市上落合848", "P29_006": "4", "P29_007": "0", "P29_008": "00", "P29_009": null }, "geometry": { "type": "Point", "coordinates": [ 139.041811826110461, 36.260855357317752 ] } },
{ "type": "Feature", "properties": { "P29_001": "10209", "P29_002": "A210310001364", "P29_003": "16013", "P29_004": "ひかりこども園", "P29_005": "群馬県藤岡市藤岡2378", "P29_006": "4", "P29_007": "0", "P29_008": "00", "P29_009": null }, "geometry": { "type": "Point", "coordinates": [ 139.072802570481002, 36.237577428643334 ] } },
{ "type": "Feature", "properties": { "P29_001": "10209", "P29_002": "A210310001373", "P29_003": "16013", "P29_004": "鬼石こども園", "P29_005": "群馬県藤岡市鬼石82", "P29_006": "4", "P29_007": "0", "P29_008": "00", "P29_009": null }, "geometry": { "type": "Point", "coordinates": [ 139.059022056279417, 36.154597773353395 ] } },
{ "type": "Feature", "properties": { "P29_001": "10209", "P29_002": "A210310001382", "P29_003": "16013", "P29_004": "幼保連携型認定こども園のぞみ幼稚園", "P29_005": "群馬県藤岡市藤岡1805-3", "P29_006": "4", "P29_007": "0", "P29_008": "00", "P29_009": null }, "geometry": { "type": "Point", "coordinates": [ 139.073606828874546, 36.239752296413364 ] } },
{ "type": "Feature", "properties": { "P29_001": "10209", "P29_002": "A210310001391", "P29_003": "16013", "P29_004": "認定こども園藤岡開成幼稚園", "P29_005": "群馬県藤岡市下栗須959-3", "P29_006": "4", "P29_007": "0", "P29_008": "00", "P29_009": null }, "geometry": { "type": "Point", "coordinates": [ 139.089579250205077, 36.26088519964609 ] } },
{ "type": "Feature", "properties": { "P29_001": "10210", "P29_002": "A210310001408", "P29_003": "16013", "P29_004": "富岡いずみこども園", "P29_005": "群馬県富岡市中沢210-5", "P29_006": "4", "P29_007": "0", "P29_008": "00", "P29_009": null }, "geometry": { "type": "Point", "coordinates": [ 138.812316348457614, 36.240446089143965 ] } },
{ "type": "Feature", "properties": { "P29_001": "10210", "P29_002": "A210310001417", "P29_003": "16013", "P29_004": "Ｂａｍｂｉｎｉピッコロ園", "P29_005": "群馬県富岡市一ノ宮382-3", "P29_006": "4", "P29_007": "0", "P29_008": "00", "P29_009": null }, "geometry": { "type": "Point", "coordinates": [ 138.863818702109143, 36.257102531821012 ] } },
{ "type": "Feature", "properties": { "P29_001": "10210", "P29_002": "A210310001426", "P29_003": "16013", "P29_004": "むつぎ幼稚園", "P29_005": "群馬県富岡市下高瀬294-1", "P29_006": "4", "P29_007": "0", "P29_008": "00", "P29_009": null }, "geometry": { "type": "Point", "coordinates": [ 138.892102395363821, 36.246974822942832 ] } },
{ "type": "Feature", "properties": { "P29_001": "10210", "P29_002": "A210310001435", "P29_003": "16013", "P29_004": "なのかいちこども園", "P29_005": "群馬県富岡市七日市1074-15", "P29_006": "4", "P29_007": "0", "P29_008": "00", "P29_009": null }, "geometry": { "type": "Point", "coordinates": [ 138.880134330568723, 36.256571782703666 ] } },
{ "type": "Feature", "properties": { "P29_001": "10210", "P29_002": "A210310001444", "P29_003": "16013", "P29_004": "幼保連携型認定こども園めぶきの森", "P29_005": "群馬県富岡市妙義町下高田144", "P29_006": "4", "P29_007": "0", "P29_008": "00", "P29_009": null }, "geometry": { "type": "Point", "coordinates": [ 138.849431744377341, 36.265448815618328 ] } },
{ "type": "Feature", "properties": { "P29_001": "10210", "P29_002": "A210310001453", "P29_003": "16013", "P29_004": "富岡ひばりこども園", "P29_005": "群馬県富岡市富岡1402", "P29_006": "4", "P29_007": "0", "P29_008": "00", "P29_009": null }, "geometry": { "type": "Point", "coordinates": [ 138.893398349650511, 36.256605149579045 ] } },
{ "type": "Feature", "properties": { "P29_001": "10210", "P29_002": "A210310001462", "P29_003": "16013", "P29_004": "杜こども園たかせ", "P29_005": "群馬県富岡市中高瀬412-1", "P29_006": "4", "P29_007": "0", "P29_008": "00", "P29_009": null }, "geometry": { "type": "Point", "coordinates": [ 138.881415734939537, 36.249687688495165 ] } },
{ "type": "Feature", "properties": { "P29_001": "10210", "P29_002": "A210310001471", "P29_003": "16013", "P29_004": "桜こども園たかせ", "P29_005": "群馬県富岡市下高瀬292", "P29_006": "4", "P29_007": "0", "P29_008": "00", "P29_009": null }, "geometry": { "type": "Point", "coordinates": [ 138.892496546697373, 36.24726016685964 ] } },
{ "type": "Feature", "properties": { "P29_001": "10210", "P29_002": "A210310001480", "P29_003": "16013", "P29_004": "一峰こども園", "P29_005": "群馬県富岡市七日市178-1", "P29_006": "4", "P29_007": "0", "P29_008": "00", "P29_009": null }, "geometry": { "type": "Point", "coordinates": [ 138.876162603774361, 36.262310073720812 ] } },
{ "type": "Feature", "properties": { "P29_001": "10210", "P29_002": "A210310001499", "P29_003": "16013", "P29_004": "富岡ひばり第二こども園", "P29_005": "群馬県富岡市富岡3073-1", "P29_006": "4", "P29_007": "0", "P29_008": "00", "P29_009": null }, "geometry": { "type": "Point", "coordinates": [ 138.901366736888662, 36.261543808864332 ] } },
{ "type": "Feature", "properties": { "P29_001": "10210", "P29_002": "A210310001505", "P29_003": "16013", "P29_004": "幼保連携型認定こども園おのすみれ", "P29_005": "群馬県富岡市下高尾1222-1", "P29_006": "4", "P29_007": "0", "P29_008": "00", "P29_009": null }, "geometry": { "type": "Point", "coordinates": [ 138.919332078487258, 36.287562234612444 ] } },
{ "type": "Feature", "properties": { "P29_001": "10210", "P29_002": "A210310001514", "P29_003": "16013", "P29_004": "甘楽こひつじこども園", "P29_005": "群馬県富岡市七日市1157-1", "P29_006": "4", "P29_007": "0", "P29_008": "00", "P29_009": null }, "geometry": { "type": "Point", "coordinates": [ 138.884874354694034, 36.255916377159508 ] } },
{ "type": "Feature", "properties": { "P29_001": "10211", "P29_002": "A210310001523", "P29_003": "16013", "P29_004": "いそべこども園", "P29_005": "群馬県安中市磯部3-12-12", "P29_006": "4", "P29_007": "0", "P29_008": "00", "P29_009": null }, "geometry": { "type": "Point", "coordinates": [ 138.855784131664194, 36.302973233855965 ] } },
{ "type": "Feature", "properties": { "P29_001": "10211", "P29_002": "A210310001532", "P29_003": "16013", "P29_004": "安中こども園", "P29_005": "群馬県安中市安中3-3-3", "P29_006": "4", "P29_007": "0", "P29_008": "00", "P29_009": null }, "geometry": { "type": "Point", "coordinates": [ 138.893614631142498, 36.327455242462115 ] } },
{ "type": "Feature", "properties": { "P29_001": "10211", "P29_002": "A210310001541", "P29_003": "16013", "P29_004": "後閑あさひ保育園", "P29_005": "群馬県安中市中後閑724", "P29_006": "4", "P29_007": "0", "P29_008": "00", "P29_009": null }, "geometry": { "type": "Point", "coordinates": [ 138.834203302877995, 36.331320286117794 ] } },
{ "type": "Feature", "properties": { "P29_001": "10211", "P29_002": "A210310001550", "P29_003": "16013", "P29_004": "あさひ第二保育園", "P29_005": "群馬県安中市下後閑509-1", "P29_006": "4", "P29_007": "0", "P29_008": "00", "P29_009": null }, "geometry": { "type": "Point", "coordinates": [ 138.855863035463557, 36.331632339776249 ] } },
{ "type": "Feature", "properties": { "P29_001": "10212", "P29_002": "A210310001569", "P29_003": "16013", "P29_004": "幼保連携型認定こども園みどりのもり", "P29_005": "群馬県みどり市笠懸町鹿2532-10", "P29_006": "4", "P29_007": "0", "P29_008": "00", "P29_009": null }, "geometry": { "type": "Point", "coordinates": [ 139.2832853092481, 36.403432199641571 ] } },
{ "type": "Feature", "properties": { "P29_001": "10212", "P29_002": "A210310001578", "P29_003": "16013", "P29_004": "幼保連携型認定こども園笠懸いずみ第二こども園", "P29_005": "群馬県みどり市笠懸町久宮299-1", "P29_006": "4", "P29_007": "0", "P29_008": "00", "P29_009": null }, "geometry": { "type": "Point", "coordinates": [ 139.280053609180527, 36.376427624373825 ] } },
{ "type": "Feature", "properties": { "P29_001": "10344", "P29_002": "A210310001587", "P29_003": "16013", "P29_004": "榛東中央こども園", "P29_005": "群馬県北群馬郡榛東村大字山子田2531-19", "P29_006": "4", "P29_007": "0", "P29_008": "00", "P29_009": null }, "geometry": { "type": "Point", "coordinates": [ 138.97401899406762, 36.442185999790496 ] } },
{ "type": "Feature", "properties": { "P29_001": "10344", "P29_002": "A210310001596", "P29_003": "16013", "P29_004": "榛東南部こども園", "P29_005": "群馬県北群馬郡榛東村大字広馬場1763-1", "P29_006": "4", "P29_007": "0", "P29_008": "00", "P29_009": null }, "geometry": { "type": "Point", "coordinates": [ 138.966925905999204, 36.419315999579744 ] } },
{ "type": "Feature", "properties": { "P29_001": "10345", "P29_002": "A210310001603", "P29_003": "16013", "P29_004": "幼保連携型認定こども園駒寄幼稚園", "P29_005": "群馬県北群馬郡吉岡町漆原953-1", "P29_006": "4", "P29_007": "0", "P29_008": "00", "P29_009": null }, "geometry": { "type": "Point", "coordinates": [ 139.024779881070941, 36.441205264597208 ] } },
{ "type": "Feature", "properties": { "P29_001": "10382", "P29_002": "A210310001612", "P29_003": "16013", "P29_004": "馬山こども園", "P29_005": "群馬県甘楽郡下仁田町馬山2668", "P29_006": "4", "P29_007": "0", "P29_008": "00", "P29_009": null }, "geometry": { "type": "Point", "coordinates": [ 138.810796837890052, 36.229205002684488 ] } },
{ "type": "Feature", "properties": { "P29_001": "10444", "P29_002": "A210310001621", "P29_003": "16013", "P29_004": "かわば森のこども園", "P29_005": "群馬県利根郡川場村谷地2527-2", "P29_006": "4", "P29_007": "0", "P29_008": "00", "P29_009": null }, "geometry": { "type": "Point", "coordinates": [ 139.110266194922275, 36.700080311225662 ] } },
{ "type": "Feature", "properties": { "P29_001": "10449", "P29_002": "A210310001630", "P29_003": "16013", "P29_004": "水上わかくりこども園", "P29_005": "群馬県利根郡みなかみ町湯原985", "P29_006": "4", "P29_007": "0", "P29_008": "00", "P29_009": null }, "geometry": { "type": "Point", "coordinates": [ 138.967703845507913, 36.767242848840333 ] } },
{ "type": "Feature", "properties": { "P29_001": "10449", "P29_002": "A210310001649", "P29_003": "16013", "P29_004": "つきよのこども園", "P29_005": "群馬県利根郡みなかみ町月夜野464", "P29_006": "4", "P29_007": "0", "P29_008": "00", "P29_009": null }, "geometry": { "type": "Point", "coordinates": [ 138.995223640206859, 36.680321369464906 ] } },
{ "type": "Feature", "properties": { "P29_001": "10524", "P29_002": "A210310001658", "P29_003": "16013", "P29_004": "認定こども園えのき幼稚園", "P29_005": "群馬県邑楽郡大泉町北小泉3-9-6", "P29_006": "4", "P29_007": "0", "P29_008": "00", "P29_009": null }, "geometry": { "type": "Point", "coordinates": [ 139.417585968079493, 36.265825433736374 ] } },
{ "type": "Feature", "properties": { "P29_001": "10524", "P29_002": "A210310001667", "P29_003": "16013", "P29_004": "みよし幼稚園", "P29_005": "群馬県邑楽郡大泉町吉田974-3", "P29_006": "4", "P29_007": "0", "P29_008": "00", "P29_009": null }, "geometry": { "type": "Point", "coordinates": [ 139.411993918201858, 36.241732334115547 ] } },
{ "type": "Feature", "properties": { "P29_001": "10205", "P29_002": "A210310001676", "P29_003": "16013", "P29_004": "韮川こども園", "P29_005": "群馬県太田市台之郷町845", "P29_006": "4", "P29_007": "0", "P29_008": "00", "P29_009": null }, "geometry": { "type": "Point", "coordinates": [ 139.40903696136985, 36.302460499244468 ] } },
{ "type": "Feature", "properties": { "P29_001": "10205", "P29_002": "A210310001685", "P29_003": "16013", "P29_004": "認定こども園新明幼稚園", "P29_005": "群馬県太田市由良町1829-5", "P29_006": "4", "P29_007": "0", "P29_008": "00", "P29_009": null }, "geometry": { "type": "Point", "coordinates": [ 139.340281155859913, 36.285869061171155 ] } },
{ "type": "Feature", "properties": { "P29_001": "10205", "P29_002": "A210310001694", "P29_003": "16013", "P29_004": "金山幼稚園", "P29_005": "群馬県太田市鳥山上町1633", "P29_006": "4", "P29_007": "0", "P29_008": "00", "P29_009": null }, "geometry": { "type": "Point", "coordinates": [ 139.345714291768473, 36.3215813097626 ] } },
{ "type": "Feature", "properties": { "P29_001": "10205", "P29_002": "A210310001701", "P29_003": "16013", "P29_004": "鶴生田こども園", "P29_005": "群馬県太田市鶴生田町401-1", "P29_006": "4", "P29_007": "0", "P29_008": "00", "P29_009": null }, "geometry": { "type": "Point", "coordinates": [ 139.358470808260734, 36.320029634425516 ] } },
{ "type": "Feature", "properties": { "P29_001": "10205", "P29_002": "A210310001710", "P29_003": "16013", "P29_004": "認定こども園東別所幼稚園", "P29_005": "群馬県太田市飯塚町1113-9", "P29_006": "4", "P29_007": "0", "P29_008": "00", "P29_009": null }, "geometry": { "type": "Point", "coordinates": [ 139.393918370849178, 36.272123379518717 ] } },
{ "type": "Feature", "properties": { "P29_001": "10205", "P29_002": "A210310001729", "P29_003": "16013", "P29_004": "宝泉北幼稚園", "P29_005": "群馬県太田市別所町388-2", "P29_006": "4", "P29_007": "0", "P29_008": "00", "P29_009": null }, "geometry": { "type": "Point", "coordinates": [ 139.333931573401145, 36.297623906272037 ] } },
{ "type": "Feature", "properties": { "P29_001": "10205", "P29_002": "A210310001738", "P29_003": "16013", "P29_004": "わたうちこども園", "P29_005": "群馬県太田市新田上江田町767-1", "P29_006": "4", "P29_007": "0", "P29_008": "00", "P29_009": null }, "geometry": { "type": "Point", "coordinates": [ 139.295273839249518, 36.298526064109176 ] } },
{ "type": "Feature", "properties": { "P29_001": "10205", "P29_002": "A210310001747", "P29_003": "16013", "P29_004": "あすなろこども園", "P29_005": "群馬県太田市只上町1647-6", "P29_006": "4", "P29_007": "0", "P29_008": "00", "P29_009": null }, "geometry": { "type": "Point", "coordinates": [ 139.405025825332729, 36.335070986513038 ] } },
{ "type": "Feature", "properties": { "P29_001": "10203", "P29_002": "A210310001756", "P29_003": "16013", "P29_004": "らららこども園", "P29_005": "群馬県桐生市東5-6-47", "P29_006": "4", "P29_007": "0", "P29_008": "00", "P29_009": null }, "geometry": { "type": "Point", "coordinates": [ 139.347302551777716, 36.407871307047678 ] } },
{ "type": "Feature", "properties": { "P29_001": "10204", "P29_002": "A210310001765", "P29_003": "16013", "P29_004": "はぐろこども園", "P29_005": "群馬県伊勢崎市馬見塚町230-1", "P29_006": "4", "P29_007": "0", "P29_008": "00", "P29_009": null }, "geometry": { "type": "Point", "coordinates": [ 139.208517993441973, 36.285923501528003 ] } },
{ "type": "Feature", "properties": { "P29_001": "10210", "P29_002": "A210310001774", "P29_003": "16013", "P29_004": "とみおかこども園", "P29_005": "群馬県富岡市富岡1093-1", "P29_006": "4", "P29_007": "0", "P29_008": "00", "P29_009": null }, "geometry": { "type": "Point", "coordinates": [ 138.886946727605022, 36.258614110258911 ] } },
{ "type": "Feature", "properties": { "P29_001": "10205", "P29_002": "A210310001783", "P29_003": "16013", "P29_004": "認定こども園生品のかぜ幼稚園", "P29_005": "群馬県太田市新田市野井町135-3", "P29_006": "4", "P29_007": "0", "P29_008": "00", "P29_009": null }, "geometry": { "type": "Point", "coordinates": [ 139.309567223431259, 36.316537437452162 ] } },
{ "type": "Feature", "properties": { "P29_001": "10205", "P29_002": "A210310001792", "P29_003": "16013", "P29_004": "認定こども園わたっこ", "P29_005": "群馬県太田市新田上江田町767-1", "P29_006": "4", "P29_007": "0", "P29_008": "00", "P29_009": null }, "geometry": { "type": "Point", "coordinates": [ 139.27701921584412, 36.308664319409438 ] } },
{ "type": "Feature", "properties": { "P29_001": "10201", "P29_002": "A210310001809", "P29_003": "16013", "P29_004": "桃瀬幼稚園", "P29_005": "群馬県前橋市西片貝町4-16-2", "P29_006": "4", "P29_007": "0", "P29_008": "00", "P29_009": null }, "geometry": { "type": "Point", "coordinates": [ 139.095556815590214, 36.386343451757014 ] } },
{ "type": "Feature", "properties": { "P29_001": "10201", "P29_002": "A210310001818", "P29_003": "16013", "P29_004": "元景幼稚園", "P29_005": "群馬県前橋市総社町植野150", "P29_006": "4", "P29_007": "0", "P29_008": "00", "P29_009": null }, "geometry": { "type": "Point", "coordinates": [ 139.040451344698596, 36.414417225144412 ] } },
{ "type": "Feature", "properties": { "P29_001": "10201", "P29_002": "A210310001827", "P29_003": "16013", "P29_004": "大胡第３こども園", "P29_005": "群馬県前橋市樋越町701-2", "P29_006": "4", "P29_007": "0", "P29_008": "00", "P29_009": null }, "geometry": { "type": "Point", "coordinates": [ 139.174877660332839, 36.408496187794647 ] } },
{ "type": "Feature", "properties": { "P29_001": "10202", "P29_002": "A210310001836", "P29_003": "16013", "P29_004": "桃ヶ丘保育園", "P29_005": "群馬県高崎市剣崎町409-3", "P29_006": "4", "P29_007": "0", "P29_008": "00", "P29_009": null }, "geometry": { "type": "Point", "coordinates": [ 138.953290801832566, 36.343664048606662 ] } },
{ "type": "Feature", "properties": { "P29_001": "10202", "P29_002": "A210310001845", "P29_003": "16013", "P29_004": "上滝こども園", "P29_005": "群馬県高崎市上滝町619-2", "P29_006": "4", "P29_007": "0", "P29_008": "00", "P29_009": null }, "geometry": { "type": "Point", "coordinates": [ 139.073999115204543, 36.324862481407955 ] } },
{ "type": "Feature", "properties": { "P29_001": "10203", "P29_002": "A210310001854", "P29_003": "16013", "P29_004": "幼保連携型認定こども園立正保育園", "P29_005": "群馬県桐生市浜松町1-8-7", "P29_006": "4", "P29_007": "0", "P29_008": "00", "P29_009": null }, "geometry": { "type": "Point", "coordinates": [ 139.33620457326063, 36.405558704157798 ] } },
{ "type": "Feature", "properties": { "P29_001": "10203", "P29_002": "A210310001863", "P29_003": "16013", "P29_004": "認定こども園たちばな保育園", "P29_005": "群馬県桐生市西久方町2-3-8", "P29_006": "4", "P29_007": "0", "P29_008": "00", "P29_009": null }, "geometry": { "type": "Point", "coordinates": [ 139.341230739567266, 36.420397976626333 ] } },
{ "type": "Feature", "properties": { "P29_001": "10203", "P29_002": "A210310001872", "P29_003": "16013", "P29_004": "白ゆりこども園", "P29_005": "群馬県桐生市新里町小林200-2", "P29_006": "4", "P29_007": "0", "P29_008": "00", "P29_009": null }, "geometry": { "type": "Point", "coordinates": [ 139.2363721086476, 36.417297896259853 ] } },
{ "type": "Feature", "properties": { "P29_001": "10204", "P29_002": "A210310001881", "P29_003": "16013", "P29_004": "リトルガーデンしいのみ", "P29_005": "群馬県伊勢崎市山王町625-1", "P29_006": "4", "P29_007": "0", "P29_008": "00", "P29_009": null }, "geometry": { "type": "Point", "coordinates": [ 139.191103092867621, 36.296389997463663 ] } },
{ "type": "Feature", "properties": { "P29_001": "10204", "P29_002": "A210310001890", "P29_003": "16013", "P29_004": "なかよし保育園", "P29_005": "群馬県伊勢崎市山王町1402", "P29_006": "4", "P29_007": "0", "P29_008": "00", "P29_009": null }, "geometry": { "type": "Point", "coordinates": [ 139.202111276112817, 36.29431583875089 ] } },
{ "type": "Feature", "properties": { "P29_001": "10205", "P29_002": "A210310001907", "P29_003": "16013", "P29_004": "台之郷こども園", "P29_005": "群馬県太田市台之郷町535", "P29_006": "4", "P29_007": "0", "P29_008": "00", "P29_009": null }, "geometry": { "type": "Point", "coordinates": [ 139.409948512208189, 36.306568341803299 ] } },
{ "type": "Feature", "properties": { "P29_001": "10205", "P29_002": "A210310001916", "P29_003": "16013", "P29_004": "幼保連携型認定こども園末広こども園", "P29_005": "群馬県太田市末広町543-5", "P29_006": "4", "P29_007": "0", "P29_008": "00", "P29_009": null }, "geometry": { "type": "Point", "coordinates": [ 139.383276701964888, 36.258537900937505 ] } },
{ "type": "Feature", "properties": { "P29_001": "10208", "P29_002": "A210310001925", "P29_003": "16013", "P29_004": "認定こども園白ばら幼稚園", "P29_005": "群馬県渋川市渋川778", "P29_006": "4", "P29_007": "0", "P29_008": "00", "P29_009": null }, "geometry": { "type": "Point", "coordinates": [ 139.001770291096022, 36.501426273587818 ] } },
{ "type": "Feature", "properties": { "P29_001": "10384", "P29_002": "A210310001934", "P29_003": "16013", "P29_004": "めぶきの森かんら", "P29_005": "群馬県甘楽郡甘楽町大字小川328-1", "P29_006": "4", "P29_007": "0", "P29_008": "00", "P29_009": null }, "geometry": { "type": "Point", "coordinates": [ 138.933772669546528, 36.250808261830457 ] } },
{ "type": "Feature", "properties": { "P29_001": "10201", "P29_002": "A210310001943", "P29_003": "16013", "P29_004": "ひろせ幼稚園", "P29_005": "群馬県前橋市広瀬町3-32-1", "P29_006": "4", "P29_007": "0", "P29_008": "00", "P29_009": null }, "geometry": { "type": "Point", "coordinates": [ 139.113892123259035, 36.35830031486131 ] } },
{ "type": "Feature", "properties": { "P29_001": "10201", "P29_002": "A210310001952", "P29_003": "16013", "P29_004": "大利根育英幼稚園分園朝日が丘こども園", "P29_005": "群馬県前橋市朝日が丘町5-1", "P29_006": "4", "P29_007": "0", "P29_008": "00", "P29_009": null }, "geometry": { "type": "Point", "coordinates": [ 139.06282463401908, 36.369557841495421 ] } },
{ "type": "Feature", "properties": { "P29_001": "10201", "P29_002": "A210310001961", "P29_003": "16013", "P29_004": "ＳｕｒｕＳｕ上陽こども園", "P29_005": "群馬県前橋市西善町598-2", "P29_006": "4", "P29_007": "0", "P29_008": "00", "P29_009": null }, "geometry": { "type": "Point", "coordinates": [ 139.11858009150194, 36.345720325755785 ] } },
{ "type": "Feature", "properties": { "P29_001": "10202", "P29_002": "A210310001970", "P29_003": "16013", "P29_004": "星の子みのりこども園", "P29_005": "群馬県高崎市貝沢町2150", "P29_006": "4", "P29_007": "0", "P29_008": "00", "P29_009": null }, "geometry": { "type": "Point", "coordinates": [ 139.028153609570865, 36.348765415143362 ] } },
{ "type": "Feature", "properties": { "P29_001": "10202", "P29_002": "A210310001989", "P29_003": "16013", "P29_004": "城東ゆめの実こども園（仮称）", "P29_005": "群馬県高崎市下之城町488-1", "P29_006": "4", "P29_007": "0", "P29_008": "00", "P29_009": null }, "geometry": { "type": "Point", "coordinates": [ 139.034109929275417, 36.309901419761147 ] } },
{ "type": "Feature", "properties": { "P29_001": "10211", "P29_002": "A210310001998", "P29_003": "16013", "P29_004": "東横野幼稚園", "P29_005": "群馬県安中市鷺宮3092-2", "P29_006": "4", "P29_007": "0", "P29_008": "00", "P29_009": null }, "geometry": { "type": "Point", "coordinates": [ 138.879620000367879, 36.296840003011532 ] } },
{ "type": "Feature", "properties": { "P29_001": "10203", "P29_002": "A210310002005", "P29_003": "16013", "P29_004": "にじいろこども園", "P29_005": "群馬県桐生市仲町1-11-21", "P29_006": "4", "P29_007": "0", "P29_008": "00", "P29_009": null }, "geometry": { "type": "Point", "coordinates": [ 139.343084455822549, 36.412896212151665 ] } },
{ "type": "Feature", "properties": { "P29_001": "10203", "P29_002": "A210310002014", "P29_003": "16013", "P29_004": "幼保連携型認定こども園みらい", "P29_005": "群馬県桐生市相生町1-621-2", "P29_006": "4", "P29_007": "0", "P29_008": "00", "P29_009": null }, "geometry": { "type": "Point", "coordinates": [ 139.30965301816866, 36.400857533404213 ] } },
{ "type": "Feature", "properties": { "P29_001": "10204", "P29_002": "A210310002023", "P29_003": "16013", "P29_004": "やさか保育園", "P29_005": "群馬県伊勢崎市八坂町5-18", "P29_006": "4", "P29_007": "0", "P29_008": "00", "P29_009": null }, "geometry": { "type": "Point", "coordinates": [ 139.198255657936187, 36.314455863953029 ] } },
{ "type": "Feature", "properties": { "P29_001": "10207", "P29_002": "A210310002032", "P29_003": "16013", "P29_004": "認定こども園ＡＯＹＡＧＩ", "P29_005": "群馬県館林市青柳町1596-1", "P29_006": "4", "P29_007": "0", "P29_008": "00", "P29_009": null }, "geometry": { "type": "Point", "coordinates": [ 139.51842998780225, 36.227007385095924 ] } },
{ "type": "Feature", "properties": { "P29_001": "10211", "P29_002": "A210310002041", "P29_003": "16013", "P29_004": "あきまこども園", "P29_005": "群馬県安中市下秋間1459", "P29_006": "4", "P29_007": "0", "P29_008": "00", "P29_009": null }, "geometry": { "type": "Point", "coordinates": [ 138.883090175407972, 36.345267047391857 ] } }
]
}
