{
"type": "FeatureCollection",
"name": "geo_10_訪問リハビリテーション",
"crs": { "type": "name", "properties": { "name": "urn:ogc:def:crs:OGC:1.3:CRS84" } },
"features": [
{ "type": "Feature", "properties": { "内容": "介護老人保健施設やまぶき【訪問リハビリテーション】群馬県前橋市小屋原町977-3", "url": "https://www.kaigokensaku.mhlw.go.jp/10/index.php?action_kouhyou_detail_004_kani=true&JigyosyoCd=1050180114-00&ServiceCd=140&Type=search", "url2": null }, "geometry": { "type": "Point", "coordinates": [ 139.1357152, 36.3578251 ] } },
{ "type": "Feature", "properties": { "内容": "富沢病院訪問リハビリテーション事業所【訪問リハビリテーション】群馬県前橋市朝日町4-17-1", "url": "https://www.kaigokensaku.mhlw.go.jp/10/index.php?action_kouhyou_detail_004_kani=true&JigyosyoCd=1010110516-00&ServiceCd=140&Type=search", "url2": "http://www.tomizawa-h.or.jp" }, "geometry": { "type": "Point", "coordinates": [ 139.090300699999943, 36.3831857 ] } },
{ "type": "Feature", "properties": { "内容": "老人保健施設ビハーラ寿苑【訪問リハビリテーション】群馬県前橋市江木町1072番地", "url": "https://www.kaigokensaku.mhlw.go.jp/10/index.php?action_kouhyou_detail_004_kani=true&JigyosyoCd=1050180049-00&ServiceCd=140&Type=search", "url2": "http://www3.wind.ne.jp/akagi-hospital/vihara/" }, "geometry": { "type": "Point", "coordinates": [ 139.138412499999987, 36.3990796 ] } },
{ "type": "Feature", "properties": { "内容": "介護老人保健施設けやき苑【訪問リハビリテーション】群馬県前橋市下大島町596-1", "url": "https://www.kaigokensaku.mhlw.go.jp/10/index.php?action_kouhyou_detail_004_kani=true&JigyosyoCd=1050180056-00&ServiceCd=140&Type=search", "url2": "http:/keyaki-en.com" }, "geometry": { "type": "Point", "coordinates": [ 139.1150342, 36.3608882 ] } },
{ "type": "Feature", "properties": { "内容": "医療法人相生会わかば病院【訪問リハビリテーション】群馬県前橋市新前橋町4-4", "url": "https://www.kaigokensaku.mhlw.go.jp/10/index.php?action_kouhyou_detail_004_kani=true&JigyosyoCd=1010111324-00&ServiceCd=140&Type=search", "url2": "http://www.wakaba-hp.gr.jp/" }, "geometry": { "type": "Point", "coordinates": [ 139.05339724655758, 36.380653286065538 ] } },
{ "type": "Feature", "properties": { "内容": "介護老人保健施設おうみ【訪問リハビリテーション】群馬県前橋市総社町総社2628", "url": "https://www.kaigokensaku.mhlw.go.jp/10/index.php?action_kouhyou_detail_004_kani=true&JigyosyoCd=1050180122-00&ServiceCd=140&Type=search", "url2": "http://ken-ei-kai.or.jp/publics/index/153/" }, "geometry": { "type": "Point", "coordinates": [ 139.033294899999987, 36.3956997 ] } },
{ "type": "Feature", "properties": { "内容": "前橋協立病院【訪問リハビリテーション】群馬県前橋市朝倉町828‐１", "url": "https://www.kaigokensaku.mhlw.go.jp/10/index.php?action_kouhyou_detail_004_kani=true&JigyosyoCd=1010110151-00&ServiceCd=140&Type=search", "url2": "http://www.kyouritsu.or.jp" }, "geometry": { "type": "Point", "coordinates": [ 139.085866109262042, 36.369512587360873 ] } },
{ "type": "Feature", "properties": { "内容": "善衆会病院訪問リハビリテーション【訪問リハビリテーション】群馬県前橋市笂井町54番地1", "url": "https://www.kaigokensaku.mhlw.go.jp/10/index.php?action_kouhyou_detail_004_kani=true&JigyosyoCd=1010112306-00&ServiceCd=140&Type=search", "url2": "http://zenshukai.com" }, "geometry": { "type": "Point", "coordinates": [ 139.1386771, 36.3701928 ] } },
{ "type": "Feature", "properties": { "内容": "高崎老人保健施設福寿苑【訪問リハビリテーション】群馬県高崎市矢中町841", "url": "https://www.kaigokensaku.mhlw.go.jp/10/index.php?action_kouhyou_detail_004_kani=true&JigyosyoCd=1050280039-00&ServiceCd=140&Type=search", "url2": "http://www.iwata-hp.or.jp" }, "geometry": { "type": "Point", "coordinates": [ 139.051306699999941, 36.3047411 ] } },
{ "type": "Feature", "properties": { "内容": "たかまえ病院【訪問リハビリテーション】群馬県高崎市中尾町1230番地", "url": "https://www.kaigokensaku.mhlw.go.jp/10/index.php?action_kouhyou_detail_004_kani=true&JigyosyoCd=1011010822-00&ServiceCd=140&Type=search", "url2": "https://takamae-hp.jp/" }, "geometry": { "type": "Point", "coordinates": [ 139.0305066, 36.3702972 ] } },
{ "type": "Feature", "properties": { "内容": "通町診療所【訪問リハビリテーション】群馬県高崎市通町143-2", "url": "https://www.kaigokensaku.mhlw.go.jp/10/index.php?action_kouhyou_detail_004_kani=true&JigyosyoCd=1011010301-00&ServiceCd=140&Type=search", "url2": "https://torimachi.harunacoop.jp/" }, "geometry": { "type": "Point", "coordinates": [ 139.0092304, 36.325834 ] } },
{ "type": "Feature", "properties": { "内容": "介護老人保健施設太陽【訪問リハビリテーション】群馬県高崎市井野町1040", "url": "https://www.kaigokensaku.mhlw.go.jp/10/index.php?action_kouhyou_detail_004_kani=true&JigyosyoCd=1050280070-00&ServiceCd=140&Type=search", "url2": "https://www.ra-inoue-hp.com/taiyo/" }, "geometry": { "type": "Point", "coordinates": [ 139.027243700000014, 36.3525564 ] } },
{ "type": "Feature", "properties": { "内容": "介護老人保健施設ことりの園【訪問リハビリテーション】群馬県高崎市下小鳥町1277番地第一病院５・６階", "url": "https://www.kaigokensaku.mhlw.go.jp/10/index.php?action_kouhyou_detail_004_kani=true&JigyosyoCd=1050280112-00&ServiceCd=140&Type=search", "url2": "http://www.daiichi-hp.or.jp/" }, "geometry": { "type": "Point", "coordinates": [ 138.999703899999986, 36.3480292 ] } },
{ "type": "Feature", "properties": { "内容": "医療法人社団日高会日高リハビリテーション病院【訪問リハビリテーション】群馬県高崎市吉井町馬庭2204", "url": "https://www.kaigokensaku.mhlw.go.jp/10/index.php?action_kouhyou_detail_004_kani=true&JigyosyoCd=1011710264-00&ServiceCd=140&Type=search", "url2": "https://www.hidaka-kai.com" }, "geometry": { "type": "Point", "coordinates": [ 138.9950275, 36.2699321 ] } },
{ "type": "Feature", "properties": { "内容": "介護老人保健施設春照苑【訪問リハビリテーション】群馬県高崎市江木町７１７番地", "url": "https://www.kaigokensaku.mhlw.go.jp/10/index.php?action_kouhyou_detail_004_kani=true&JigyosyoCd=1050280047-00&ServiceCd=140&Type=search", "url2": "https://www.kibokan-hp.or.jp/shunshouen/" }, "geometry": { "type": "Point", "coordinates": [ 139.0202289, 36.335751 ] } },
{ "type": "Feature", "properties": { "内容": "高崎中央病院【訪問リハビリテーション】群馬県高崎市高関町498-1", "url": "https://www.kaigokensaku.mhlw.go.jp/10/index.php?action_kouhyou_detail_004_kani=true&JigyosyoCd=1011010087-00&ServiceCd=140&Type=search", "url2": "http://www.harunacoop.jp" }, "geometry": { "type": "Point", "coordinates": [ 139.032532800000013, 36.3252427 ] } },
{ "type": "Feature", "properties": { "内容": "こやぎ内科【訪問リハビリテーション】群馬県高崎市小八木町2031-6", "url": "https://www.kaigokensaku.mhlw.go.jp/10/index.php?action_kouhyou_detail_004_kani=true&JigyosyoCd=1011011408-00&ServiceCd=140&Type=search", "url2": "https://www.koyaginaika.com" }, "geometry": { "type": "Point", "coordinates": [ 139.018691735582024, 36.359613100471229 ] } },
{ "type": "Feature", "properties": { "内容": "医療法人社団水火会もてき脳神経外科【訪問リハビリテーション】群馬県高崎市上小塙町567番地", "url": "https://www.kaigokensaku.mhlw.go.jp/10/index.php?action_kouhyou_detail_004_kani=true&JigyosyoCd=1011010855-00&ServiceCd=140&Type=search", "url2": "http://www.suika.or.jp/" }, "geometry": { "type": "Point", "coordinates": [ 138.979218899999978, 36.359436 ] } },
{ "type": "Feature", "properties": { "内容": "介護老人保健施設　ケアピース【訪問リハビリテーション】群馬県高崎市上豊岡町１１６８－１", "url": "https://www.kaigokensaku.mhlw.go.jp/10/index.php?action_kouhyou_detail_004_kani=true&JigyosyoCd=1050280054-00&ServiceCd=140&Type=search", "url2": "http://carepeace.net" }, "geometry": { "type": "Point", "coordinates": [ 138.969700800000027, 36.343162499999984 ] } },
{ "type": "Feature", "properties": { "内容": "あけぼの苑高崎訪問リハビリテーション【訪問リハビリテーション】群馬県高崎市上豊岡町827-1", "url": "https://www.kaigokensaku.mhlw.go.jp/10/index.php?action_kouhyou_detail_004_kani=true&JigyosyoCd=1050280062-00&ServiceCd=140&Type=search", "url2": "https://harunaso.or.jp/akebonoen_takasaki/" }, "geometry": { "type": "Point", "coordinates": [ 138.966467599999987, 36.3433265 ] } },
{ "type": "Feature", "properties": { "内容": "ひだまり診療所【訪問リハビリテーション】群馬県高崎市乗附町1444-2", "url": "https://www.kaigokensaku.mhlw.go.jp/10/index.php?action_kouhyou_detail_004_kani=true&JigyosyoCd=1011003934-00&ServiceCd=140&Type=search", "url2": "http://www.hidamaricl.jp" }, "geometry": { "type": "Point", "coordinates": [ 138.977808, 36.3245992 ] } },
{ "type": "Feature", "properties": { "内容": "介護老人保健施設　老健くろさわ【訪問リハビリテーション】群馬県高崎市中居町3-19-2", "url": "https://www.kaigokensaku.mhlw.go.jp/10/index.php?action_kouhyou_detail_004_kani=true&JigyosyoCd=1050280153-00&ServiceCd=140&Type=search", "url2": "www.bishinkai.or.jp/roken_kurosawa/" }, "geometry": { "type": "Point", "coordinates": [ 139.040312, 36.3146847 ] } },
{ "type": "Feature", "properties": { "内容": "介護老人保健施設あけぼの苑【訪問リハビリテーション】群馬県高崎市中室田町2258‐１", "url": "https://www.kaigokensaku.mhlw.go.jp/10/index.php?action_kouhyou_detail_004_kani=true&JigyosyoCd=1052180013-00&ServiceCd=140&Type=search", "url2": "https://www.harunaso.or.jp/akebonoen/" }, "geometry": { "type": "Point", "coordinates": [ 138.8593134, 36.3976018 ] } },
{ "type": "Feature", "properties": { "内容": "医療法人中央群馬脳神経外科病院【訪問リハビリテーション】群馬県高崎市中尾町６４－１医療法人中央群馬脳神経外科病院", "url": "https://www.kaigokensaku.mhlw.go.jp/10/index.php?action_kouhyou_detail_004_kani=true&JigyosyoCd=1011010988-00&ServiceCd=140&Type=search", "url2": "http://cgn-h.com/" }, "geometry": { "type": "Point", "coordinates": [ 139.032942400000024, 36.3747414 ] } },
{ "type": "Feature", "properties": { "内容": "平成日高クリニック【訪問リハビリテーション】群馬県高崎市中尾町807-1", "url": "https://www.kaigokensaku.mhlw.go.jp/10/index.php?action_kouhyou_detail_004_kani=true&JigyosyoCd=1011011200-00&ServiceCd=140&Type=search", "url2": "https://hidaka-kai.or.jp/heisei/pages/83/" }, "geometry": { "type": "Point", "coordinates": [ 139.027540400000021, 36.3638647 ] } },
{ "type": "Feature", "properties": { "内容": "医療法人井上病院【訪問リハビリテーション】群馬県高崎市通町55番地", "url": "https://www.kaigokensaku.mhlw.go.jp/10/index.php?action_kouhyou_detail_004_kani=true&JigyosyoCd=1011010368-00&ServiceCd=140&Type=search", "url2": "http://www.ra-inoue-hp.com/" }, "geometry": { "type": "Point", "coordinates": [ 139.008937300000071, 36.3242095 ] } },
{ "type": "Feature", "properties": { "内容": "訪問リハビリテーション関越中央【訪問リハビリテーション】群馬県高崎市北原町71番地", "url": "https://www.kaigokensaku.mhlw.go.jp/10/index.php?action_kouhyou_detail_004_kani=true&JigyosyoCd=1011510128-00&ServiceCd=140&Type=search", "url2": "http://www.kan-etsu-hospital.com" }, "geometry": { "type": "Point", "coordinates": [ 139.025111580340564, 36.405789547643195 ] } },
{ "type": "Feature", "properties": { "内容": "介護老人保健施設和光園【訪問リハビリテーション】群馬県高崎市矢島町４４９－２", "url": "https://www.kaigokensaku.mhlw.go.jp/10/index.php?action_kouhyou_detail_004_kani=true&JigyosyoCd=1050280013-00&ServiceCd=140&Type=search", "url2": "http://www.komai-hp.com/wakoen.html" }, "geometry": { "type": "Point", "coordinates": [ 139.049431373016319, 36.339296640643958 ] } },
{ "type": "Feature", "properties": { "内容": "介護老人保健施設さくら苑【訪問リハビリテーション】群馬県桐生市新里町新川２４８８", "url": "https://www.kaigokensaku.mhlw.go.jp/10/index.php?action_kouhyou_detail_004_kani=true&JigyosyoCd=1052080023-00&ServiceCd=140&Type=search", "url2": "http://www.kiryuushisakura.com/" }, "geometry": { "type": "Point", "coordinates": [ 139.250720099999967, 36.4221876 ] } },
{ "type": "Feature", "properties": { "内容": "医療法人社団明石会桐生整形外科病院【訪問リハビリテーション】群馬県桐生市相生町1丁目253-1", "url": "https://www.kaigokensaku.mhlw.go.jp/10/index.php?action_kouhyou_detail_004_kani=true&JigyosyoCd=1012410781-00&ServiceCd=140&Type=search", "url2": "http://www.kiryu-seikei.com" }, "geometry": { "type": "Point", "coordinates": [ 139.3217818, 36.398061 ] } },
{ "type": "Feature", "properties": { "内容": "桐生協立診療所【訪問リハビリテーション】群馬県桐生市相生町2-554-7", "url": "https://www.kaigokensaku.mhlw.go.jp/10/index.php?action_kouhyou_detail_004_kani=true&JigyosyoCd=1012410468-00&ServiceCd=140&Type=search", "url2": "https://www.kyouritsu.org/" }, "geometry": { "type": "Point", "coordinates": [ 139.296485399999938, 36.4191189 ] } },
{ "type": "Feature", "properties": { "内容": "医療法人　岩下会岩下病院　訪問リハビリテーション【訪問リハビリテーション】群馬県桐生市本町四丁目３２０番地", "url": "https://www.kaigokensaku.mhlw.go.jp/10/index.php?action_kouhyou_detail_004_kani=true&JigyosyoCd=1012410187-00&ServiceCd=140&Type=search", "url2": "https://www.iwashita-hospital.com/" }, "geometry": { "type": "Point", "coordinates": [ 139.3400355, 36.4138231 ] } },
{ "type": "Feature", "properties": { "内容": "訪問リハビリテーションセンター旭ヶ丘【訪問リハビリテーション】群馬県伊勢崎市間野谷１３５－１", "url": "https://www.kaigokensaku.mhlw.go.jp/10/index.php?action_kouhyou_detail_004_kani=true&JigyosyoCd=1070401409-00&ServiceCd=140&Type=search", "url2": "http://www.asahigaoka.or.jp" }, "geometry": { "type": "Point", "coordinates": [ 139.26671650000003, 36.3740785 ] } },
{ "type": "Feature", "properties": { "内容": "公益財団法人脳血管研究所美原記念病院【訪問リハビリテーション】群馬県伊勢崎市太田町366", "url": "https://www.kaigokensaku.mhlw.go.jp/10/index.php?action_kouhyou_detail_004_kani=true&JigyosyoCd=1010210274-00&ServiceCd=140&Type=search", "url2": null }, "geometry": { "type": "Point", "coordinates": [ 139.1804793, 36.3280857 ] } },
{ "type": "Feature", "properties": { "内容": "訪問リハビリテーションセンター　まゆ玉【訪問リハビリテーション】群馬県伊勢崎市長沼町２６６４－１", "url": "https://www.kaigokensaku.mhlw.go.jp/10/index.php?action_kouhyou_detail_004_kani=true&JigyosyoCd=1070401391-00&ServiceCd=140&Type=search", "url2": "http://www.mayudama.or.jp" }, "geometry": { "type": "Point", "coordinates": [ 139.213297900000043, 36.2648893 ] } },
{ "type": "Feature", "properties": { "内容": "大井戸診療所【訪問リハビリテーション】東小保方町4008-1", "url": "https://www.kaigokensaku.mhlw.go.jp/10/index.php?action_kouhyou_detail_004_kani=true&JigyosyoCd=1010211280-00&ServiceCd=140&Type=search", "url2": "https://www.ooido.net/" }, "geometry": { "type": "Point", "coordinates": [ 139.2457367, 36.3170275 ] } },
{ "type": "Feature", "properties": { "内容": "医療法人石井会石井病院【訪問リハビリテーション】群馬県伊勢崎市波志江町1152", "url": "https://www.kaigokensaku.mhlw.go.jp/10/index.php?action_kouhyou_detail_004_kani=true&JigyosyoCd=1010210316-00&ServiceCd=140&Type=search", "url2": "https://www.ishii.or.jp" }, "geometry": { "type": "Point", "coordinates": [ 139.183139799999935, 36.339442 ] } },
{ "type": "Feature", "properties": { "内容": "太田協立診療所【訪問リハビリテーション】群馬県太田市石原町927", "url": "https://www.kaigokensaku.mhlw.go.jp/10/index.php?action_kouhyou_detail_004_kani=true&JigyosyoCd=1012510747-00&ServiceCd=140&Type=search", "url2": "https://www.kyouritsu.org/ota/" }, "geometry": { "type": "Point", "coordinates": [ 139.405299430170345, 36.297959207390718 ] } },
{ "type": "Feature", "properties": { "内容": "医療法人財団明理会　介護老人保健施設イムスやぶづかロイヤルケアセンター【訪問リハビリテーション】群馬県太田市大原町531-3", "url": "https://www.kaigokensaku.mhlw.go.jp/10/index.php?action_kouhyou_detail_004_kani=true&JigyosyoCd=1050580073-00&ServiceCd=140&Type=search", "url2": "http://www.ims.gr.jp/yabuduka-royal/" }, "geometry": { "type": "Point", "coordinates": [ 139.296164299999987, 36.3567767 ] } },
{ "type": "Feature", "properties": { "内容": "あいファミリィクリニック太田【訪問リハビリテーション】群馬県太田市只上町364-1", "url": "https://www.kaigokensaku.mhlw.go.jp/10/index.php?action_kouhyou_detail_004_kani=true&JigyosyoCd=1012511182-00&ServiceCd=140&Type=search", "url2": "https://i-family-clinic.or.jp/visit/" }, "geometry": { "type": "Point", "coordinates": [ 139.395624199999986, 36.3328298 ] } },
{ "type": "Feature", "properties": { "内容": "介護老人保健施設　ふじあく光荘【訪問リハビリテーション】群馬県太田市藤阿久町345", "url": "https://www.kaigokensaku.mhlw.go.jp/10/index.php?action_kouhyou_detail_004_kani=true&JigyosyoCd=1050580065-00&ServiceCd=140&Type=search", "url2": "http://www.f-hikari.com" }, "geometry": { "type": "Point", "coordinates": [ 139.360691299999985, 36.2852643 ] } },
{ "type": "Feature", "properties": { "内容": "医療法人あい友会　あい太田クリニック【訪問リハビリテーション】群馬県太田市浜町59-3", "url": "https://www.kaigokensaku.mhlw.go.jp/10/index.php?action_kouhyou_detail_004_kani=true&JigyosyoCd=1012511190-00&ServiceCd=140&Type=search", "url2": "https://aiyu-kai.or.jp/clinics/ai-oota-clinic/" }, "geometry": { "type": "Point", "coordinates": [ 139.362746051532469, 36.290953566019361 ] } },
{ "type": "Feature", "properties": { "内容": "医療法人宏愛会宏愛会第一病院【訪問リハビリテーション】群馬県太田市六千石99-63", "url": "https://www.kaigokensaku.mhlw.go.jp/10/index.php?action_kouhyou_detail_004_kani=true&JigyosyoCd=1012710123-00&ServiceCd=140&Type=search", "url2": "http://www.koaikai.jp/" }, "geometry": { "type": "Point", "coordinates": [ 139.286571200000054, 36.3386136 ] } },
{ "type": "Feature", "properties": { "内容": "川島脳神経外科医院【訪問リハビリテーション】群馬県館林市岡野町374", "url": "https://www.kaigokensaku.mhlw.go.jp/10/index.php?action_kouhyou_detail_004_kani=true&JigyosyoCd=1012610265-00&ServiceCd=140&Type=search", "url2": "https://www.tatebayashi-kawashima-cl.com/" }, "geometry": { "type": "Point", "coordinates": [ 139.522082899999987, 36.2623175 ] } },
{ "type": "Feature", "properties": { "内容": "館林記念病院【訪問リハビリテーション】群馬県館林市台宿町7番18号", "url": "https://www.kaigokensaku.mhlw.go.jp/10/index.php?action_kouhyou_detail_004_kani=true&JigyosyoCd=1012610109-00&ServiceCd=140&Type=search", "url2": "http://www.rikkakai.jp" }, "geometry": { "type": "Point", "coordinates": [ 139.534796, 36.2542246 ] } },
{ "type": "Feature", "properties": { "内容": "県西在宅クリニック舘林【訪問リハビリテーション】群馬県館林市東広内町1118-1", "url": "https://www.kaigokensaku.mhlw.go.jp/10/index.php?action_kouhyou_detail_004_kani=true&JigyosyoCd=1012610653-00&ServiceCd=140&Type=search", "url2": null }, "geometry": { "type": "Point", "coordinates": [ 139.5429364, 36.2583086 ] } },
{ "type": "Feature", "properties": { "内容": "渋川中央病院【訪問リハビリテーション】群馬県渋川市石原５０８－１", "url": "https://www.kaigokensaku.mhlw.go.jp/10/index.php?action_kouhyou_detail_004_kani=true&JigyosyoCd=1011110226-00&ServiceCd=140&Type=search", "url2": "http://shibutyu.com" }, "geometry": { "type": "Point", "coordinates": [ 139.006645, 36.4865293 ] } },
{ "type": "Feature", "properties": { "内容": "医療法人　石井会　渋川伊香保分院【訪問リハビリテーション】群馬県渋川市中村116‐1", "url": "https://www.kaigokensaku.mhlw.go.jp/10/index.php?action_kouhyou_detail_004_kani=true&JigyosyoCd=1011110416-00&ServiceCd=140&Type=search", "url2": "http://www.shibukawaikaho.ishi.or.jp" }, "geometry": { "type": "Point", "coordinates": [ 139.012607153967281, 36.482757353952685 ] } },
{ "type": "Feature", "properties": { "内容": "介護老人保健施設　藤岡みどりの園【訪問リハビリテーション】群馬県藤岡市下大塚525", "url": "https://www.kaigokensaku.mhlw.go.jp/10/index.php?action_kouhyou_detail_004_kani=true&JigyosyoCd=1050980018-00&ServiceCd=140&Type=search", "url2": null }, "geometry": { "type": "Point", "coordinates": [ 139.064498333390787, 36.258355382082414 ] } },
{ "type": "Feature", "properties": { "内容": "公立藤岡総合病院訪問リハビリ事業所【訪問リハビリテーション】群馬県藤岡市中栗須813番地1", "url": "https://www.kaigokensaku.mhlw.go.jp/10/index.php?action_kouhyou_detail_004_kani=true&JigyosyoCd=1011210414-00&ServiceCd=140&Type=search", "url2": "http://www.fujioka-hosp.or.jp/" }, "geometry": { "type": "Point", "coordinates": [ 139.078397200000012, 36.2672687 ] } },
{ "type": "Feature", "properties": { "内容": "介護老人保健施設ミドルホーム富岡【訪問リハビリテーション】群馬県富岡市岡本９６５", "url": "https://www.kaigokensaku.mhlw.go.jp/10/index.php?action_kouhyou_detail_004_kani=true&JigyosyoCd=1051080016-00&ServiceCd=140&Type=search", "url2": "http://www.middle-home.org/" }, "geometry": { "type": "Point", "coordinates": [ 138.8886781, 36.2381682 ] } },
{ "type": "Feature", "properties": { "内容": "介護老人保健施設めぐみ【訪問リハビリテーション】群馬県安中市安中3丁目25番地13号", "url": "https://www.kaigokensaku.mhlw.go.jp/10/index.php?action_kouhyou_detail_004_kani=true&JigyosyoCd=1051180014-00&ServiceCd=140&Type=search", "url2": "http://med.wind.ne.jp/sutoh-hp/megumi/" }, "geometry": { "type": "Point", "coordinates": [ 138.900333100000012, 36.3285395 ] } },
{ "type": "Feature", "properties": { "内容": "医療法人済恵会須藤病院【訪問リハビリテーション】群馬県安中市安中３５３２－５", "url": "https://www.kaigokensaku.mhlw.go.jp/10/index.php?action_kouhyou_detail_004_kani=true&JigyosyoCd=1011410063-00&ServiceCd=140&Type=search", "url2": "http://med.wind.ne.jp/sutoh-hp/" }, "geometry": { "type": "Point", "coordinates": [ 138.9031556, 36.3280206 ] } },
{ "type": "Feature", "properties": { "内容": "本多病院【訪問リハビリテーション】群馬県安中市鷺宮２０５－１", "url": "https://www.kaigokensaku.mhlw.go.jp/10/index.php?action_kouhyou_detail_004_kani=true&JigyosyoCd=1011410048-00&ServiceCd=140&Type=search", "url2": "http://www.honda-hospital.jp/" }, "geometry": { "type": "Point", "coordinates": [ 138.89696570000001, 36.3051779 ] } },
{ "type": "Feature", "properties": { "内容": "松井田病院【訪問リハビリテーション】群馬県安中市松井田町新堀1300-1", "url": "https://www.kaigokensaku.mhlw.go.jp/10/index.php?action_kouhyou_detail_004_kani=true&JigyosyoCd=1012010052-00&ServiceCd=140&Type=search", "url2": "https://www.matsuida-hp.com/index.php" }, "geometry": { "type": "Point", "coordinates": [ 138.792669, 36.3183193 ] } },
{ "type": "Feature", "properties": { "内容": "井野整形外科リハビリ内科【訪問リハビリテーション】群馬県北群馬郡吉岡町南下917-2", "url": "https://www.kaigokensaku.mhlw.go.jp/10/index.php?action_kouhyou_detail_004_kani=true&JigyosyoCd=1011610100-00&ServiceCd=140&Type=search", "url2": "http://inoseikei.webmedipr.jp/" }, "geometry": { "type": "Point", "coordinates": [ 139.004372600000011, 36.4377349 ] } },
{ "type": "Feature", "properties": { "内容": "下仁田南牧医療事務組合　下仁田厚生病院【訪問リハビリテーション】群馬県甘楽郡下仁田町大字下仁田409", "url": "https://www.kaigokensaku.mhlw.go.jp/10/index.php?action_kouhyou_detail_004_kani=true&JigyosyoCd=1011810072-00&ServiceCd=140&Type=search", "url2": "http://www.shimonitakosei-hosp.jp/" }, "geometry": { "type": "Point", "coordinates": [ 138.786011699999989, 36.2134215 ] } },
{ "type": "Feature", "properties": { "内容": "西吾妻福祉病院【訪問リハビリテーション】群馬県吾妻郡長野原町大津７４６－４", "url": "https://www.kaigokensaku.mhlw.go.jp/10/index.php?action_kouhyou_detail_004_kani=true&JigyosyoCd=1012110324-00&ServiceCd=140&Type=search", "url2": "http://www.nawh.jp/" }, "geometry": { "type": "Point", "coordinates": [ 138.605746599999947, 36.5562802 ] } },
{ "type": "Feature", "properties": { "内容": "医療法人パテラ会　訪問リハビリテーションりんどうの里【訪問リハビリテーション】群馬県吾妻郡高山村中山２７１５番地２", "url": "https://www.kaigokensaku.mhlw.go.jp/10/index.php?action_kouhyou_detail_004_kani=true&JigyosyoCd=1072601451-00&ServiceCd=140&Type=search", "url2": "http://moon-hp.or.jp/rindo/" }, "geometry": { "type": "Point", "coordinates": [ 138.9519831, 36.622822 ] } },
{ "type": "Feature", "properties": { "内容": "月夜野病院【訪問リハビリテーション】群馬県利根郡みなかみ町真庭316番地", "url": "https://www.kaigokensaku.mhlw.go.jp/10/index.php?action_kouhyou_detail_004_kani=true&JigyosyoCd=1010510061-00&ServiceCd=140&Type=search", "url2": "http://moon-hp.or.jp/" }, "geometry": { "type": "Point", "coordinates": [ 139.0047232, 36.6750999 ] } },
{ "type": "Feature", "properties": { "内容": "角田病院【訪問リハビリテーション】群馬県佐波郡玉村町上新田675-4", "url": "https://www.kaigokensaku.mhlw.go.jp/10/index.php?action_kouhyou_detail_004_kani=true&JigyosyoCd=1010610127-00&ServiceCd=140&Type=search", "url2": "http://www.tsunoda.or.jp" }, "geometry": { "type": "Point", "coordinates": [ 139.098073900000031, 36.3110924 ] } }
]
}
