{
"type": "FeatureCollection",
"name": "geo_10_認知症対応型共同生活介護",
"crs": { "type": "name", "properties": { "name": "urn:ogc:def:crs:OGC:1.3:CRS84" } },
"features": [
{ "type": "Feature", "properties": { "内容": "グループホームエフビー前橋下小出【認知症対応型共同生活介護】群馬県前橋市下小出町2丁目30-18グループホームエフビー前橋下小出", "url2": "https://www.kaigokensaku.mhlw.go.jp/10/index.php?action_kouhyou_detail_004_kani=true&JigyosyoCd=1090100635-00&ServiceCd=320&Type=search" }, "geometry": { "type": "Point", "coordinates": [ 139.064796399999977, 36.4123561 ] } },
{ "type": "Feature", "properties": { "内容": "グループホーム　よつば【認知症対応型共同生活介護】群馬県前橋市下新田町315", "url2": "https://www.kaigokensaku.mhlw.go.jp/10/index.php?action_kouhyou_detail_004_kani=true&JigyosyoCd=1090100833-00&ServiceCd=320&Type=search" }, "geometry": { "type": "Point", "coordinates": [ 139.0678215, 36.3552907 ] } },
{ "type": "Feature", "properties": { "内容": "グループホームＮ・Ｓホーム【認知症対応型共同生活介護】群馬県前橋市下大島町５９６－１", "url2": "https://www.kaigokensaku.mhlw.go.jp/10/index.php?action_kouhyou_detail_004_kani=true&JigyosyoCd=1070101181-00&ServiceCd=320&Type=search" }, "geometry": { "type": "Point", "coordinates": [ 139.11534975819697, 36.360681868657352 ] } },
{ "type": "Feature", "properties": { "内容": "グループホームかわらはま【認知症対応型共同生活介護】群馬県前橋市河原浜町２１番４", "url2": "https://www.kaigokensaku.mhlw.go.jp/10/index.php?action_kouhyou_detail_004_kani=true&JigyosyoCd=1090100130-00&ServiceCd=320&Type=search" }, "geometry": { "type": "Point", "coordinates": [ 139.161928735582023, 36.436147936690446 ] } },
{ "type": "Feature", "properties": { "内容": "グループホームなでしこ【認知症対応型共同生活介護】群馬県前橋市関根町2-7-3", "url2": "https://www.kaigokensaku.mhlw.go.jp/10/index.php?action_kouhyou_detail_004_kani=true&JigyosyoCd=1070102007-00&ServiceCd=320&Type=search" }, "geometry": { "type": "Point", "coordinates": [ 139.049321700000064, 36.4316418 ] } },
{ "type": "Feature", "properties": { "内容": "グループホーム　ルルドの家【認知症対応型共同生活介護】群馬県前橋市公田町１１６５番地", "url2": "https://www.kaigokensaku.mhlw.go.jp/10/index.php?action_kouhyou_detail_004_kani=true&JigyosyoCd=1090100106-00&ServiceCd=320&Type=search" }, "geometry": { "type": "Point", "coordinates": [ 139.07250339999996, 36.3516336 ] } },
{ "type": "Feature", "properties": { "内容": "グループホームみどり荘【認知症対応型共同生活介護】群馬県前橋市公田町１１９４", "url2": "https://www.kaigokensaku.mhlw.go.jp/10/index.php?action_kouhyou_detail_004_kani=true&JigyosyoCd=1090100114-00&ServiceCd=320&Type=search" }, "geometry": { "type": "Point", "coordinates": [ 139.072476188954965, 36.350268605494399 ] } },
{ "type": "Feature", "properties": { "内容": "グループホーム　春らんらん【認知症対応型共同生活介護】群馬県前橋市荒牧町2丁目36番地1", "url2": "https://www.kaigokensaku.mhlw.go.jp/10/index.php?action_kouhyou_detail_004_kani=true&JigyosyoCd=1090100221-00&ServiceCd=320&Type=search" }, "geometry": { "type": "Point", "coordinates": [ 139.055062416563374, 36.426329891418959 ] } },
{ "type": "Feature", "properties": { "内容": "グループホームみつまた【認知症対応型共同生活介護】群馬県前橋市三俣町一丁目５番地１７グループホームみつまた", "url2": "https://www.kaigokensaku.mhlw.go.jp/10/index.php?action_kouhyou_detail_004_kani=true&JigyosyoCd=1090100551-00&ServiceCd=320&Type=search" }, "geometry": { "type": "Point", "coordinates": [ 139.084675058335847, 36.395528946444905 ] } },
{ "type": "Feature", "properties": { "内容": "グループホーム山王の家【認知症対応型共同生活介護】群馬県前橋市山王町133番地", "url2": "https://www.kaigokensaku.mhlw.go.jp/10/index.php?action_kouhyou_detail_004_kani=true&JigyosyoCd=1070101199-00&ServiceCd=320&Type=search" }, "geometry": { "type": "Point", "coordinates": [ 139.124543300000028, 36.3500372 ] } },
{ "type": "Feature", "properties": { "内容": "グループホーム若宮こぐま舘【認知症対応型共同生活介護】群馬県前橋市若宮町４丁目１６－１", "url2": "https://www.kaigokensaku.mhlw.go.jp/10/index.php?action_kouhyou_detail_004_kani=true&JigyosyoCd=1090100452-00&ServiceCd=320&Type=search" }, "geometry": { "type": "Point", "coordinates": [ 139.071981657008337, 36.406623565162917 ] } },
{ "type": "Feature", "properties": { "内容": "グループホームしらさぎ【認知症対応型共同生活介護】群馬県前橋市小坂子町129-1", "url2": "https://www.kaigokensaku.mhlw.go.jp/10/index.php?action_kouhyou_detail_004_kani=true&JigyosyoCd=1090100098-00&ServiceCd=320&Type=search" }, "geometry": { "type": "Point", "coordinates": [ 139.110432700000047, 36.431674 ] } },
{ "type": "Feature", "properties": { "内容": "グループホームしょうわ【認知症対応型共同生活介護】群馬県前橋市昭和町二丁目１番２号", "url2": "https://www.kaigokensaku.mhlw.go.jp/10/index.php?action_kouhyou_detail_004_kani=true&JigyosyoCd=1090100353-00&ServiceCd=320&Type=search" }, "geometry": { "type": "Point", "coordinates": [ 139.064237694409115, 36.400368668622114 ] } },
{ "type": "Feature", "properties": { "内容": "グループホームさちね【認知症対応型共同生活介護】群馬県前橋市上細井町２０１５", "url2": "https://www.kaigokensaku.mhlw.go.jp/10/index.php?action_kouhyou_detail_004_kani=true&JigyosyoCd=1090100825-00&ServiceCd=320&Type=search" }, "geometry": { "type": "Point", "coordinates": [ 139.077635, 36.4162717 ] } },
{ "type": "Feature", "properties": { "内容": "グループホームウェルスタイル上小出【認知症対応型共同生活介護】群馬県前橋市上小出町2丁目13-5", "url2": "https://www.kaigokensaku.mhlw.go.jp/10/index.php?action_kouhyou_detail_004_kani=true&JigyosyoCd=1090100940-00&ServiceCd=320&Type=search" }, "geometry": { "type": "Point", "coordinates": [ 139.056765737457738, 36.413750499568522 ] } },
{ "type": "Feature", "properties": { "内容": "グループホームじゃんけんぽん大利根前橋【認知症対応型共同生活介護】群馬県前橋市上新田町881", "url2": "https://www.kaigokensaku.mhlw.go.jp/10/index.php?action_kouhyou_detail_004_kani=true&JigyosyoCd=1090100262-00&ServiceCd=320&Type=search" }, "geometry": { "type": "Point", "coordinates": [ 139.064875900000061, 36.3660737 ] } },
{ "type": "Feature", "properties": { "内容": "グループホーム　ベルジ前橋たやの家【認知症対応型共同生活介護】群馬県前橋市上泉町1870-3", "url2": "https://www.kaigokensaku.mhlw.go.jp/10/index.php?action_kouhyou_detail_004_kani=true&JigyosyoCd=1070101439-00&ServiceCd=320&Type=search" }, "geometry": { "type": "Point", "coordinates": [ 139.120523400000025, 36.4087694 ] } },
{ "type": "Feature", "properties": { "内容": "グループホーム菜の花【認知症対応型共同生活介護】群馬県前橋市上増田町１番地", "url2": "https://www.kaigokensaku.mhlw.go.jp/10/index.php?action_kouhyou_detail_004_kani=true&JigyosyoCd=1070101827-00&ServiceCd=320&Type=search" }, "geometry": { "type": "Point", "coordinates": [ 139.148473800000033, 36.3522902 ] } },
{ "type": "Feature", "properties": { "内容": "グループホーム城東【認知症対応型共同生活介護】群馬県前橋市城東町3丁目10番10", "url2": "https://www.kaigokensaku.mhlw.go.jp/10/index.php?action_kouhyou_detail_004_kani=true&JigyosyoCd=1090100213-00&ServiceCd=320&Type=search" }, "geometry": { "type": "Point", "coordinates": [ 139.077150450926212, 36.39242778240979 ] } },
{ "type": "Feature", "properties": { "内容": "グループホームあおなし【認知症対応型共同生活介護】群馬県前橋市青梨子町１６７０", "url2": "https://www.kaigokensaku.mhlw.go.jp/10/index.php?action_kouhyou_detail_004_kani=true&JigyosyoCd=1070101066-00&ServiceCd=320&Type=search" }, "geometry": { "type": "Point", "coordinates": [ 139.011307200000033, 36.4058111 ] } },
{ "type": "Feature", "properties": { "内容": "グループホームあじさいでんでんタウン【認知症対応型共同生活介護】群馬県前橋市川曲町41番地1", "url2": "https://www.kaigokensaku.mhlw.go.jp/10/index.php?action_kouhyou_detail_004_kani=true&JigyosyoCd=1090100502-00&ServiceCd=320&Type=search" }, "geometry": { "type": "Point", "coordinates": [ 139.048160629499762, 36.35325641498585 ] } },
{ "type": "Feature", "properties": { "内容": "グループホームひまわり【認知症対応型共同生活介護】群馬県前橋市大友町３－２２－９", "url2": "https://www.kaigokensaku.mhlw.go.jp/10/index.php?action_kouhyou_detail_004_kani=true&JigyosyoCd=1070101223-00&ServiceCd=320&Type=search" }, "geometry": { "type": "Point", "coordinates": [ 139.041682700000024, 36.3925306 ] } },
{ "type": "Feature", "properties": { "内容": "グループホームみずきの家【認知症対応型共同生活介護】群馬県前橋市池端町３８４番地", "url2": "https://www.kaigokensaku.mhlw.go.jp/10/index.php?action_kouhyou_detail_004_kani=true&JigyosyoCd=1070101041-00&ServiceCd=320&Type=search" }, "geometry": { "type": "Point", "coordinates": [ 139.0061978, 36.4321689 ] } },
{ "type": "Feature", "properties": { "内容": "ＪＡ前橋市グループホーム上陽【認知症対応型共同生活介護】群馬県前橋市中内町40-4", "url2": "https://www.kaigokensaku.mhlw.go.jp/10/index.php?action_kouhyou_detail_004_kani=true&JigyosyoCd=1090100288-00&ServiceCd=320&Type=search" }, "geometry": { "type": "Point", "coordinates": [ 139.120211883467107, 36.345461706119394 ] } },
{ "type": "Feature", "properties": { "内容": "グループホームウエルスタイル朝倉【認知症対応型共同生活介護】群馬県前橋市朝倉町８９４－２", "url2": "https://www.kaigokensaku.mhlw.go.jp/10/index.php?action_kouhyou_detail_004_kani=true&JigyosyoCd=1090100668-00&ServiceCd=320&Type=search" }, "geometry": { "type": "Point", "coordinates": [ 139.084108127131231, 36.367401136312417 ] } },
{ "type": "Feature", "properties": { "内容": "グループホーム「ここあ」前橋【認知症対応型共同生活介護】群馬県前橋市朝倉町947-1", "url2": "https://www.kaigokensaku.mhlw.go.jp/10/index.php?action_kouhyou_detail_004_kani=true&JigyosyoCd=1090100163-00&ServiceCd=320&Type=search" }, "geometry": { "type": "Point", "coordinates": [ 139.087829300000067, 36.367618 ] } },
{ "type": "Feature", "properties": { "内容": "グループホーム芳賀のうさぎ【認知症対応型共同生活介護】群馬県前橋市鳥取町780-1", "url2": "https://www.kaigokensaku.mhlw.go.jp/10/index.php?action_kouhyou_detail_004_kani=true&JigyosyoCd=1090100809-00&ServiceCd=320&Type=search" }, "geometry": { "type": "Point", "coordinates": [ 139.110801670947296, 36.424019349725874 ] } },
{ "type": "Feature", "properties": { "内容": "グループホーム　すずかけの家【認知症対応型共同生活介護】群馬県前橋市天川大島町１４４１番地", "url2": "https://www.kaigokensaku.mhlw.go.jp/10/index.php?action_kouhyou_detail_004_kani=true&JigyosyoCd=1090100197-00&ServiceCd=320&Type=search" }, "geometry": { "type": "Point", "coordinates": [ 139.108562300000017, 36.3675714 ] } },
{ "type": "Feature", "properties": { "内容": "グループホーム　朱咲の家【認知症対応型共同生活介護】群馬県前橋市南町1-12-7", "url2": "https://www.kaigokensaku.mhlw.go.jp/10/index.php?action_kouhyou_detail_004_kani=true&JigyosyoCd=1090100148-00&ServiceCd=320&Type=search" }, "geometry": { "type": "Point", "coordinates": [ 139.066286399999967, 36.3823327 ] } },
{ "type": "Feature", "properties": { "内容": "グループホーム　ひかり【認知症対応型共同生活介護】群馬県前橋市南町3-7-5KCC2F", "url2": "https://www.kaigokensaku.mhlw.go.jp/10/index.php?action_kouhyou_detail_004_kani=true&JigyosyoCd=1070102262-00&ServiceCd=320&Type=search" }, "geometry": { "type": "Point", "coordinates": [ 139.070688799999971, 36.3825938 ] } },
{ "type": "Feature", "properties": { "内容": "グループホーム　あかしあの里【認知症対応型共同生活介護】群馬県前橋市日輪寺町３５０－2", "url2": "https://www.kaigokensaku.mhlw.go.jp/10/index.php?action_kouhyou_detail_004_kani=true&JigyosyoCd=1070100944-00&ServiceCd=320&Type=search" }, "geometry": { "type": "Point", "coordinates": [ 139.063225154402716, 36.432761027340575 ] } },
{ "type": "Feature", "properties": { "内容": "グループホームかしわぐら【認知症対応型共同生活介護】群馬県前橋市柏倉町８５５番８", "url2": "https://www.kaigokensaku.mhlw.go.jp/10/index.php?action_kouhyou_detail_004_kani=true&JigyosyoCd=1090100049-00&ServiceCd=320&Type=search" }, "geometry": { "type": "Point", "coordinates": [ 139.174249971163931, 36.453610748075043 ] } },
{ "type": "Feature", "properties": { "内容": "グループホーム粕川カトレアホーム【認知症対応型共同生活介護】群馬県前橋市粕川町深津1144－2", "url2": "https://www.kaigokensaku.mhlw.go.jp/10/index.php?action_kouhyou_detail_004_kani=true&JigyosyoCd=1072000381-00&ServiceCd=320&Type=search" }, "geometry": { "type": "Point", "coordinates": [ 139.199567099999967, 36.3990276 ] } },
{ "type": "Feature", "properties": { "内容": "グループホーム　箱田【認知症対応型共同生活介護】群馬県前橋市箱田町206-4", "url2": "https://www.kaigokensaku.mhlw.go.jp/10/index.php?action_kouhyou_detail_004_kani=true&JigyosyoCd=1090100064-00&ServiceCd=320&Type=search" }, "geometry": { "type": "Point", "coordinates": [ 139.046685700000012, 36.3701591 ] } },
{ "type": "Feature", "properties": { "内容": "グループホームゆめさき【認知症対応型共同生活介護】群馬県前橋市富士見町原之郷９７５", "url2": "https://www.kaigokensaku.mhlw.go.jp/10/index.php?action_kouhyou_detail_004_kani=true&JigyosyoCd=1072000456-00&ServiceCd=320&Type=search" }, "geometry": { "type": "Point", "coordinates": [ 139.066539400000011, 36.4345889 ] } },
{ "type": "Feature", "properties": { "内容": "グループホーム星辰の家【認知症対応型共同生活介護】群馬県前橋市富士見町時沢703-1", "url2": "https://www.kaigokensaku.mhlw.go.jp/10/index.php?action_kouhyou_detail_004_kani=true&JigyosyoCd=1092000023-00&ServiceCd=320&Type=search" }, "geometry": { "type": "Point", "coordinates": [ 139.086398799999984, 36.4328398 ] } },
{ "type": "Feature", "properties": { "内容": "グループホーム松風【認知症対応型共同生活介護】群馬県前橋市富田町１８３１番地７", "url2": "https://www.kaigokensaku.mhlw.go.jp/10/index.php?action_kouhyou_detail_004_kani=true&JigyosyoCd=1090100486-00&ServiceCd=320&Type=search" }, "geometry": { "type": "Point", "coordinates": [ 139.1394484, 36.3993935 ] } },
{ "type": "Feature", "properties": { "内容": "グループホーム広瀬のほとり【認知症対応型共同生活介護】群馬県前橋市平和町2丁目11番６号", "url2": "https://www.kaigokensaku.mhlw.go.jp/10/index.php?action_kouhyou_detail_004_kani=true&JigyosyoCd=1090100205-00&ServiceCd=320&Type=search" }, "geometry": { "type": "Point", "coordinates": [ 139.060700200000042, 36.401416 ] } },
{ "type": "Feature", "properties": { "内容": "グループホームふれあいの家六供【認知症対応型共同生活介護】群馬県前橋市六供町５丁目１１－１４", "url2": "https://www.kaigokensaku.mhlw.go.jp/10/index.php?action_kouhyou_detail_004_kani=true&JigyosyoCd=1090100254-00&ServiceCd=320&Type=search" }, "geometry": { "type": "Point", "coordinates": [ 139.080681886295707, 36.36731645682358 ] } },
{ "type": "Feature", "properties": { "内容": "グループホームウェルスタイル笂井【認知症対応型共同生活介護】群馬県前橋市笂井町16-1", "url2": "https://www.kaigokensaku.mhlw.go.jp/10/index.php?action_kouhyou_detail_004_kani=true&JigyosyoCd=1090101005-00&ServiceCd=320&Type=search" }, "geometry": { "type": "Point", "coordinates": [ 139.138770912897485, 36.371647019361689 ] } },
{ "type": "Feature", "properties": { "内容": "グループホーム三山ホーム北原【認知症対応型共同生活介護】群馬県高崎市北原町691-1", "url2": "https://www.kaigokensaku.mhlw.go.jp/10/index.php?action_kouhyou_detail_004_kani=true&JigyosyoCd=1090201508-00&ServiceCd=320&Type=search" }, "geometry": { "type": "Point", "coordinates": [ 139.018000104924226, 36.410188545788301 ] } },
{ "type": "Feature", "properties": { "内容": "グループホーム　りすの国【認知症対応型共同生活介護】群馬県高崎市井出町1280-3", "url2": "https://www.kaigokensaku.mhlw.go.jp/10/index.php?action_kouhyou_detail_004_kani=true&JigyosyoCd=1072100447-00&ServiceCd=320&Type=search" }, "geometry": { "type": "Point", "coordinates": [ 138.983857100000023, 36.3734595 ] } },
{ "type": "Feature", "properties": { "内容": "グループホームみどりの【認知症対応型共同生活介護】群馬県高崎市井野町３７７番地３", "url2": "https://www.kaigokensaku.mhlw.go.jp/10/index.php?action_kouhyou_detail_004_kani=true&JigyosyoCd=1090200120-00&ServiceCd=320&Type=search" }, "geometry": { "type": "Point", "coordinates": [ 139.026821199999972, 36.359915 ] } },
{ "type": "Feature", "properties": { "内容": "グループホーム井野の家【認知症対応型共同生活介護】群馬県高崎市井野町860-16", "url2": "https://www.kaigokensaku.mhlw.go.jp/10/index.php?action_kouhyou_detail_004_kani=true&JigyosyoCd=1070201247-00&ServiceCd=320&Type=search" }, "geometry": { "type": "Point", "coordinates": [ 139.03033210000001, 36.3561877 ] } },
{ "type": "Feature", "properties": { "内容": "グループホームひびき【認知症対応型共同生活介護】群馬県高崎市引間町101番地12", "url2": "https://www.kaigokensaku.mhlw.go.jp/10/index.php?action_kouhyou_detail_004_kani=true&JigyosyoCd=1072100322-00&ServiceCd=320&Type=search" }, "geometry": { "type": "Point", "coordinates": [ 139.014621199999965, 36.3917438 ] } },
{ "type": "Feature", "properties": { "内容": "グループホーム　のぞみ【認知症対応型共同生活介護】群馬県高崎市下佐野町７５２－１", "url2": "https://www.kaigokensaku.mhlw.go.jp/10/index.php?action_kouhyou_detail_004_kani=true&JigyosyoCd=1070201916-00&ServiceCd=320&Type=search" }, "geometry": { "type": "Point", "coordinates": [ 139.028958900000021, 36.2997019 ] } },
{ "type": "Feature", "properties": { "内容": "グループホーム　榛名荘【認知症対応型共同生活介護】群馬県高崎市下室田町９６５ー１", "url2": "https://www.kaigokensaku.mhlw.go.jp/10/index.php?action_kouhyou_detail_004_kani=true&JigyosyoCd=1092100021-00&ServiceCd=320&Type=search" }, "geometry": { "type": "Point", "coordinates": [ 138.8821825, 36.382314 ] } },
{ "type": "Feature", "properties": { "内容": "グループホーム　いこい【認知症対応型共同生活介護】群馬県高崎市下滝町370番地3", "url2": "https://www.kaigokensaku.mhlw.go.jp/10/index.php?action_kouhyou_detail_004_kani=true&JigyosyoCd=1090200187-00&ServiceCd=320&Type=search" }, "geometry": { "type": "Point", "coordinates": [ 139.076304199999981, 36.3140693 ] } },
{ "type": "Feature", "properties": { "内容": "グループホームフローラ【認知症対応型共同生活介護】群馬県高崎市歌川町99-20グループホームフローラ", "url2": "https://www.kaigokensaku.mhlw.go.jp/10/index.php?action_kouhyou_detail_004_kani=true&JigyosyoCd=1090200609-00&ServiceCd=320&Type=search" }, "geometry": { "type": "Point", "coordinates": [ 138.997387900000035, 36.3311277 ] } },
{ "type": "Feature", "properties": { "内容": "グループホームきらめき【認知症対応型共同生活介護】群馬県高崎市吉井町岩崎2217", "url2": "https://www.kaigokensaku.mhlw.go.jp/10/index.php?action_kouhyou_detail_004_kani=true&JigyosyoCd=1090201409-00&ServiceCd=320&Type=search" }, "geometry": { "type": "Point", "coordinates": [ 138.996423804755409, 36.283529071742464 ] } },
{ "type": "Feature", "properties": { "内容": "グループホームかがやき【認知症対応型共同生活介護】群馬県高崎市吉井町岩崎2218-1", "url2": "https://www.kaigokensaku.mhlw.go.jp/10/index.php?action_kouhyou_detail_004_kani=true&JigyosyoCd=1090201102-00&ServiceCd=320&Type=search" }, "geometry": { "type": "Point", "coordinates": [ 138.9798902, 36.26851 ] } },
{ "type": "Feature", "properties": { "内容": "グループホームにこにこ倶楽部【認知症対応型共同生活介護】群馬県高崎市吉井町馬庭50", "url2": "https://www.kaigokensaku.mhlw.go.jp/10/index.php?action_kouhyou_detail_004_kani=true&JigyosyoCd=1072300195-00&ServiceCd=320&Type=search" }, "geometry": { "type": "Point", "coordinates": [ 139.009820399999967, 36.2634717 ] } },
{ "type": "Feature", "properties": { "内容": "グループホーム　さいか【認知症対応型共同生活介護】群馬県高崎市吉井町矢田669", "url2": "https://www.kaigokensaku.mhlw.go.jp/10/index.php?action_kouhyou_detail_004_kani=true&JigyosyoCd=1072300229-00&ServiceCd=320&Type=search" }, "geometry": { "type": "Point", "coordinates": [ 138.993758899999989, 36.247807 ] } },
{ "type": "Feature", "properties": { "内容": "グループホームようざん栗崎第二【認知症対応型共同生活介護】群馬県高崎市栗崎町140-1", "url2": "https://www.kaigokensaku.mhlw.go.jp/10/index.php?action_kouhyou_detail_004_kani=true&JigyosyoCd=1090201334-00&ServiceCd=320&Type=search" }, "geometry": { "type": "Point", "coordinates": [ 139.0652963, 36.3044527 ] } },
{ "type": "Feature", "properties": { "内容": "グループホームようざん栗崎【認知症対応型共同生活介護】群馬県高崎市栗崎町141-1", "url2": "https://www.kaigokensaku.mhlw.go.jp/10/index.php?action_kouhyou_detail_004_kani=true&JigyosyoCd=1090201144-00&ServiceCd=320&Type=search" }, "geometry": { "type": "Point", "coordinates": [ 139.0639304, 36.3094635 ] } },
{ "type": "Feature", "properties": { "内容": "グループホームほのぼの【認知症対応型共同生活介護】群馬県高崎市江木町86-5", "url2": "https://www.kaigokensaku.mhlw.go.jp/10/index.php?action_kouhyou_detail_004_kani=true&JigyosyoCd=1070201817-00&ServiceCd=320&Type=search" }, "geometry": { "type": "Point", "coordinates": [ 139.022339200000033, 36.327234 ] } },
{ "type": "Feature", "properties": { "内容": "グループホームひなげし【認知症対応型共同生活介護】群馬県高崎市高浜町1027-11", "url2": "https://www.kaigokensaku.mhlw.go.jp/10/index.php?action_kouhyou_detail_004_kani=true&JigyosyoCd=1072100694-00&ServiceCd=320&Type=search" }, "geometry": { "type": "Point", "coordinates": [ 138.929100699999907, 36.3767464 ] } },
{ "type": "Feature", "properties": { "内容": "グループホーム根小屋【認知症対応型共同生活介護】群馬県高崎市根小屋町１６３６－７", "url2": "https://www.kaigokensaku.mhlw.go.jp/10/index.php?action_kouhyou_detail_004_kani=true&JigyosyoCd=1070202005-00&ServiceCd=320&Type=search" }, "geometry": { "type": "Point", "coordinates": [ 139.021118200000046, 36.2895831 ] } },
{ "type": "Feature", "properties": { "内容": "グループホームさくら【認知症対応型共同生活介護】群馬県高崎市山名町511-4", "url2": "https://www.kaigokensaku.mhlw.go.jp/10/index.php?action_kouhyou_detail_004_kani=true&JigyosyoCd=1090200708-00&ServiceCd=320&Type=search" }, "geometry": { "type": "Point", "coordinates": [ 139.044261099999972, 36.27351860000001 ] } },
{ "type": "Feature", "properties": { "内容": "グループホームキートス南八幡【認知症対応型共同生活介護】群馬県高崎市山名町802-1", "url2": "https://www.kaigokensaku.mhlw.go.jp/10/index.php?action_kouhyou_detail_004_kani=true&JigyosyoCd=1090201433-00&ServiceCd=320&Type=search" }, "geometry": { "type": "Point", "coordinates": [ 139.0408584, 36.2726687 ] } },
{ "type": "Feature", "properties": { "内容": "グループホーム　マイライフ【認知症対応型共同生活介護】群馬県高崎市寺尾町1453-1グループホームマイライフ", "url2": "https://www.kaigokensaku.mhlw.go.jp/10/index.php?action_kouhyou_detail_004_kani=true&JigyosyoCd=1070201106-00&ServiceCd=320&Type=search" }, "geometry": { "type": "Point", "coordinates": [ 138.996770400000059, 36.2963408 ] } },
{ "type": "Feature", "properties": { "内容": "グループホームみやび【認知症対応型共同生活介護】群馬県高崎市小八木町885-1", "url2": "https://www.kaigokensaku.mhlw.go.jp/10/index.php?action_kouhyou_detail_004_kani=true&JigyosyoCd=1090201458-00&ServiceCd=320&Type=search" }, "geometry": { "type": "Point", "coordinates": [ 139.0145219, 36.3583801 ] } },
{ "type": "Feature", "properties": { "内容": "グループホーム　花水木【認知症対応型共同生活介護】群馬県高崎市上小塙町765番地", "url2": "https://www.kaigokensaku.mhlw.go.jp/10/index.php?action_kouhyou_detail_004_kani=true&JigyosyoCd=1090200294-00&ServiceCd=320&Type=search" }, "geometry": { "type": "Point", "coordinates": [ 138.982268699999963, 36.3577862 ] } },
{ "type": "Feature", "properties": { "内容": "グループホームようざん【認知症対応型共同生活介護】群馬県高崎市上並榎町1180", "url2": "https://www.kaigokensaku.mhlw.go.jp/10/index.php?action_kouhyou_detail_004_kani=true&JigyosyoCd=1090200088-00&ServiceCd=320&Type=search" }, "geometry": { "type": "Point", "coordinates": [ 138.982994100000042, 36.3422904 ] } },
{ "type": "Feature", "properties": { "内容": "グループホームあさま【認知症対応型共同生活介護】群馬県高崎市上並榎町95-1", "url2": "https://www.kaigokensaku.mhlw.go.jp/10/index.php?action_kouhyou_detail_004_kani=true&JigyosyoCd=1090201227-00&ServiceCd=320&Type=search" }, "geometry": { "type": "Point", "coordinates": [ 138.990241, 36.3454835 ] } },
{ "type": "Feature", "properties": { "内容": "グループホームはくば【認知症対応型共同生活介護】群馬県高崎市上並榎町95-6", "url2": "https://www.kaigokensaku.mhlw.go.jp/10/index.php?action_kouhyou_detail_004_kani=true&JigyosyoCd=1090200377-00&ServiceCd=320&Type=search" }, "geometry": { "type": "Point", "coordinates": [ 138.990004499999941, 36.3451986 ] } },
{ "type": "Feature", "properties": { "内容": "グループホーム　りんご【認知症対応型共同生活介護】群馬県高崎市上豊岡町２９６－５", "url2": "https://www.kaigokensaku.mhlw.go.jp/10/index.php?action_kouhyou_detail_004_kani=true&JigyosyoCd=1070201635-00&ServiceCd=320&Type=search" }, "geometry": { "type": "Point", "coordinates": [ 138.964184899999935, 36.3346105 ] } },
{ "type": "Feature", "properties": { "内容": "グループホーム　めだか【認知症対応型共同生活介護】群馬県高崎市上豊岡町896－1なし", "url2": "https://www.kaigokensaku.mhlw.go.jp/10/index.php?action_kouhyou_detail_004_kani=true&JigyosyoCd=1070200876-00&ServiceCd=320&Type=search" }, "geometry": { "type": "Point", "coordinates": [ 138.968525900000031, 36.3428264 ] } },
{ "type": "Feature", "properties": { "内容": "グループホーム　うさぎ【認知症対応型共同生活介護】群馬県高崎市上豊岡町８９６－２", "url2": "https://www.kaigokensaku.mhlw.go.jp/10/index.php?action_kouhyou_detail_004_kani=true&JigyosyoCd=1070201015-00&ServiceCd=320&Type=search" }, "geometry": { "type": "Point", "coordinates": [ 138.9686203, 36.3430653 ] } },
{ "type": "Feature", "properties": { "内容": "有限会社グループホームなごみ【認知症対応型共同生活介護】群馬県高崎市上豊岡町902-3", "url2": "https://www.kaigokensaku.mhlw.go.jp/10/index.php?action_kouhyou_detail_004_kani=true&JigyosyoCd=1070200645-00&ServiceCd=320&Type=search" }, "geometry": { "type": "Point", "coordinates": [ 138.967598702377359, 36.343367121100883 ] } },
{ "type": "Feature", "properties": { "内容": "グループホームとんぼ【認知症対応型共同生活介護】群馬県高崎市上豊岡町913-3https://carepeace.net/", "url2": "https://www.kaigokensaku.mhlw.go.jp/10/index.php?action_kouhyou_detail_004_kani=true&JigyosyoCd=1070200686-00&ServiceCd=320&Type=search" }, "geometry": { "type": "Point", "coordinates": [ 138.968912, 36.3424598 ] } },
{ "type": "Feature", "properties": { "内容": "グループホーム乗附【認知症対応型共同生活介護】群馬県高崎市乗附町１２００番地１", "url2": "https://www.kaigokensaku.mhlw.go.jp/10/index.php?action_kouhyou_detail_004_kani=true&JigyosyoCd=1090200013-00&ServiceCd=320&Type=search" }, "geometry": { "type": "Point", "coordinates": [ 138.9783314, 36.3253472 ] } },
{ "type": "Feature", "properties": { "内容": "グループホームさとの花【認知症対応型共同生活介護】群馬県高崎市乗附町209番地1", "url2": "https://www.kaigokensaku.mhlw.go.jp/10/index.php?action_kouhyou_detail_004_kani=true&JigyosyoCd=1090201128-00&ServiceCd=320&Type=search" }, "geometry": { "type": "Point", "coordinates": [ 138.981494123942525, 36.32637795965401 ] } },
{ "type": "Feature", "properties": { "内容": "グループホームひいらぎ【認知症対応型共同生活介護】群馬県高崎市我峰町889番地", "url2": "https://www.kaigokensaku.mhlw.go.jp/10/index.php?action_kouhyou_detail_004_kani=true&JigyosyoCd=1070201296-00&ServiceCd=320&Type=search" }, "geometry": { "type": "Point", "coordinates": [ 138.961892900000066, 36.3520975 ] } },
{ "type": "Feature", "properties": { "内容": "グループホーム　あかつき【認知症対応型共同生活介護】群馬県高崎市吉井町岩崎2213-1", "url2": "https://www.kaigokensaku.mhlw.go.jp/10/index.php?action_kouhyou_detail_004_kani=true&JigyosyoCd=1090201532-00&ServiceCd=320&Type=search" }, "geometry": { "type": "Point", "coordinates": [ 138.9858082, 36.2749134 ] } },
{ "type": "Feature", "properties": { "内容": "けあビジョンホーム高崎吉井【認知症対応型共同生活介護】群馬県高崎市吉井町矢田1011-1", "url2": "https://www.kaigokensaku.mhlw.go.jp/10/index.php?action_kouhyou_detail_004_kani=true&JigyosyoCd=1090201540-00&ServiceCd=320&Type=search" }, "geometry": { "type": "Point", "coordinates": [ 138.994420033191773, 36.252367826458894 ] } },
{ "type": "Feature", "properties": { "内容": "グループホームしゃくやく【認知症対応型共同生活介護】群馬県高崎市京目町405-1", "url2": "https://www.kaigokensaku.mhlw.go.jp/10/index.php?action_kouhyou_detail_004_kani=true&JigyosyoCd=1090201557-00&ServiceCd=320&Type=search" }, "geometry": { "type": "Point", "coordinates": [ 139.0577212, 36.3465832 ] } },
{ "type": "Feature", "properties": { "内容": "グループホーム　なずな【認知症対応型共同生活介護】群馬県高崎市新町１２８－１", "url2": "https://www.kaigokensaku.mhlw.go.jp/10/index.php?action_kouhyou_detail_004_kani=true&JigyosyoCd=1090200351-00&ServiceCd=320&Type=search" }, "geometry": { "type": "Point", "coordinates": [ 139.109736494442814, 36.277064080127246 ] } },
{ "type": "Feature", "properties": { "内容": "グループホーム　あんず【認知症対応型共同生活介護】群馬県　高崎市　新町　3148番地", "url2": "https://www.kaigokensaku.mhlw.go.jp/10/index.php?action_kouhyou_detail_004_kani=true&JigyosyoCd=1090200096-00&ServiceCd=320&Type=search" }, "geometry": { "type": "Point", "coordinates": [ 139.114725099999987, 36.2772066 ] } },
{ "type": "Feature", "properties": { "内容": "グループホームすみれ【認知症対応型共同生活介護】群馬県高崎市新保町377", "url2": "https://www.kaigokensaku.mhlw.go.jp/10/index.php?action_kouhyou_detail_004_kani=true&JigyosyoCd=1090200237-00&ServiceCd=320&Type=search" }, "geometry": { "type": "Point", "coordinates": [ 139.038601, 36.349108 ] } },
{ "type": "Feature", "properties": { "内容": "グループホームあじさい【認知症対応型共同生活介護】群馬県高崎市石原町２３４８－１", "url2": "https://www.kaigokensaku.mhlw.go.jp/10/index.php?action_kouhyou_detail_004_kani=true&JigyosyoCd=1070201155-00&ServiceCd=320&Type=search" }, "geometry": { "type": "Point", "coordinates": [ 138.986609199999947, 36.3131035 ] } },
{ "type": "Feature", "properties": { "内容": "グループホームさんご【認知症対応型共同生活介護】群馬県高崎市石原町4273-1", "url2": "https://www.kaigokensaku.mhlw.go.jp/10/index.php?action_kouhyou_detail_004_kani=true&JigyosyoCd=1070201825-00&ServiceCd=320&Type=search" }, "geometry": { "type": "Point", "coordinates": [ 139.006393900000035, 36.3090844 ] } },
{ "type": "Feature", "properties": { "内容": "グループホームようざん倉賀野【認知症対応型共同生活介護】群馬県高崎市倉賀野町2191-1", "url2": "https://www.kaigokensaku.mhlw.go.jp/10/index.php?action_kouhyou_detail_004_kani=true&JigyosyoCd=1090200435-00&ServiceCd=320&Type=search" }, "geometry": { "type": "Point", "coordinates": [ 139.058166655819747, 36.295165500178726 ] } },
{ "type": "Feature", "properties": { "内容": "グループホームじゃんけんぽん群馬町【認知症対応型共同生活介護】群馬県高崎市足門町1525", "url2": "https://www.kaigokensaku.mhlw.go.jp/10/index.php?action_kouhyou_detail_004_kani=true&JigyosyoCd=1072100439-00&ServiceCd=320&Type=search" }, "geometry": { "type": "Point", "coordinates": [ 138.990374927834381, 36.400406236386971 ] } },
{ "type": "Feature", "properties": { "内容": "グループホームあいあいえす【認知症対応型共同生活介護】群馬県高崎市足門町1525", "url2": "https://www.kaigokensaku.mhlw.go.jp/10/index.php?action_kouhyou_detail_004_kani=true&JigyosyoCd=1090200880-00&ServiceCd=320&Type=search" }, "geometry": { "type": "Point", "coordinates": [ 138.990374171404142, 36.400411703228322 ] } },
{ "type": "Feature", "properties": { "内容": "グループホーム　ルネスふれ愛の家【認知症対応型共同生活介護】群馬県高崎市大八木町　512番地", "url2": "https://www.kaigokensaku.mhlw.go.jp/10/index.php?action_kouhyou_detail_004_kani=true&JigyosyoCd=1090200179-00&ServiceCd=320&Type=search" }, "geometry": { "type": "Point", "coordinates": [ 138.998275700000022, 36.3636361 ] } },
{ "type": "Feature", "properties": { "内容": "グループホームもくれん【認知症対応型共同生活介護】群馬県高崎市中居町1-8-1", "url2": "https://www.kaigokensaku.mhlw.go.jp/10/index.php?action_kouhyou_detail_004_kani=true&JigyosyoCd=1090200211-00&ServiceCd=320&Type=search" }, "geometry": { "type": "Point", "coordinates": [ 139.035999299999958, 36.3209818 ] } },
{ "type": "Feature", "properties": { "内容": "グループホーム花丘【認知症対応型共同生活介護】群馬県高崎市南大類町1307-6", "url2": "https://www.kaigokensaku.mhlw.go.jp/10/index.php?action_kouhyou_detail_004_kani=true&JigyosyoCd=1070201627-00&ServiceCd=320&Type=search" }, "geometry": { "type": "Point", "coordinates": [ 139.032793800000036, 36.328137 ] } },
{ "type": "Feature", "properties": { "内容": "グループホームようざん八幡原【認知症対応型共同生活介護】群馬県高崎市八幡原町1009-39グループホームようざん八幡原", "url2": "https://www.kaigokensaku.mhlw.go.jp/10/index.php?action_kouhyou_detail_004_kani=true&JigyosyoCd=1090201193-00&ServiceCd=320&Type=search" }, "geometry": { "type": "Point", "coordinates": [ 139.090629688029281, 36.297482441842945 ] } },
{ "type": "Feature", "properties": { "内容": "グループホームようざん飯塚【認知症対応型共同生活介護】群馬県高崎市飯塚町1030-1", "url2": "https://www.kaigokensaku.mhlw.go.jp/10/index.php?action_kouhyou_detail_004_kani=true&JigyosyoCd=1090200344-00&ServiceCd=320&Type=search" }, "geometry": { "type": "Point", "coordinates": [ 139.003237200000058, 36.3400161 ] } },
{ "type": "Feature", "properties": { "内容": "グループホーム平和【認知症対応型共同生活介護】群馬県高崎市飯塚町1301-1", "url2": "https://www.kaigokensaku.mhlw.go.jp/10/index.php?action_kouhyou_detail_004_kani=true&JigyosyoCd=1090200286-00&ServiceCd=320&Type=search" }, "geometry": { "type": "Point", "coordinates": [ 139.013369799999964, 36.3443855 ] } },
{ "type": "Feature", "properties": { "内容": "ケアホーム「家族の家」浜川【認知症対応型共同生活介護】群馬県高崎市浜川町１３１４", "url2": "https://www.kaigokensaku.mhlw.go.jp/10/index.php?action_kouhyou_detail_004_kani=true&JigyosyoCd=1070200934-00&ServiceCd=320&Type=search" }, "geometry": { "type": "Point", "coordinates": [ 138.9845848, 36.3707572 ] } },
{ "type": "Feature", "properties": { "内容": "みさと芝ホーム【認知症対応型共同生活介護】群馬県高崎市箕郷町下芝71－1みさと芝ホーム", "url2": "https://www.kaigokensaku.mhlw.go.jp/10/index.php?action_kouhyou_detail_004_kani=true&JigyosyoCd=1090201250-00&ServiceCd=320&Type=search" }, "geometry": { "type": "Point", "coordinates": [ 138.958764558895496, 36.376700282521398 ] } },
{ "type": "Feature", "properties": { "内容": "けあビジョンホーム高崎【認知症対応型共同生活介護】群馬県高崎市箕郷町西明屋421番5けあビジョンホーム高崎", "url2": "https://www.kaigokensaku.mhlw.go.jp/10/index.php?action_kouhyou_detail_004_kani=true&JigyosyoCd=1090201474-00&ServiceCd=320&Type=search" }, "geometry": { "type": "Point", "coordinates": [ 138.956075328207049, 36.392562598080843 ] } },
{ "type": "Feature", "properties": { "内容": "グループホーム三山ホーム箕郷【認知症対応型共同生活介護】群馬県高崎市箕郷町東明屋４００番地１", "url2": "https://www.kaigokensaku.mhlw.go.jp/10/index.php?action_kouhyou_detail_004_kani=true&JigyosyoCd=1072100488-00&ServiceCd=320&Type=search" }, "geometry": { "type": "Point", "coordinates": [ 138.957308600000033, 36.4014212 ] } },
{ "type": "Feature", "properties": { "内容": "グループホーム大清水【認知症対応型共同生活介護】群馬県高崎市箕郷町柏木沢１５８－２", "url2": "https://www.kaigokensaku.mhlw.go.jp/10/index.php?action_kouhyou_detail_004_kani=true&JigyosyoCd=1072100470-00&ServiceCd=320&Type=search" }, "geometry": { "type": "Point", "coordinates": [ 138.967049399999951, 36.4075318 ] } },
{ "type": "Feature", "properties": { "内容": "グループホーム　ラビットホーム【認知症対応型共同生活介護】群馬県高崎市箕郷町富岡1427", "url2": "https://www.kaigokensaku.mhlw.go.jp/10/index.php?action_kouhyou_detail_004_kani=true&JigyosyoCd=1072100306-00&ServiceCd=320&Type=search" }, "geometry": { "type": "Point", "coordinates": [ 138.939479900000038, 36.3888534 ] } },
{ "type": "Feature", "properties": { "内容": "グループホームいずみ【認知症対応型共同生活介護】群馬県高崎市箕郷町矢原52番地3", "url2": "https://www.kaigokensaku.mhlw.go.jp/10/index.php?action_kouhyou_detail_004_kani=true&JigyosyoCd=1090200229-00&ServiceCd=320&Type=search" }, "geometry": { "type": "Point", "coordinates": [ 138.962141699999961, 36.3970553 ] } },
{ "type": "Feature", "properties": { "内容": "グループホームどんぐりころころ【認知症対応型共同生活介護】群馬県高崎市綿貫町1343", "url2": "https://www.kaigokensaku.mhlw.go.jp/10/index.php?action_kouhyou_detail_004_kani=true&JigyosyoCd=1070201221-00&ServiceCd=320&Type=search" }, "geometry": { "type": "Point", "coordinates": [ 139.081248499999987, 36.3048392 ] } },
{ "type": "Feature", "properties": { "内容": "グループホームかぐら【認知症対応型共同生活介護】群馬県高崎市綿貫町664-1", "url2": "https://www.kaigokensaku.mhlw.go.jp/10/index.php?action_kouhyou_detail_004_kani=true&JigyosyoCd=1090201490-00&ServiceCd=320&Type=search" }, "geometry": { "type": "Point", "coordinates": [ 139.0728723, 36.3053234 ] } },
{ "type": "Feature", "properties": { "内容": "グループホーム野ばら【認知症対応型共同生活介護】群馬県高崎市矢島町21", "url2": "https://www.kaigokensaku.mhlw.go.jp/10/index.php?action_kouhyou_detail_004_kani=true&JigyosyoCd=1090200245-00&ServiceCd=320&Type=search" }, "geometry": { "type": "Point", "coordinates": [ 139.048894799999971, 36.337651 ] } },
{ "type": "Feature", "properties": { "内容": "グループホーム　ビオラ【認知症対応型共同生活介護】群馬県高崎市矢島町449-2", "url2": "https://www.kaigokensaku.mhlw.go.jp/10/index.php?action_kouhyou_detail_004_kani=true&JigyosyoCd=1070201064-00&ServiceCd=320&Type=search" }, "geometry": { "type": "Point", "coordinates": [ 139.049367, 36.3391454 ] } },
{ "type": "Feature", "properties": { "内容": "グループホーム　ほっとぱーく【認知症対応型共同生活介護】群馬県高崎市竜見町４-17", "url2": "https://www.kaigokensaku.mhlw.go.jp/10/index.php?action_kouhyou_detail_004_kani=true&JigyosyoCd=1070200868-00&ServiceCd=320&Type=search" }, "geometry": { "type": "Point", "coordinates": [ 139.008282300000019, 36.3174035 ] } },
{ "type": "Feature", "properties": { "内容": "グループホームようざん綿貫【認知症対応型共同生活介護】群馬県高崎市綿貫町750-1", "url2": "https://www.kaigokensaku.mhlw.go.jp/10/index.php?action_kouhyou_detail_004_kani=true&JigyosyoCd=1090201482-00&ServiceCd=320&Type=search" }, "geometry": { "type": "Point", "coordinates": [ 139.074688, 36.3044473 ] } },
{ "type": "Feature", "properties": { "内容": "グループホーム吉井マリル【認知症対応型共同生活介護】群馬県高崎市吉井町吉井川768-1", "url2": "https://www.kaigokensaku.mhlw.go.jp/10/index.php?action_kouhyou_detail_004_kani=true&JigyosyoCd=1072300203-00&ServiceCd=320&Type=search" }, "geometry": { "type": "Point", "coordinates": [ 138.985756900000069, 36.2494817 ] } },
{ "type": "Feature", "properties": { "内容": "岩下病院グループホームあさがお【認知症対応型共同生活介護】群馬県桐生市宮本町１丁目８－３３", "url2": "https://www.kaigokensaku.mhlw.go.jp/10/index.php?action_kouhyou_detail_004_kani=true&JigyosyoCd=1070301195-00&ServiceCd=320&Type=search" }, "geometry": { "type": "Point", "coordinates": [ 139.340305899999947, 36.4150979 ] } },
{ "type": "Feature", "properties": { "内容": "ケアホームいまじん【認知症対応型共同生活介護】群馬県桐生市境野町２丁目１４５９番地", "url2": "https://www.kaigokensaku.mhlw.go.jp/10/index.php?action_kouhyou_detail_004_kani=true&JigyosyoCd=1090300268-00&ServiceCd=320&Type=search" }, "geometry": { "type": "Point", "coordinates": [ 139.350456, 36.3878618 ] } },
{ "type": "Feature", "properties": { "内容": "グループホームあおぞら【認知症対応型共同生活介護】群馬県桐生市境野町３丁目２１１３番地", "url2": "https://www.kaigokensaku.mhlw.go.jp/10/index.php?action_kouhyou_detail_004_kani=true&JigyosyoCd=1090300243-00&ServiceCd=320&Type=search" }, "geometry": { "type": "Point", "coordinates": [ 139.344714599999946, 36.3912504 ] } },
{ "type": "Feature", "properties": { "内容": "グループホーム　サンシャインことひら【認知症対応型共同生活介護】群馬県桐生市琴平町4-6", "url2": "https://www.kaigokensaku.mhlw.go.jp/10/index.php?action_kouhyou_detail_004_kani=true&JigyosyoCd=1090300409-00&ServiceCd=320&Type=search" }, "geometry": { "type": "Point", "coordinates": [ 139.341917500000022, 36.3938835 ] } },
{ "type": "Feature", "properties": { "内容": "医療法人山育会グループホーム　サンシャインわたらせ【認知症対応型共同生活介護】群馬県桐生市元宿町２１１５－１", "url2": "https://www.kaigokensaku.mhlw.go.jp/10/index.php?action_kouhyou_detail_004_kani=true&JigyosyoCd=1090300276-00&ServiceCd=320&Type=search" }, "geometry": { "type": "Point", "coordinates": [ 139.326710100000014, 36.4120566 ] } },
{ "type": "Feature", "properties": { "内容": "グループホームクララトーホー【認知症対応型共同生活介護】群馬県桐生市広沢町２－３２５４－８", "url2": "https://www.kaigokensaku.mhlw.go.jp/10/index.php?action_kouhyou_detail_004_kani=true&JigyosyoCd=1070301138-00&ServiceCd=320&Type=search" }, "geometry": { "type": "Point", "coordinates": [ 139.320836, 36.3900144 ] } },
{ "type": "Feature", "properties": { "内容": "グループホーム花時計【認知症対応型共同生活介護】群馬県桐生市広沢町3-3764", "url2": "https://www.kaigokensaku.mhlw.go.jp/10/index.php?action_kouhyou_detail_004_kani=true&JigyosyoCd=1090300300-00&ServiceCd=320&Type=search" }, "geometry": { "type": "Point", "coordinates": [ 139.318736400000034, 36.38304 ] } },
{ "type": "Feature", "properties": { "内容": "グループホーム　パライソ【認知症対応型共同生活介護】群馬県桐生市新里町鶴ヶ谷257-8", "url2": "https://www.kaigokensaku.mhlw.go.jp/10/index.php?action_kouhyou_detail_004_kani=true&JigyosyoCd=1090300383-00&ServiceCd=320&Type=search" }, "geometry": { "type": "Point", "coordinates": [ 139.240834599999971, 36.4316111 ] } },
{ "type": "Feature", "properties": { "内容": "グループホーム　サンシャイン【認知症対応型共同生活介護】群馬県桐生市川内町１－３２２－１", "url2": "https://www.kaigokensaku.mhlw.go.jp/10/index.php?action_kouhyou_detail_004_kani=true&JigyosyoCd=1070300601-00&ServiceCd=320&Type=search" }, "geometry": { "type": "Point", "coordinates": [ 139.320057899999938, 36.4335678 ] } },
{ "type": "Feature", "properties": { "内容": "桐生ケアセンターグループホームそよ風【認知症対応型共同生活介護】群馬県桐生市相生町一丁目160-1", "url2": "https://www.kaigokensaku.mhlw.go.jp/10/index.php?action_kouhyou_detail_004_kani=true&JigyosyoCd=1070300569-00&ServiceCd=320&Type=search" }, "geometry": { "type": "Point", "coordinates": [ 139.311842299999967, 36.4029657 ] } },
{ "type": "Feature", "properties": { "内容": "グループホームクララ相生【認知症対応型共同生活介護】群馬県桐生市相生町2丁目368-6", "url2": "https://www.kaigokensaku.mhlw.go.jp/10/index.php?action_kouhyou_detail_004_kani=true&JigyosyoCd=1090300144-00&ServiceCd=320&Type=search" }, "geometry": { "type": "Point", "coordinates": [ 139.310306200000014, 36.4158641 ] } },
{ "type": "Feature", "properties": { "内容": "医療法人山育会グループホーム　サンシャインあいおい【認知症対応型共同生活介護】群馬県桐生市相生町4丁目33-4", "url2": "https://www.kaigokensaku.mhlw.go.jp/10/index.php?action_kouhyou_detail_004_kani=true&JigyosyoCd=1090300375-00&ServiceCd=320&Type=search" }, "geometry": { "type": "Point", "coordinates": [ 139.290369755812094, 36.42505118422968 ] } },
{ "type": "Feature", "properties": { "内容": "グループホームコスモス相老Ⅱ【認知症対応型共同生活介護】群馬県桐生市相生町5丁目569-14", "url2": "https://www.kaigokensaku.mhlw.go.jp/10/index.php?action_kouhyou_detail_004_kani=true&JigyosyoCd=1090300466-00&ServiceCd=320&Type=search" }, "geometry": { "type": "Point", "coordinates": [ 139.291145390074149, 36.41039547717736 ] } },
{ "type": "Feature", "properties": { "内容": "グループホーム　コスモス相老【認知症対応型共同生活介護】群馬県桐生市相生町５丁目５７２－１", "url2": "https://www.kaigokensaku.mhlw.go.jp/10/index.php?action_kouhyou_detail_004_kani=true&JigyosyoCd=1090300177-00&ServiceCd=320&Type=search" }, "geometry": { "type": "Point", "coordinates": [ 139.290755933065867, 36.410146482100409 ] } },
{ "type": "Feature", "properties": { "内容": "グループホームコスモス仲町の家【認知症対応型共同生活介護】群馬県桐生市仲町１丁目１３－３３", "url2": "https://www.kaigokensaku.mhlw.go.jp/10/index.php?action_kouhyou_detail_004_kani=true&JigyosyoCd=1090300490-00&ServiceCd=320&Type=search" }, "geometry": { "type": "Point", "coordinates": [ 139.342454, 36.4117692 ] } },
{ "type": "Feature", "properties": { "内容": "グループホーム　ポピーの家【認知症対応型共同生活介護】群馬県桐生市仲町１丁目６番１５号", "url2": "https://www.kaigokensaku.mhlw.go.jp/10/index.php?action_kouhyou_detail_004_kani=true&JigyosyoCd=1070301203-00&ServiceCd=320&Type=search" }, "geometry": { "type": "Point", "coordinates": [ 139.34496379999996, 36.4136064 ] } },
{ "type": "Feature", "properties": { "内容": "グループホームクララ梅田【認知症対応型共同生活介護】群馬県桐生市梅田1-385-4", "url2": "https://www.kaigokensaku.mhlw.go.jp/10/index.php?action_kouhyou_detail_004_kani=true&JigyosyoCd=1090300185-00&ServiceCd=320&Type=search" }, "geometry": { "type": "Point", "coordinates": [ 139.3596923, 36.4383729 ] } },
{ "type": "Feature", "properties": { "内容": "グループホームいずみ【認知症対応型共同生活介護】群馬県桐生市菱町3－1996－1", "url2": "https://www.kaigokensaku.mhlw.go.jp/10/index.php?action_kouhyou_detail_004_kani=true&JigyosyoCd=1090300052-00&ServiceCd=320&Type=search" }, "geometry": { "type": "Point", "coordinates": [ 139.354432299999985, 36.4128148 ] } },
{ "type": "Feature", "properties": { "内容": "岩下病院グループホームあじさい【認知症対応型共同生活介護】群馬県桐生市本町４丁目３２０番地", "url2": "https://www.kaigokensaku.mhlw.go.jp/10/index.php?action_kouhyou_detail_004_kani=true&JigyosyoCd=1090300151-00&ServiceCd=320&Type=search" }, "geometry": { "type": "Point", "coordinates": [ 139.340055900000038, 36.4138119 ] } },
{ "type": "Feature", "properties": { "内容": "グループホーム　旭ヶ丘【認知症対応型共同生活介護】群馬県伊勢崎市間野谷町１３５－１", "url2": "https://www.kaigokensaku.mhlw.go.jp/10/index.php?action_kouhyou_detail_004_kani=true&JigyosyoCd=1072800293-00&ServiceCd=320&Type=search" }, "geometry": { "type": "Point", "coordinates": [ 139.26671650000003, 36.3740785 ] } },
{ "type": "Feature", "properties": { "内容": "グループホーム　ぶどうの郷【認知症対応型共同生活介護】群馬県伊勢崎市宮古町128-1", "url2": "https://www.kaigokensaku.mhlw.go.jp/10/index.php?action_kouhyou_detail_004_kani=true&JigyosyoCd=1070401292-00&ServiceCd=320&Type=search" }, "geometry": { "type": "Point", "coordinates": [ 139.15248889999998, 36.3238729 ] } },
{ "type": "Feature", "properties": { "内容": "グループホームひのき【認知症対応型共同生活介護】群馬県伊勢崎市境下淵名1473-1", "url2": "https://www.kaigokensaku.mhlw.go.jp/10/index.php?action_kouhyou_detail_004_kani=true&JigyosyoCd=1090400092-00&ServiceCd=320&Type=search" }, "geometry": { "type": "Point", "coordinates": [ 139.243575394477489, 36.295740963034483 ] } },
{ "type": "Feature", "properties": { "内容": "グループホームいぶき【認知症対応型共同生活介護】群馬県伊勢崎市境下淵名1473-3", "url2": "https://www.kaigokensaku.mhlw.go.jp/10/index.php?action_kouhyou_detail_004_kani=true&JigyosyoCd=1090400456-00&ServiceCd=320&Type=search" }, "geometry": { "type": "Point", "coordinates": [ 139.24360847976223, 36.295595621979835 ] } },
{ "type": "Feature", "properties": { "内容": "グループホーム銀杏の丘【認知症対応型共同生活介護】群馬県伊勢崎市境上渕名1010-1", "url2": "https://www.kaigokensaku.mhlw.go.jp/10/index.php?action_kouhyou_detail_004_kani=true&JigyosyoCd=1090400068-00&ServiceCd=320&Type=search" }, "geometry": { "type": "Point", "coordinates": [ 139.254455499999949, 36.3102908 ] } },
{ "type": "Feature", "properties": { "内容": "グループホーム「花風」【認知症対応型共同生活介護】群馬県伊勢崎市境上渕名968-1", "url2": "https://www.kaigokensaku.mhlw.go.jp/10/index.php?action_kouhyou_detail_004_kani=true&JigyosyoCd=1070401219-00&ServiceCd=320&Type=search" }, "geometry": { "type": "Point", "coordinates": [ 139.251958400000035, 36.3144624 ] } },
{ "type": "Feature", "properties": { "内容": "グループホーム音羽の森【認知症対応型共同生活介護】群馬県伊勢崎市境百々東19番地16", "url2": "https://www.kaigokensaku.mhlw.go.jp/10/index.php?action_kouhyou_detail_004_kani=true&JigyosyoCd=1090400167-00&ServiceCd=320&Type=search" }, "geometry": { "type": "Point", "coordinates": [ 139.257732744180316, 36.280376981465331 ] } },
{ "type": "Feature", "properties": { "内容": "グループホーム樂山【認知症対応型共同生活介護】群馬県伊勢崎市国定町2-1904-1", "url2": "https://www.kaigokensaku.mhlw.go.jp/10/index.php?action_kouhyou_detail_004_kani=true&JigyosyoCd=1090400357-00&ServiceCd=320&Type=search" }, "geometry": { "type": "Point", "coordinates": [ 139.238594400000011, 36.3582488 ] } },
{ "type": "Feature", "properties": { "内容": "グループホームまんさく【認知症対応型共同生活介護】群馬県伊勢崎市今泉町２丁目８３１－１番地", "url2": "https://www.kaigokensaku.mhlw.go.jp/10/index.php?action_kouhyou_detail_004_kani=true&JigyosyoCd=1070400641-00&ServiceCd=320&Type=search" }, "geometry": { "type": "Point", "coordinates": [ 139.201542600000039, 36.3108988 ] } },
{ "type": "Feature", "properties": { "内容": "グループホームフレンド【認知症対応型共同生活介護】群馬県伊勢崎市三光町４－１１", "url2": "https://www.kaigokensaku.mhlw.go.jp/10/index.php?action_kouhyou_detail_004_kani=true&JigyosyoCd=1090400258-00&ServiceCd=320&Type=search" }, "geometry": { "type": "Point", "coordinates": [ 139.190507289672922, 36.319287056278085 ] } },
{ "type": "Feature", "properties": { "内容": "グループホームかりん【認知症対応型共同生活介護】群馬県伊勢崎市寿町70-1", "url2": "https://www.kaigokensaku.mhlw.go.jp/10/index.php?action_kouhyou_detail_004_kani=true&JigyosyoCd=1090400183-00&ServiceCd=320&Type=search" }, "geometry": { "type": "Point", "coordinates": [ 139.198357900000019, 36.3321615 ] } },
{ "type": "Feature", "properties": { "内容": "グループホームすもも【認知症対応型共同生活介護】群馬県伊勢崎市太田町856-1", "url2": "https://www.kaigokensaku.mhlw.go.jp/10/index.php?action_kouhyou_detail_004_kani=true&JigyosyoCd=1090400118-00&ServiceCd=320&Type=search" }, "geometry": { "type": "Point", "coordinates": [ 139.18853409999997, 36.3326972 ] } },
{ "type": "Feature", "properties": { "内容": "グループホーム「はるかぜ」【認知症対応型共同生活介護】群馬県伊勢崎市田部井町３－２７３４－４", "url2": "https://www.kaigokensaku.mhlw.go.jp/10/index.php?action_kouhyou_detail_004_kani=true&JigyosyoCd=1072800442-00&ServiceCd=320&Type=search" }, "geometry": { "type": "Point", "coordinates": [ 139.264964299999974, 36.3556219 ] } },
{ "type": "Feature", "properties": { "内容": "グループホームくるみ【認知症対応型共同生活介護】群馬県伊勢崎市日乃出町14-1", "url2": "https://www.kaigokensaku.mhlw.go.jp/10/index.php?action_kouhyou_detail_004_kani=true&JigyosyoCd=1090400142-00&ServiceCd=320&Type=search" }, "geometry": { "type": "Point", "coordinates": [ 139.2163812, 36.3174749 ] } },
{ "type": "Feature", "properties": { "内容": "グループホームどんぐり【認知症対応型共同生活介護】群馬県伊勢崎市韮塚町1193-9", "url2": "https://www.kaigokensaku.mhlw.go.jp/10/index.php?action_kouhyou_detail_004_kani=true&JigyosyoCd=1070400963-00&ServiceCd=320&Type=search" }, "geometry": { "type": "Point", "coordinates": [ 139.178126, 36.3027005 ] } },
{ "type": "Feature", "properties": { "内容": "グループホーム豊馬の里【認知症対応型共同生活介護】群馬県伊勢崎市馬見塚町130-1", "url2": "https://www.kaigokensaku.mhlw.go.jp/10/index.php?action_kouhyou_detail_004_kani=true&JigyosyoCd=1090400134-00&ServiceCd=320&Type=search" }, "geometry": { "type": "Point", "coordinates": [ 139.2071866, 36.2857534 ] } },
{ "type": "Feature", "properties": { "内容": "グループホーム花水希【認知症対応型共同生活介護】群馬県伊勢崎市八寸町４８３０－５", "url2": "https://www.kaigokensaku.mhlw.go.jp/10/index.php?action_kouhyou_detail_004_kani=true&JigyosyoCd=1072800483-00&ServiceCd=320&Type=search" }, "geometry": { "type": "Point", "coordinates": [ 139.229018099999962, 36.3380728 ] } },
{ "type": "Feature", "properties": { "内容": "グループホームななくさ伊勢崎美茂呂【認知症対応型共同生活介護】群馬県伊勢崎市美茂呂町３９７３番地３", "url2": "https://www.kaigokensaku.mhlw.go.jp/10/index.php?action_kouhyou_detail_004_kani=true&JigyosyoCd=1090400266-00&ServiceCd=320&Type=search" }, "geometry": { "type": "Point", "coordinates": [ 139.196012703704781, 36.303577309974074 ] } },
{ "type": "Feature", "properties": { "内容": "グループホーム　さがん【認知症対応型共同生活介護】群馬県伊勢崎市富塚町1,159-3", "url2": "https://www.kaigokensaku.mhlw.go.jp/10/index.php?action_kouhyou_detail_004_kani=true&JigyosyoCd=1070400674-00&ServiceCd=320&Type=search" }, "geometry": { "type": "Point", "coordinates": [ 139.193786, 36.2775151 ] } },
{ "type": "Feature", "properties": { "内容": "グループホームつつじ【認知症対応型共同生活介護】群馬県伊勢崎市富塚町208-2", "url2": "https://www.kaigokensaku.mhlw.go.jp/10/index.php?action_kouhyou_detail_004_kani=true&JigyosyoCd=1090400332-00&ServiceCd=320&Type=search" }, "geometry": { "type": "Point", "coordinates": [ 139.191190126487754, 36.27974787753341 ] } },
{ "type": "Feature", "properties": { "内容": "グループホーム　銘仙の家【認知症対応型共同生活介護】群馬県伊勢崎市平和町19-10高齢者複合施設銘仙の家", "url2": "https://www.kaigokensaku.mhlw.go.jp/10/index.php?action_kouhyou_detail_004_kani=true&JigyosyoCd=1090400084-00&ServiceCd=320&Type=search" }, "geometry": { "type": "Point", "coordinates": [ 139.202169, 36.3228377 ] } },
{ "type": "Feature", "properties": { "内容": "グループホームのいちご【認知症対応型共同生活介護】群馬県伊勢崎市連取町2344-7", "url2": "https://www.kaigokensaku.mhlw.go.jp/10/index.php?action_kouhyou_detail_004_kani=true&JigyosyoCd=1070400948-00&ServiceCd=320&Type=search" }, "geometry": { "type": "Point", "coordinates": [ 139.185916300000031, 36.3099055 ] } },
{ "type": "Feature", "properties": { "内容": "尾島ケアハートガーデングループホームさるびあ【認知症対応型共同生活介護】群馬県太田市尾島町２７０", "url2": "https://www.kaigokensaku.mhlw.go.jp/10/index.php?action_kouhyou_detail_004_kani=true&JigyosyoCd=1090500743-00&ServiceCd=320&Type=search" }, "geometry": { "type": "Point", "coordinates": [ 139.3223327, 36.260234 ] } },
{ "type": "Feature", "properties": { "内容": "尾島ケアハートガーデングループホームさるびあⅡ【認知症対応型共同生活介護】群馬県太田市尾島町270-1", "url2": "https://www.kaigokensaku.mhlw.go.jp/10/index.php?action_kouhyou_detail_004_kani=true&JigyosyoCd=1090500750-00&ServiceCd=320&Type=search" }, "geometry": { "type": "Point", "coordinates": [ 139.3223327, 36.260234 ] } },
{ "type": "Feature", "properties": { "内容": "尾島ケアハートガーデングループホームさるびあⅢ【認知症対応型共同生活介護】群馬県太田市尾島町106-3", "url2": "https://www.kaigokensaku.mhlw.go.jp/10/index.php?action_kouhyou_detail_004_kani=true&JigyosyoCd=1090500768-00&ServiceCd=320&Type=search" }, "geometry": { "type": "Point", "coordinates": [ 139.3234464, 36.2611268 ] } },
{ "type": "Feature", "properties": { "内容": "けあビジョンホーム太田【認知症対応型共同生活介護】群馬県太田市藪塚町2003-1", "url2": "https://www.kaigokensaku.mhlw.go.jp/10/index.php?action_kouhyou_detail_004_kani=true&JigyosyoCd=1090500776-00&ServiceCd=320&Type=search" }, "geometry": { "type": "Point", "coordinates": [ 139.3008591, 36.3735687 ] } },
{ "type": "Feature", "properties": { "内容": "グループホームコスモス彦九郎【認知症対応型共同生活介護】群馬県太田市細谷町１３２４－３グループホームコスモス彦九郎", "url2": "https://www.kaigokensaku.mhlw.go.jp/10/index.php?action_kouhyou_detail_004_kani=true&JigyosyoCd=1090500388-00&ServiceCd=320&Type=search" }, "geometry": { "type": "Point", "coordinates": [ 139.3473093, 36.2764485 ] } },
{ "type": "Feature", "properties": { "内容": "グループホーム　コスモス細谷【認知症対応型共同生活介護】群馬県太田市細谷町１３４３－１", "url2": "https://www.kaigokensaku.mhlw.go.jp/10/index.php?action_kouhyou_detail_004_kani=true&JigyosyoCd=1090500271-00&ServiceCd=320&Type=search" }, "geometry": { "type": "Point", "coordinates": [ 139.3488036, 36.2766179 ] } },
{ "type": "Feature", "properties": { "内容": "グループホームコスモス新井荘【認知症対応型共同生活介護】群馬県太田市新井町２８５－４グループホームコスモス新井荘", "url2": "https://www.kaigokensaku.mhlw.go.jp/10/index.php?action_kouhyou_detail_004_kani=true&JigyosyoCd=1090500354-00&ServiceCd=320&Type=search" }, "geometry": { "type": "Point", "coordinates": [ 139.370638, 36.2825842 ] } },
{ "type": "Feature", "properties": { "内容": "グループホーム愛の里にった【認知症対応型共同生活介護】群馬県太田市新田市野井町１４５－１", "url2": "https://www.kaigokensaku.mhlw.go.jp/10/index.php?action_kouhyou_detail_004_kani=true&JigyosyoCd=1070501240-00&ServiceCd=320&Type=search" }, "geometry": { "type": "Point", "coordinates": [ 139.310830900000042, 36.317388 ] } },
{ "type": "Feature", "properties": { "内容": "よらっせ清水【認知症対応型共同生活介護】群馬県太田市西長岡町７３６－２", "url2": "https://www.kaigokensaku.mhlw.go.jp/10/index.php?action_kouhyou_detail_004_kani=true&JigyosyoCd=1090500289-00&ServiceCd=320&Type=search" }, "geometry": { "type": "Point", "coordinates": [ 139.331306, 36.3499652 ] } },
{ "type": "Feature", "properties": { "内容": "きやっせ　清水【認知症対応型共同生活介護】群馬県太田市西長岡町848-1", "url2": "https://www.kaigokensaku.mhlw.go.jp/10/index.php?action_kouhyou_detail_004_kani=true&JigyosyoCd=1090500164-00&ServiceCd=320&Type=search" }, "geometry": { "type": "Point", "coordinates": [ 139.330703299999982, 36.350318 ] } },
{ "type": "Feature", "properties": { "内容": "グループホーム　コスモス　ハーモニー【認知症対応型共同生活介護】群馬県太田市西野谷町95-1", "url2": "https://www.kaigokensaku.mhlw.go.jp/10/index.php?action_kouhyou_detail_004_kani=true&JigyosyoCd=1090500230-00&ServiceCd=320&Type=search" }, "geometry": { "type": "Point", "coordinates": [ 139.328960700000039, 36.2831863 ] } },
{ "type": "Feature", "properties": { "内容": "グループホームコスモス　ガーデン【認知症対応型共同生活介護】群馬県太田市西野谷町95-1", "url2": "https://www.kaigokensaku.mhlw.go.jp/10/index.php?action_kouhyou_detail_004_kani=true&JigyosyoCd=1090500149-00&ServiceCd=320&Type=search" }, "geometry": { "type": "Point", "coordinates": [ 139.328960700000039, 36.2831863 ] } },
{ "type": "Feature", "properties": { "内容": "グループホーム太田サンフラワー【認知症対応型共同生活介護】群馬県太田市台之郷町307番地", "url2": "https://www.kaigokensaku.mhlw.go.jp/10/index.php?action_kouhyou_detail_004_kani=true&JigyosyoCd=1070501190-00&ServiceCd=320&Type=search" }, "geometry": { "type": "Point", "coordinates": [ 139.415628278573649, 36.304450984931997 ] } },
{ "type": "Feature", "properties": { "内容": "グループホーム太田サンフラワーⅡ【認知症対応型共同生活介護】群馬県太田市台之郷町３０７番地", "url2": "https://www.kaigokensaku.mhlw.go.jp/10/index.php?action_kouhyou_detail_004_kani=true&JigyosyoCd=1090500081-00&ServiceCd=320&Type=search" }, "geometry": { "type": "Point", "coordinates": [ 139.415338600000041, 36.3043602 ] } },
{ "type": "Feature", "properties": { "内容": "グループホーム太田サンフラワーⅢ【認知症対応型共同生活介護】群馬県太田市台之郷町308番地2", "url2": "https://www.kaigokensaku.mhlw.go.jp/10/index.php?action_kouhyou_detail_004_kani=true&JigyosyoCd=1090500438-00&ServiceCd=320&Type=search" }, "geometry": { "type": "Point", "coordinates": [ 139.415325809388378, 36.304138351110062 ] } },
{ "type": "Feature", "properties": { "内容": "グループホーム　一番星【認知症対応型共同生活介護】群馬県太田市大久保町390-50", "url2": "https://www.kaigokensaku.mhlw.go.jp/10/index.php?action_kouhyou_detail_004_kani=true&JigyosyoCd=1090500347-00&ServiceCd=320&Type=search" }, "geometry": { "type": "Point", "coordinates": [ 139.272118016008022, 36.338344130596191 ] } },
{ "type": "Feature", "properties": { "内容": "グループホームからちご【認知症対応型共同生活介護】群馬県太田市大原町2172-6", "url2": "https://www.kaigokensaku.mhlw.go.jp/10/index.php?action_kouhyou_detail_004_kani=true&JigyosyoCd=1072900481-00&ServiceCd=320&Type=search" }, "geometry": { "type": "Point", "coordinates": [ 139.2866682, 36.3443546 ] } },
{ "type": "Feature", "properties": { "内容": "グループホーム　もみじ【認知症対応型共同生活介護】群馬県太田市大原町2236-1", "url2": "https://www.kaigokensaku.mhlw.go.jp/10/index.php?action_kouhyou_detail_004_kani=true&JigyosyoCd=1090500206-00&ServiceCd=320&Type=search" }, "geometry": { "type": "Point", "coordinates": [ 139.27175550000004, 36.3512227 ] } },
{ "type": "Feature", "properties": { "内容": "グループホーム　チューリップ【認知症対応型共同生活介護】群馬県太田市只上町１３１９－１", "url2": "https://www.kaigokensaku.mhlw.go.jp/10/index.php?action_kouhyou_detail_004_kani=true&JigyosyoCd=1070500721-00&ServiceCd=320&Type=search" }, "geometry": { "type": "Point", "coordinates": [ 139.400026600000047, 36.3342205 ] } },
{ "type": "Feature", "properties": { "内容": "グループホームききょうの里【認知症対応型共同生活介護】群馬県太田市只上町2317番地", "url2": "https://www.kaigokensaku.mhlw.go.jp/10/index.php?action_kouhyou_detail_004_kani=true&JigyosyoCd=1090500214-00&ServiceCd=320&Type=search" }, "geometry": { "type": "Point", "coordinates": [ 139.390088699999978, 36.3435527 ] } },
{ "type": "Feature", "properties": { "内容": "さくらの里グループホーム【認知症対応型共同生活介護】群馬県太田市中根町295-1", "url2": "https://www.kaigokensaku.mhlw.go.jp/10/index.php?action_kouhyou_detail_004_kani=true&JigyosyoCd=1070501166-00&ServiceCd=320&Type=search" }, "geometry": { "type": "Point", "coordinates": [ 139.320720199999982, 36.2719205 ] } },
{ "type": "Feature", "properties": { "内容": "共生ホームあかり【認知症対応型共同生活介護】群馬県太田市東長岡町１８２９－１", "url2": "https://www.kaigokensaku.mhlw.go.jp/10/index.php?action_kouhyou_detail_004_kani=true&JigyosyoCd=1090500255-00&ServiceCd=320&Type=search" }, "geometry": { "type": "Point", "coordinates": [ 139.399990500000058, 36.3037991 ] } },
{ "type": "Feature", "properties": { "内容": "グループホームあやめ【認知症対応型共同生活介護】群馬県太田市藤阿久町906-3", "url2": "https://www.kaigokensaku.mhlw.go.jp/10/index.php?action_kouhyou_detail_004_kani=true&JigyosyoCd=1090500651-00&ServiceCd=320&Type=search" }, "geometry": { "type": "Point", "coordinates": [ 139.3551931, 36.296579900000026 ] } },
{ "type": "Feature", "properties": { "内容": "グループホームコスモス【認知症対応型共同生活介護】群馬県太田市藤久良町６８－５", "url2": "https://www.kaigokensaku.mhlw.go.jp/10/index.php?action_kouhyou_detail_004_kani=true&JigyosyoCd=1070500697-00&ServiceCd=320&Type=search" }, "geometry": { "type": "Point", "coordinates": [ 139.349342, 36.2892054 ] } },
{ "type": "Feature", "properties": { "内容": "グループホーム　コアラ【認知症対応型共同生活介護】群馬県太田市飯塚町63-1", "url2": "https://www.kaigokensaku.mhlw.go.jp/10/index.php?action_kouhyou_detail_004_kani=true&JigyosyoCd=1070500887-00&ServiceCd=320&Type=search" }, "geometry": { "type": "Point", "coordinates": [ 139.380015500000013, 36.2740296 ] } },
{ "type": "Feature", "properties": { "内容": "グループホーム　コアラⅡ【認知症対応型共同生活介護】群馬県太田市飯塚町63-1", "url2": "https://www.kaigokensaku.mhlw.go.jp/10/index.php?action_kouhyou_detail_004_kani=true&JigyosyoCd=1090500024-00&ServiceCd=320&Type=search" }, "geometry": { "type": "Point", "coordinates": [ 139.380015500000013, 36.2740296 ] } },
{ "type": "Feature", "properties": { "内容": "グループホームひまわりの家【認知症対応型共同生活介護】群馬県太田市飯田町631番地3", "url2": "https://www.kaigokensaku.mhlw.go.jp/10/index.php?action_kouhyou_detail_004_kani=true&JigyosyoCd=1070500622-00&ServiceCd=320&Type=search" }, "geometry": { "type": "Point", "coordinates": [ 139.377107996742211, 36.287030241808971 ] } },
{ "type": "Feature", "properties": { "内容": "太田グループホームそよ風【認知症対応型共同生活介護】群馬県太田市飯田町814-1", "url2": "https://www.kaigokensaku.mhlw.go.jp/10/index.php?action_kouhyou_detail_004_kani=true&JigyosyoCd=1070500614-00&ServiceCd=320&Type=search" }, "geometry": { "type": "Point", "coordinates": [ 139.383056, 36.2886941 ] } },
{ "type": "Feature", "properties": { "内容": "グループホームしばざくら【認知症対応型共同生活介護】群馬県太田市浜町72-10", "url2": "https://www.kaigokensaku.mhlw.go.jp/10/index.php?action_kouhyou_detail_004_kani=true&JigyosyoCd=1090500461-00&ServiceCd=320&Type=search" }, "geometry": { "type": "Point", "coordinates": [ 139.363278988360662, 36.286721756590339 ] } },
{ "type": "Feature", "properties": { "内容": "グループホームひまわりⅡ【認知症対応型共同生活介護】群馬県太田市米沢町231番地1", "url2": "https://www.kaigokensaku.mhlw.go.jp/10/index.php?action_kouhyou_detail_004_kani=true&JigyosyoCd=1090500297-00&ServiceCd=320&Type=search" }, "geometry": { "type": "Point", "coordinates": [ 139.345118599999978, 36.2625776 ] } },
{ "type": "Feature", "properties": { "内容": "グループホーム　かえで【認知症対応型共同生活介護】群馬県太田市龍舞町5655", "url2": "https://www.kaigokensaku.mhlw.go.jp/10/index.php?action_kouhyou_detail_004_kani=true&JigyosyoCd=1070500978-00&ServiceCd=320&Type=search" }, "geometry": { "type": "Point", "coordinates": [ 139.4169819, 36.2715612 ] } },
{ "type": "Feature", "properties": { "内容": "グループホームアルプス【認知症対応型共同生活介護】群馬県太田市薮塚町4149-3", "url2": "https://www.kaigokensaku.mhlw.go.jp/10/index.php?action_kouhyou_detail_004_kani=true&JigyosyoCd=1072900523-00&ServiceCd=320&Type=search" }, "geometry": { "type": "Point", "coordinates": [ 139.298522652656516, 36.367855773892082 ] } },
{ "type": "Feature", "properties": { "内容": "認知症対応型共同生活介護事業所　アップルヒル【認知症対応型共同生活介護】群馬県沼田市下沼田町西沢501", "url2": "https://www.kaigokensaku.mhlw.go.jp/10/index.php?action_kouhyou_detail_004_kani=true&JigyosyoCd=1090600261-00&ServiceCd=320&Type=search" }, "geometry": { "type": "Point", "coordinates": [ 139.034292691748362, 36.658129152362385 ] } },
{ "type": "Feature", "properties": { "内容": "医療法人大誠会グループホーム　ゆうゆう・うちだ【認知症対応型共同生活介護】群馬県沼田市久屋原町345番地1", "url2": "https://www.kaigokensaku.mhlw.go.jp/10/index.php?action_kouhyou_detail_004_kani=true&JigyosyoCd=1070600224-00&ServiceCd=320&Type=search" }, "geometry": { "type": "Point", "coordinates": [ 139.104535841139153, 36.665957474169375 ] } },
{ "type": "Feature", "properties": { "内容": "グループホーム恵の家【認知症対応型共同生活介護】群馬県沼田市沼須町７５０番地", "url2": "https://www.kaigokensaku.mhlw.go.jp/10/index.php?action_kouhyou_detail_004_kani=true&JigyosyoCd=1070600323-00&ServiceCd=320&Type=search" }, "geometry": { "type": "Point", "coordinates": [ 139.053283207409692, 36.632432479147873 ] } },
{ "type": "Feature", "properties": { "内容": "グループホーム　サンフラワー【認知症対応型共同生活介護】群馬県沼田市新町452-1グループホーム　サンフラワー", "url2": "https://www.kaigokensaku.mhlw.go.jp/10/index.php?action_kouhyou_detail_004_kani=true&JigyosyoCd=1070600307-00&ServiceCd=320&Type=search" }, "geometry": { "type": "Point", "coordinates": [ 139.0444278, 36.6242887 ] } },
{ "type": "Feature", "properties": { "内容": "グループホーム沼田公園前【認知症対応型共同生活介護】群馬県沼田市西倉内町６５８", "url2": "https://www.kaigokensaku.mhlw.go.jp/10/index.php?action_kouhyou_detail_004_kani=true&JigyosyoCd=1070600539-00&ServiceCd=320&Type=search" }, "geometry": { "type": "Point", "coordinates": [ 139.039963899999947, 36.646449 ] } },
{ "type": "Feature", "properties": { "内容": "みんなんち園原【認知症対応型共同生活介護】群馬県沼田市利根町園原８７１", "url2": "https://www.kaigokensaku.mhlw.go.jp/10/index.php?action_kouhyou_detail_004_kani=true&JigyosyoCd=1090600055-00&ServiceCd=320&Type=search" }, "geometry": { "type": "Point", "coordinates": [ 139.18349790000002, 36.6561076 ] } },
{ "type": "Feature", "properties": { "内容": "グループホームアリス【認知症対応型共同生活介護】群馬県館林市羽附町字本宿699", "url2": "https://www.kaigokensaku.mhlw.go.jp/10/index.php?action_kouhyou_detail_004_kani=true&JigyosyoCd=1090700038-00&ServiceCd=320&Type=search" }, "geometry": { "type": "Point", "coordinates": [ 139.5688840453995, 36.230815230616336 ] } },
{ "type": "Feature", "properties": { "内容": "けあビジョンホーム館林【認知症対応型共同生活介護】群馬館林市西高根町52-15", "url2": "https://www.kaigokensaku.mhlw.go.jp/10/index.php?action_kouhyou_detail_004_kani=true&JigyosyoCd=1090700327-00&ServiceCd=320&Type=search" }, "geometry": { "type": "Point", "coordinates": [ 139.507729899999987, 36.259284 ] } },
{ "type": "Feature", "properties": { "内容": "グループホーム　あんず【認知症対応型共同生活介護】群馬県館林市代官町8-15", "url2": "https://www.kaigokensaku.mhlw.go.jp/10/index.php?action_kouhyou_detail_004_kani=true&JigyosyoCd=1090700061-00&ServiceCd=320&Type=search" }, "geometry": { "type": "Point", "coordinates": [ 139.534362800000054, 36.2526443 ] } },
{ "type": "Feature", "properties": { "内容": "グループホームタンポポ【認知症対応型共同生活介護】群馬県館林市田谷町1268", "url2": "https://www.kaigokensaku.mhlw.go.jp/10/index.php?action_kouhyou_detail_004_kani=true&JigyosyoCd=1070700255-00&ServiceCd=320&Type=search" }, "geometry": { "type": "Point", "coordinates": [ 139.577862200000027, 36.2577837 ] } },
{ "type": "Feature", "properties": { "内容": "グループホーム　心美【認知症対応型共同生活介護】群馬県館林市楠町１９３２－１", "url2": "https://www.kaigokensaku.mhlw.go.jp/10/index.php?action_kouhyou_detail_004_kani=true&JigyosyoCd=1090700079-00&ServiceCd=320&Type=search" }, "geometry": { "type": "Point", "coordinates": [ 139.56500230000006, 36.237578 ] } },
{ "type": "Feature", "properties": { "内容": "グループホーム　よろこび　新館【認知症対応型共同生活介護】群馬県館林市入ヶ谷町96番地の4", "url2": "https://www.kaigokensaku.mhlw.go.jp/10/index.php?action_kouhyou_detail_004_kani=true&JigyosyoCd=1090700145-00&ServiceCd=320&Type=search" }, "geometry": { "type": "Point", "coordinates": [ 139.502603099999988, 36.2134285 ] } },
{ "type": "Feature", "properties": { "内容": "グループホーム　よろこび【認知症対応型共同生活介護】群馬県館林市入ヶ谷町98番地-1", "url2": "https://www.kaigokensaku.mhlw.go.jp/10/index.php?action_kouhyou_detail_004_kani=true&JigyosyoCd=1070700396-00&ServiceCd=320&Type=search" }, "geometry": { "type": "Point", "coordinates": [ 139.501656, 36.2129313 ] } },
{ "type": "Feature", "properties": { "内容": "グループホーム喜楽【認知症対応型共同生活介護】群馬県館林市北成島町1829-5", "url2": "https://www.kaigokensaku.mhlw.go.jp/10/index.php?action_kouhyou_detail_004_kani=true&JigyosyoCd=1070700214-00&ServiceCd=320&Type=search" }, "geometry": { "type": "Point", "coordinates": [ 139.519566183190591, 36.253614670011935 ] } },
{ "type": "Feature", "properties": { "内容": "グループホーム多々良の里【認知症対応型共同生活介護】群馬県館林市木戸町５３９", "url2": "https://www.kaigokensaku.mhlw.go.jp/10/index.php?action_kouhyou_detail_004_kani=true&JigyosyoCd=1070700347-00&ServiceCd=320&Type=search" }, "geometry": { "type": "Point", "coordinates": [ 139.515910699999949, 36.27696 ] } },
{ "type": "Feature", "properties": { "内容": "グループホームつどい【認知症対応型共同生活介護】群馬県館林市赤生田町2042", "url2": "https://www.kaigokensaku.mhlw.go.jp/10/index.php?action_kouhyou_detail_004_kani=true&JigyosyoCd=1070700222-00&ServiceCd=320&Type=search" }, "geometry": { "type": "Point", "coordinates": [ 139.557577900000069, 36.2298204 ] } },
{ "type": "Feature", "properties": { "内容": "グループホーム明月【認知症対応型共同生活介護】群馬県渋川市伊香保町伊香保525-202", "url2": "https://www.kaigokensaku.mhlw.go.jp/10/index.php?action_kouhyou_detail_004_kani=true&JigyosyoCd=1090800010-00&ServiceCd=320&Type=search" }, "geometry": { "type": "Point", "coordinates": [ 138.932092799999964, 36.5039591 ] } },
{ "type": "Feature", "properties": { "内容": "グループホーム一番星金井【認知症対応型共同生活介護】群馬県渋川市金井125-4", "url2": "https://www.kaigokensaku.mhlw.go.jp/10/index.php?action_kouhyou_detail_004_kani=true&JigyosyoCd=1070800204-00&ServiceCd=320&Type=search" }, "geometry": { "type": "Point", "coordinates": [ 138.991562, 36.519259 ] } },
{ "type": "Feature", "properties": { "内容": "グループホームあかぎ【認知症対応型共同生活介護】群馬県渋川市赤城町勝保沢732番地1グループホームあかぎ", "url2": "https://www.kaigokensaku.mhlw.go.jp/10/index.php?action_kouhyou_detail_004_kani=true&JigyosyoCd=1072000571-00&ServiceCd=320&Type=search" }, "geometry": { "type": "Point", "coordinates": [ 139.056469900000025, 36.5267618 ] } },
{ "type": "Feature", "properties": { "内容": "グループホーム一番星渋川【認知症対応型共同生活介護】群馬県渋川市半田９３４－２", "url2": "https://www.kaigokensaku.mhlw.go.jp/10/index.php?action_kouhyou_detail_004_kani=true&JigyosyoCd=1070800238-00&ServiceCd=320&Type=search" }, "geometry": { "type": "Point", "coordinates": [ 139.02540810000005, 36.4620491 ] } },
{ "type": "Feature", "properties": { "内容": "グループホームベルジ渋川たやの家【認知症対応型共同生活介護】群馬県渋川市半田宮西3075", "url2": "https://www.kaigokensaku.mhlw.go.jp/10/index.php?action_kouhyou_detail_004_kani=true&JigyosyoCd=1070800220-00&ServiceCd=320&Type=search" }, "geometry": { "type": "Point", "coordinates": [ 139.021540652711565, 36.466390307115731 ] } },
{ "type": "Feature", "properties": { "内容": "グループホーム　虹の家【認知症対応型共同生活介護】群馬県藤岡市岡之郷１１６６－１", "url2": "https://www.kaigokensaku.mhlw.go.jp/10/index.php?action_kouhyou_detail_004_kani=true&JigyosyoCd=1070900319-00&ServiceCd=320&Type=search" }, "geometry": { "type": "Point", "coordinates": [ 139.097491499999933, 36.2619184 ] } },
{ "type": "Feature", "properties": { "内容": "グループホーム　にいろ【認知症対応型共同生活介護】群馬県藤岡市岡之郷１２－４", "url2": "https://www.kaigokensaku.mhlw.go.jp/10/index.php?action_kouhyou_detail_004_kani=true&JigyosyoCd=1070900582-00&ServiceCd=320&Type=search" }, "geometry": { "type": "Point", "coordinates": [ 139.088325700000041, 36.2743531 ] } },
{ "type": "Feature", "properties": { "内容": "グループホーム　まほろば【認知症対応型共同生活介護】群馬県藤岡市下大塚810-1", "url2": "https://www.kaigokensaku.mhlw.go.jp/10/index.php?action_kouhyou_detail_004_kani=true&JigyosyoCd=1090900091-00&ServiceCd=320&Type=search" }, "geometry": { "type": "Point", "coordinates": [ 139.0677061, 36.2560378 ] } },
{ "type": "Feature", "properties": { "内容": "グループホーム　フォーシーズン【認知症対応型共同生活介護】群馬県藤岡市篠塚102", "url2": "https://www.kaigokensaku.mhlw.go.jp/10/index.php?action_kouhyou_detail_004_kani=true&JigyosyoCd=1070900160-00&ServiceCd=320&Type=search" }, "geometry": { "type": "Point", "coordinates": [ 139.0648773, 36.2578863 ] } },
{ "type": "Feature", "properties": { "内容": "グループホームふゆざくら【認知症対応型共同生活介護】群馬県藤岡市浄法寺1814-6", "url2": "https://www.kaigokensaku.mhlw.go.jp/10/index.php?action_kouhyou_detail_004_kani=true&JigyosyoCd=1090900034-00&ServiceCd=320&Type=search" }, "geometry": { "type": "Point", "coordinates": [ 139.052622806281761, 36.188994696022768 ] } },
{ "type": "Feature", "properties": { "内容": "グループホームふじの里【認知症対応型共同生活介護】群馬県藤岡市中大塚607-１", "url2": "https://www.kaigokensaku.mhlw.go.jp/10/index.php?action_kouhyou_detail_004_kani=true&JigyosyoCd=1070900459-00&ServiceCd=320&Type=search" }, "geometry": { "type": "Point", "coordinates": [ 139.0557685, 36.2466053 ] } },
{ "type": "Feature", "properties": { "内容": "グループホームつばめ【認知症対応型共同生活介護】群馬県藤岡市藤岡1985-15", "url2": "https://www.kaigokensaku.mhlw.go.jp/10/index.php?action_kouhyou_detail_004_kani=true&JigyosyoCd=1070900418-00&ServiceCd=320&Type=search" }, "geometry": { "type": "Point", "coordinates": [ 139.068497217161962, 36.241786260640119 ] } },
{ "type": "Feature", "properties": { "内容": "社会福祉法人山紫会グループホーム音和の家【認知症対応型共同生活介護】群馬県藤岡市藤岡2874-9", "url2": "https://www.kaigokensaku.mhlw.go.jp/10/index.php?action_kouhyou_detail_004_kani=true&JigyosyoCd=1070900194-00&ServiceCd=320&Type=search" }, "geometry": { "type": "Point", "coordinates": [ 139.058813099999952, 36.223197 ] } },
{ "type": "Feature", "properties": { "内容": "グループホームひまわり２【認知症対応型共同生活介護】群馬県富岡市宇田７７番地２", "url2": "https://www.kaigokensaku.mhlw.go.jp/10/index.php?action_kouhyou_detail_004_kani=true&JigyosyoCd=1071000242-00&ServiceCd=320&Type=search" }, "geometry": { "type": "Point", "coordinates": [ 138.850277199999937, 36.2635957 ] } },
{ "type": "Feature", "properties": { "内容": "グループホームひまわり【認知症対応型共同生活介護】群馬県富岡市宇田77番地1", "url2": "https://www.kaigokensaku.mhlw.go.jp/10/index.php?action_kouhyou_detail_004_kani=true&JigyosyoCd=1071000168-00&ServiceCd=320&Type=search" }, "geometry": { "type": "Point", "coordinates": [ 138.85103424373969, 36.264669440368579 ] } },
{ "type": "Feature", "properties": { "内容": "グループホームなかよし倶楽部【認知症対応型共同生活介護】群馬県富岡市七日市676-4", "url2": "https://www.kaigokensaku.mhlw.go.jp/10/index.php?action_kouhyou_detail_004_kani=true&JigyosyoCd=1071000309-00&ServiceCd=320&Type=search" }, "geometry": { "type": "Point", "coordinates": [ 138.882860599999958, 36.2605628 ] } },
{ "type": "Feature", "properties": { "内容": "グループホームほほえみ【認知症対応型共同生活介護】群馬県富岡市星田80番地3", "url2": "https://www.kaigokensaku.mhlw.go.jp/10/index.php?action_kouhyou_detail_004_kani=true&JigyosyoCd=1071000184-00&ServiceCd=320&Type=search" }, "geometry": { "type": "Point", "coordinates": [ 138.92024349999997, 36.2622142 ] } },
{ "type": "Feature", "properties": { "内容": "医療法人緑陽会グループホームこまち【認知症対応型共同生活介護】群馬県富岡市相野田４６９", "url2": "https://www.kaigokensaku.mhlw.go.jp/10/index.php?action_kouhyou_detail_004_kani=true&JigyosyoCd=1071000283-00&ServiceCd=320&Type=search" }, "geometry": { "type": "Point", "coordinates": [ 138.925469300000032, 36.2833772 ] } },
{ "type": "Feature", "properties": { "内容": "グループホームゆうあい【認知症対応型共同生活介護】群馬県富岡市中高瀬６１－５", "url2": "https://www.kaigokensaku.mhlw.go.jp/10/index.php?action_kouhyou_detail_004_kani=true&JigyosyoCd=1071000259-00&ServiceCd=320&Type=search" }, "geometry": { "type": "Point", "coordinates": [ 138.885672, 36.2517277 ] } },
{ "type": "Feature", "properties": { "内容": "グループホーム　ひかり【認知症対応型共同生活介護】群馬県富岡市南後箇71-1", "url2": "https://www.kaigokensaku.mhlw.go.jp/10/index.php?action_kouhyou_detail_004_kani=true&JigyosyoCd=1091000073-00&ServiceCd=320&Type=search" }, "geometry": { "type": "Point", "coordinates": [ 138.8737317, 36.2367627 ] } },
{ "type": "Feature", "properties": { "内容": "グル－プホ－ム　ティアラ【認知症対応型共同生活介護】群馬県富岡市富岡３６２－７", "url2": "https://www.kaigokensaku.mhlw.go.jp/10/index.php?action_kouhyou_detail_004_kani=true&JigyosyoCd=1071000267-00&ServiceCd=320&Type=search" }, "geometry": { "type": "Point", "coordinates": [ 138.899687099999937, 36.2533803 ] } },
{ "type": "Feature", "properties": { "内容": "グループホーム　妙義の里　のぞみ【認知症対応型共同生活介護】群馬県富岡市妙義町諸戸８８", "url2": "https://www.kaigokensaku.mhlw.go.jp/10/index.php?action_kouhyou_detail_004_kani=true&JigyosyoCd=1072400268-00&ServiceCd=320&Type=search" }, "geometry": { "type": "Point", "coordinates": [ 138.77949979999994, 36.2886141 ] } },
{ "type": "Feature", "properties": { "内容": "グループホームもみじの里【認知症対応型共同生活介護】群馬県富岡市妙義町上高田660-1", "url2": "https://www.kaigokensaku.mhlw.go.jp/10/index.php?action_kouhyou_detail_004_kani=true&JigyosyoCd=1072400342-00&ServiceCd=320&Type=search" }, "geometry": { "type": "Point", "coordinates": [ 138.818643100000031, 36.2864151 ] } },
{ "type": "Feature", "properties": { "内容": "グループホーム　森の家【認知症対応型共同生活介護】群馬県安中市安中１丁目１０番１７号", "url2": "https://www.kaigokensaku.mhlw.go.jp/10/index.php?action_kouhyou_detail_004_kani=true&JigyosyoCd=1071100232-00&ServiceCd=320&Type=search" }, "geometry": { "type": "Point", "coordinates": [ 138.884608104893459, 36.323593825390873 ] } },
{ "type": "Feature", "properties": { "内容": "グループホーム　沙羅林　郷原の郷【認知症対応型共同生活介護】群馬県安中市郷原１２６２番地２", "url2": "https://www.kaigokensaku.mhlw.go.jp/10/index.php?action_kouhyou_detail_004_kani=true&JigyosyoCd=1091100212-00&ServiceCd=320&Type=search" }, "geometry": { "type": "Point", "coordinates": [ 138.829736250644146, 36.305948302552594 ] } },
{ "type": "Feature", "properties": { "内容": "グループホーム　ほのか【認知症対応型共同生活介護】群馬県安中市原市１３０３－１", "url2": "https://www.kaigokensaku.mhlw.go.jp/10/index.php?action_kouhyou_detail_004_kani=true&JigyosyoCd=1071100273-00&ServiceCd=320&Type=search" }, "geometry": { "type": "Point", "coordinates": [ 138.857493500000032, 36.3106321 ] } },
{ "type": "Feature", "properties": { "内容": "グループホームひばり【認知症対応型共同生活介護】群馬県安中市原市3-6-20", "url2": "https://www.kaigokensaku.mhlw.go.jp/10/index.php?action_kouhyou_detail_004_kani=true&JigyosyoCd=1071100356-00&ServiceCd=320&Type=search" }, "geometry": { "type": "Point", "coordinates": [ 138.8654262, 36.3126654 ] } },
{ "type": "Feature", "properties": { "内容": "グループホーム原市【認知症対応型共同生活介護】群馬県安中市原市1867", "url2": "https://www.kaigokensaku.mhlw.go.jp/10/index.php?action_kouhyou_detail_004_kani=true&JigyosyoCd=1071100208-00&ServiceCd=320&Type=search" }, "geometry": { "type": "Point", "coordinates": [ 138.847873333082589, 36.315790439312259 ] } },
{ "type": "Feature", "properties": { "内容": "有限会社　ふるさと【認知症対応型共同生活介護】群馬県安中市鷺宮1956-1", "url2": "https://www.kaigokensaku.mhlw.go.jp/10/index.php?action_kouhyou_detail_004_kani=true&JigyosyoCd=1071100091-00&ServiceCd=320&Type=search" }, "geometry": { "type": "Point", "coordinates": [ 138.8626021, 36.2967586 ] } },
{ "type": "Feature", "properties": { "内容": "グループホームきらら【認知症対応型共同生活介護】群馬県安中市鷺宮203", "url2": "https://www.kaigokensaku.mhlw.go.jp/10/index.php?action_kouhyou_detail_004_kani=true&JigyosyoCd=1071100158-00&ServiceCd=320&Type=search" }, "geometry": { "type": "Point", "coordinates": [ 138.89696570000001, 36.3051779 ] } },
{ "type": "Feature", "properties": { "内容": "グループホーム　あんなかの憩【認知症対応型共同生活介護】群馬県安中市松井田町五科２０９８－１", "url2": "https://www.kaigokensaku.mhlw.go.jp/10/index.php?action_kouhyou_detail_004_kani=true&JigyosyoCd=1091100279-00&ServiceCd=320&Type=search" }, "geometry": { "type": "Point", "coordinates": [ 138.8132669, 36.3094477 ] } },
{ "type": "Feature", "properties": { "内容": "グループホーム「ここあ」松井田【認知症対応型共同生活介護】群馬県安中市松井田町人見595-1", "url2": "https://www.kaigokensaku.mhlw.go.jp/10/index.php?action_kouhyou_detail_004_kani=true&JigyosyoCd=1091100139-00&ServiceCd=320&Type=search" }, "geometry": { "type": "Point", "coordinates": [ 138.832330100000036, 36.297933300000018 ] } },
{ "type": "Feature", "properties": { "内容": "グループホーム宮口【認知症対応型共同生活介護】群馬県安中市松井田町二軒在家1580番地4", "url2": "https://www.kaigokensaku.mhlw.go.jp/10/index.php?action_kouhyou_detail_004_kani=true&JigyosyoCd=1072500125-00&ServiceCd=320&Type=search" }, "geometry": { "type": "Point", "coordinates": [ 138.808318699999973, 36.2985939 ] } },
{ "type": "Feature", "properties": { "内容": "グループホームけやき【認知症対応型共同生活介護】群馬県安中市中宿1-9-17", "url2": "https://www.kaigokensaku.mhlw.go.jp/10/index.php?action_kouhyou_detail_004_kani=true&JigyosyoCd=1071100372-00&ServiceCd=320&Type=search" }, "geometry": { "type": "Point", "coordinates": [ 138.920103700000027, 36.3358705 ] } },
{ "type": "Feature", "properties": { "内容": "グループホームゆうゆう【認知症対応型共同生活介護】群馬県安中市中宿1-9-6", "url2": "https://www.kaigokensaku.mhlw.go.jp/10/index.php?action_kouhyou_detail_004_kani=true&JigyosyoCd=1091100246-00&ServiceCd=320&Type=search" }, "geometry": { "type": "Point", "coordinates": [ 138.919771200000014, 36.3359238 ] } },
{ "type": "Feature", "properties": { "内容": "グループホームなないろ【認知症対応型共同生活介護】群馬県安中市中宿2153－1", "url2": "https://www.kaigokensaku.mhlw.go.jp/10/index.php?action_kouhyou_detail_004_kani=true&JigyosyoCd=1091100154-00&ServiceCd=320&Type=search" }, "geometry": { "type": "Point", "coordinates": [ 138.925169073610761, 36.334786118741349 ] } },
{ "type": "Feature", "properties": { "内容": "グループホーム沙羅林簗瀬の郷【認知症対応型共同生活介護】群馬県安中市簗瀬194-6", "url2": "https://www.kaigokensaku.mhlw.go.jp/10/index.php?action_kouhyou_detail_004_kani=true&JigyosyoCd=1091100196-00&ServiceCd=320&Type=search" }, "geometry": { "type": "Point", "coordinates": [ 138.851904699999977, 36.3062613 ] } },
{ "type": "Feature", "properties": { "内容": "グループホームトーホー【認知症対応型共同生活介護】群馬県みどり市笠懸町阿左美３２７９－３", "url2": "https://www.kaigokensaku.mhlw.go.jp/10/index.php?action_kouhyou_detail_004_kani=true&JigyosyoCd=1072900416-00&ServiceCd=320&Type=search" }, "geometry": { "type": "Point", "coordinates": [ 139.310409299999947, 36.3917973 ] } },
{ "type": "Feature", "properties": { "内容": "グループホーム　サンホープケアヴィレッジフルール【認知症対応型共同生活介護】群馬県みどり市笠懸町阿左美499-1", "url2": "https://www.kaigokensaku.mhlw.go.jp/10/index.php?action_kouhyou_detail_004_kani=true&JigyosyoCd=1072900804-00&ServiceCd=320&Type=search" }, "geometry": { "type": "Point", "coordinates": [ 139.299602400000026, 36.3753239 ] } },
{ "type": "Feature", "properties": { "内容": "グループホームクララ笠懸【認知症対応型共同生活介護】群馬県みどり市笠懸町西鹿田634－5グループホームクララ笠懸", "url2": "https://www.kaigokensaku.mhlw.go.jp/10/index.php?action_kouhyou_detail_004_kani=true&JigyosyoCd=1091200020-00&ServiceCd=320&Type=search" }, "geometry": { "type": "Point", "coordinates": [ 139.261858599999982, 36.4019345 ] } },
{ "type": "Feature", "properties": { "内容": "グループホーム　桐の家【認知症対応型共同生活介護】群馬県みどり市大間々町桐原634", "url2": "https://www.kaigokensaku.mhlw.go.jp/10/index.php?action_kouhyou_detail_004_kani=true&JigyosyoCd=1073000174-00&ServiceCd=320&Type=search" }, "geometry": { "type": "Point", "coordinates": [ 139.27404249999995, 36.4405409 ] } },
{ "type": "Feature", "properties": { "内容": "グループホーム　ヴェルデ【認知症対応型共同生活介護】群馬県みどり市東町神戸95-2", "url2": "https://www.kaigokensaku.mhlw.go.jp/10/index.php?action_kouhyou_detail_004_kani=true&JigyosyoCd=1091200038-00&ServiceCd=320&Type=search" }, "geometry": { "type": "Point", "coordinates": [ 139.350700927122489, 36.5374677611618 ] } },
{ "type": "Feature", "properties": { "内容": "グループホームしんとう十二前【認知症対応型共同生活介護】群馬県北群馬郡榛東村大字新井2224－4", "url2": "https://www.kaigokensaku.mhlw.go.jp/10/index.php?action_kouhyou_detail_004_kani=true&JigyosyoCd=1092200029-00&ServiceCd=320&Type=search" }, "geometry": { "type": "Point", "coordinates": [ 138.999857, 36.4265222 ] } },
{ "type": "Feature", "properties": { "内容": "グループホーム　ベルジ吉岡たやの家【認知症対応型共同生活介護】群馬県北群馬郡吉岡町上野田96番地", "url2": "https://www.kaigokensaku.mhlw.go.jp/10/index.php?action_kouhyou_detail_004_kani=true&JigyosyoCd=1072200205-00&ServiceCd=320&Type=search" }, "geometry": { "type": "Point", "coordinates": [ 139.0039772, 36.4533163 ] } },
{ "type": "Feature", "properties": { "内容": "グループホーム一番星【認知症対応型共同生活介護】群馬県北群馬郡吉岡町漆原１４２－４", "url2": "https://www.kaigokensaku.mhlw.go.jp/10/index.php?action_kouhyou_detail_004_kani=true&JigyosyoCd=1072200213-00&ServiceCd=320&Type=search" }, "geometry": { "type": "Point", "coordinates": [ 139.0285769286331, 36.453536217931322 ] } },
{ "type": "Feature", "properties": { "内容": "グループホーム　福寿草【認知症対応型共同生活介護】群馬県多野郡上野村大字乙父480", "url2": "https://www.kaigokensaku.mhlw.go.jp/10/index.php?action_kouhyou_detail_004_kani=true&JigyosyoCd=1092300068-00&ServiceCd=320&Type=search" }, "geometry": { "type": "Point", "coordinates": [ 138.7571494, 36.0846341 ] } },
{ "type": "Feature", "properties": { "内容": "グループホーム　ひだまり【認知症対応型共同生活介護】群馬県多野郡上野村大字乙父630番地の1介護福祉施設", "url2": "https://www.kaigokensaku.mhlw.go.jp/10/index.php?action_kouhyou_detail_004_kani=true&JigyosyoCd=1092300043-00&ServiceCd=320&Type=search" }, "geometry": { "type": "Point", "coordinates": [ 138.750936, 36.0844952 ] } },
{ "type": "Feature", "properties": { "内容": "グループホームグリーンテラス【認知症対応型共同生活介護】群馬県甘楽郡下仁田町下仁田423-6", "url2": "https://www.kaigokensaku.mhlw.go.jp/10/index.php?action_kouhyou_detail_004_kani=true&JigyosyoCd=1092400066-00&ServiceCd=320&Type=search" }, "geometry": { "type": "Point", "coordinates": [ 138.787839, 36.2121842 ] } },
{ "type": "Feature", "properties": { "内容": "グループホームスマイル【認知症対応型共同生活介護】群馬県甘楽郡下仁田町西野牧5803-1", "url2": "https://www.kaigokensaku.mhlw.go.jp/10/index.php?action_kouhyou_detail_004_kani=true&JigyosyoCd=1072400276-00&ServiceCd=320&Type=search" }, "geometry": { "type": "Point", "coordinates": [ 138.70661640000003, 36.2428384 ] } },
{ "type": "Feature", "properties": { "内容": "グループホーム杜の小径【認知症対応型共同生活介護】群馬県甘楽郡下仁田町大字大桑原２０１番地１", "url2": "https://www.kaigokensaku.mhlw.go.jp/10/index.php?action_kouhyou_detail_004_kani=true&JigyosyoCd=1092400082-00&ServiceCd=320&Type=search" }, "geometry": { "type": "Point", "coordinates": [ 138.768102099999965, 36.2035375 ] } },
{ "type": "Feature", "properties": { "内容": "グループホームハーモニー【認知症対応型共同生活介護】群馬県甘楽郡下仁田町馬山2495-1", "url2": "https://www.kaigokensaku.mhlw.go.jp/10/index.php?action_kouhyou_detail_004_kani=true&JigyosyoCd=1072400326-00&ServiceCd=320&Type=search" }, "geometry": { "type": "Point", "coordinates": [ 138.814946299999974, 36.2317798 ] } },
{ "type": "Feature", "properties": { "内容": "グループホーム　めぐみ【認知症対応型共同生活介護】群馬県甘楽郡甘楽町善慶寺900番地12", "url2": "https://www.kaigokensaku.mhlw.go.jp/10/index.php?action_kouhyou_detail_004_kani=true&JigyosyoCd=1072400243-00&ServiceCd=320&Type=search" }, "geometry": { "type": "Point", "coordinates": [ 138.9126695, 36.2422983 ] } },
{ "type": "Feature", "properties": { "内容": "グループホームこころ【認知症対応型共同生活介護】群馬県甘楽郡甘楽町大字白倉557", "url2": "https://www.kaigokensaku.mhlw.go.jp/10/index.php?action_kouhyou_detail_004_kani=true&JigyosyoCd=1072400235-00&ServiceCd=320&Type=search" }, "geometry": { "type": "Point", "coordinates": [ 138.940723542956903, 36.250249565425555 ] } },
{ "type": "Feature", "properties": { "内容": "グループホームさら【認知症対応型共同生活介護】群馬県甘楽郡甘楽町白倉831－58", "url2": "https://www.kaigokensaku.mhlw.go.jp/10/index.php?action_kouhyou_detail_004_kani=true&JigyosyoCd=1092400025-00&ServiceCd=320&Type=search" }, "geometry": { "type": "Point", "coordinates": [ 138.944421899999952, 36.2452759 ] } },
{ "type": "Feature", "properties": { "内容": "京塚温泉グループホーム笑みの里暖輪【認知症対応型共同生活介護】群馬県吾妻郡中之条町大字入山3257", "url2": "https://www.kaigokensaku.mhlw.go.jp/10/index.php?action_kouhyou_detail_004_kani=true&JigyosyoCd=1092600103-00&ServiceCd=320&Type=search" }, "geometry": { "type": "Point", "coordinates": [ 138.649105599999984, 36.647369 ] } },
{ "type": "Feature", "properties": { "内容": "グループホームくりの木【認知症対応型共同生活介護】群馬県吾妻郡中之条町大字西中之条４７２番地", "url2": "https://www.kaigokensaku.mhlw.go.jp/10/index.php?action_kouhyou_detail_004_kani=true&JigyosyoCd=1072600529-00&ServiceCd=320&Type=search" }, "geometry": { "type": "Point", "coordinates": [ 138.834634100000017, 36.5915477 ] } },
{ "type": "Feature", "properties": { "内容": "グループホームつつじ苑【認知症対応型共同生活介護】群馬県吾妻郡中之条町大字中之条町1171-2", "url2": "https://www.kaigokensaku.mhlw.go.jp/10/index.php?action_kouhyou_detail_004_kani=true&JigyosyoCd=1092600129-00&ServiceCd=320&Type=search" }, "geometry": { "type": "Point", "coordinates": [ 138.840941358439977, 36.587135660881536 ] } },
{ "type": "Feature", "properties": { "内容": "グループホームしらゆき【認知症対応型共同生活介護】群馬県吾妻郡中之条町大字中之条町２５４番地の１", "url2": "https://www.kaigokensaku.mhlw.go.jp/10/index.php?action_kouhyou_detail_004_kani=true&JigyosyoCd=1092600111-00&ServiceCd=320&Type=search" }, "geometry": { "type": "Point", "coordinates": [ 138.822674173944051, 36.589534826760314 ] } },
{ "type": "Feature", "properties": { "内容": "みんなの家なかんじょ【認知症対応型共同生活介護】群馬県吾妻郡中之条町大字中之条町９６７番地", "url2": "https://www.kaigokensaku.mhlw.go.jp/10/index.php?action_kouhyou_detail_004_kani=true&JigyosyoCd=1092600020-00&ServiceCd=320&Type=search" }, "geometry": { "type": "Point", "coordinates": [ 138.843968523942522, 36.589464091127503 ] } },
{ "type": "Feature", "properties": { "内容": "グループホームぬくもりの家【認知症対応型共同生活介護】群馬県吾妻郡長野原町応桑田通260-6", "url2": "https://www.kaigokensaku.mhlw.go.jp/10/index.php?action_kouhyou_detail_004_kani=true&JigyosyoCd=1092600053-00&ServiceCd=320&Type=search" }, "geometry": { "type": "Point", "coordinates": [ 138.594969551532017, 36.512647577118486 ] } },
{ "type": "Feature", "properties": { "内容": "つまごい笑みの里暖輪【認知症対応型共同生活介護】群馬県吾妻郡嬬恋村大字今井字下石津1287－68", "url2": "https://www.kaigokensaku.mhlw.go.jp/10/index.php?action_kouhyou_detail_004_kani=true&JigyosyoCd=1092600178-00&ServiceCd=320&Type=search" }, "geometry": { "type": "Point", "coordinates": [ 138.5571, 36.56097 ] } },
{ "type": "Feature", "properties": { "内容": "草津温泉湯治館そよ風【認知症対応型共同生活介護】群馬県吾妻郡草津町大字草津464-702", "url2": "https://www.kaigokensaku.mhlw.go.jp/10/index.php?action_kouhyou_detail_004_kani=true&JigyosyoCd=1092600012-00&ServiceCd=320&Type=search" }, "geometry": { "type": "Point", "coordinates": [ 138.588334199999963, 36.6193894 ] } },
{ "type": "Feature", "properties": { "内容": "グループホーム　やまゆりの家【認知症対応型共同生活介護】群馬県吾妻郡東吾妻町大字原町　５０番地", "url2": "https://www.kaigokensaku.mhlw.go.jp/10/index.php?action_kouhyou_detail_004_kani=true&JigyosyoCd=1092600046-00&ServiceCd=320&Type=search" }, "geometry": { "type": "Point", "coordinates": [ 138.834548300000051, 36.5791519 ] } },
{ "type": "Feature", "properties": { "内容": "けあビジョンホーム片品【認知症対応型共同生活介護】群馬県利根郡片品村花咲2797₋129", "url2": "https://www.kaigokensaku.mhlw.go.jp/10/index.php?action_kouhyou_detail_004_kani=true&JigyosyoCd=1092700135-00&ServiceCd=320&Type=search" }, "geometry": { "type": "Point", "coordinates": [ 139.187344648552653, 36.764853570843137 ] } },
{ "type": "Feature", "properties": { "内容": "株式会社Ｎ・Ｓ・Ｃ　グループホーム　星の降る村【認知症対応型共同生活介護】群馬県利根郡昭和村大字貝野瀬4090", "url2": "https://www.kaigokensaku.mhlw.go.jp/10/index.php?action_kouhyou_detail_004_kani=true&JigyosyoCd=1092700051-00&ServiceCd=320&Type=search" }, "geometry": { "type": "Point", "coordinates": [ 139.132059569311537, 36.617766788687426 ] } },
{ "type": "Feature", "properties": { "内容": "グループホーム月夜野宿【認知症対応型共同生活介護】群馬県利根郡みなかみ町下牧１１２８-３", "url2": "https://www.kaigokensaku.mhlw.go.jp/10/index.php?action_kouhyou_detail_004_kani=true&JigyosyoCd=1072700394-00&ServiceCd=320&Type=search" }, "geometry": { "type": "Point", "coordinates": [ 138.984114699999964, 36.697056 ] } },
{ "type": "Feature", "properties": { "内容": "グループホームあすなろ【認知症対応型共同生活介護】群馬県利根郡みなかみ町新巻２９番地", "url2": "https://www.kaigokensaku.mhlw.go.jp/10/index.php?action_kouhyou_detail_004_kani=true&JigyosyoCd=1092700119-00&ServiceCd=320&Type=search" }, "geometry": { "type": "Point", "coordinates": [ 138.9398333, 36.6816642 ] } },
{ "type": "Feature", "properties": { "内容": "グループホームトマの耳【認知症対応型共同生活介護】群馬県みなかみ町真庭３６３", "url2": "https://www.kaigokensaku.mhlw.go.jp/10/index.php?action_kouhyou_detail_004_kani=true&JigyosyoCd=1092700127-00&ServiceCd=320&Type=search" }, "geometry": { "type": "Point", "coordinates": [ 139.004559500000028, 36.6760263 ] } },
{ "type": "Feature", "properties": { "内容": "グループホームやまぶきの苑【認知症対応型共同生活介護】群馬県利根郡みなかみ町石倉150-1", "url2": "https://www.kaigokensaku.mhlw.go.jp/10/index.php?action_kouhyou_detail_004_kani=true&JigyosyoCd=1092700069-00&ServiceCd=320&Type=search" }, "geometry": { "type": "Point", "coordinates": [ 138.982860800000026, 36.7410602 ] } },
{ "type": "Feature", "properties": { "内容": "グループホーム　タマメディカル五料【認知症対応型共同生活介護】群馬県佐波郡玉村町五料２９９", "url2": "https://www.kaigokensaku.mhlw.go.jp/10/index.php?action_kouhyou_detail_004_kani=true&JigyosyoCd=1092800034-00&ServiceCd=320&Type=search" }, "geometry": { "type": "Point", "coordinates": [ 139.1583372, 36.286332 ] } },
{ "type": "Feature", "properties": { "内容": "グループホームたまむら　やすらぎの家【認知症対応型共同生活介護】群馬県佐波郡玉村町福島81-2", "url2": "https://www.kaigokensaku.mhlw.go.jp/10/index.php?action_kouhyou_detail_004_kani=true&JigyosyoCd=1072800533-00&ServiceCd=320&Type=search" }, "geometry": { "type": "Point", "coordinates": [ 139.115792863893148, 36.309750993448354 ] } },
{ "type": "Feature", "properties": { "内容": "めぐグループホーム板倉【認知症対応型共同生活介護】群馬県邑楽郡板倉町大高嶋1733番地", "url2": "https://www.kaigokensaku.mhlw.go.jp/10/index.php?action_kouhyou_detail_004_kani=true&JigyosyoCd=1093100145-00&ServiceCd=320&Type=search" }, "geometry": { "type": "Point", "coordinates": [ 139.61729349999996, 36.2065955 ] } },
{ "type": "Feature", "properties": { "内容": "グループホームりんどう【認知症対応型共同生活介護】群馬県邑楽郡板倉町細谷２０２", "url2": "https://www.kaigokensaku.mhlw.go.jp/10/index.php?action_kouhyou_detail_004_kani=true&JigyosyoCd=1073100545-00&ServiceCd=320&Type=search" }, "geometry": { "type": "Point", "coordinates": [ 139.625676699999985, 36.2490695 ] } },
{ "type": "Feature", "properties": { "内容": "グループホーム　おひさま【認知症対応型共同生活介護】群馬県邑楽郡板倉町板倉2966番40", "url2": "https://www.kaigokensaku.mhlw.go.jp/10/index.php?action_kouhyou_detail_004_kani=true&JigyosyoCd=1093100103-00&ServiceCd=320&Type=search" }, "geometry": { "type": "Point", "coordinates": [ 139.603050918385293, 36.231061814024841 ] } },
{ "type": "Feature", "properties": { "内容": "グループホームめいわ【認知症対応型共同生活介護】群馬県明和町新里352", "url2": "https://www.kaigokensaku.mhlw.go.jp/10/index.php?action_kouhyou_detail_004_kani=true&JigyosyoCd=1093100129-00&ServiceCd=320&Type=search" }, "geometry": { "type": "Point", "coordinates": [ 139.539958214622516, 36.209074328279769 ] } },
{ "type": "Feature", "properties": { "内容": "めいわCOMハウス　グループホーム【認知症対応型共同生活介護】群馬県邑楽郡明和町大輪１７６８", "url2": "https://www.kaigokensaku.mhlw.go.jp/10/index.php?action_kouhyou_detail_004_kani=true&JigyosyoCd=1093100012-00&ServiceCd=320&Type=search" }, "geometry": { "type": "Point", "coordinates": [ 139.493119, 36.1970465 ] } },
{ "type": "Feature", "properties": { "内容": "グループホーム　マゼンタ【認知症対応型共同生活介護】群馬県邑楽郡大泉町寄木戸106", "url2": "https://www.kaigokensaku.mhlw.go.jp/10/index.php?action_kouhyou_detail_004_kani=true&JigyosyoCd=1073100420-00&ServiceCd=320&Type=search" }, "geometry": { "type": "Point", "coordinates": [ 139.38697209999998, 36.2470237 ] } },
{ "type": "Feature", "properties": { "内容": "グループホーム　ヴィラ【認知症対応型共同生活介護】群馬県邑楽郡邑楽町大字赤堀８", "url2": "https://www.kaigokensaku.mhlw.go.jp/10/index.php?action_kouhyou_detail_004_kani=true&JigyosyoCd=1073100446-00&ServiceCd=320&Type=search" }, "geometry": { "type": "Point", "coordinates": [ 139.479596600000036, 36.2269563 ] } },
{ "type": "Feature", "properties": { "内容": "つむぎの里　グループホーム【認知症対応型共同生活介護】群馬県邑楽郡邑楽町中野２２０４－7", "url2": "https://www.kaigokensaku.mhlw.go.jp/10/index.php?action_kouhyou_detail_004_kani=true&JigyosyoCd=1073100388-00&ServiceCd=320&Type=search" }, "geometry": { "type": "Point", "coordinates": [ 139.454520166131601, 36.260882178254704 ] } }
]
}
