{
"type": "FeatureCollection",
"name": "geo_10_地域密着型介護老人福祉施設入所者生活介護",
"crs": { "type": "name", "properties": { "name": "urn:ogc:def:crs:OGC:1.3:CRS84" } },
"features": [
{ "type": "Feature", "properties": { "内容": "特別養護老人ホームせきね園ユニット【地域密着型介護老人福祉施設入所者生活介護】群馬県前橋市関根町668番地", "url": "https://www.kaigokensaku.mhlw.go.jp/10/index.php?action_kouhyou_detail_004_kani=true&JigyosyoCd=1090100429-00&ServiceCd=540&Type=search", "url2": "http://sekineen-mizuhokai.or,jp" }, "geometry": { "type": "Point", "coordinates": [ 139.046182700000031, 36.4381659 ] } },
{ "type": "Feature", "properties": { "内容": "ユニット清里荘【地域密着型介護老人福祉施設入所者生活介護】群馬県前橋市青梨子町503番地", "url": "https://www.kaigokensaku.mhlw.go.jp/10/index.php?action_kouhyou_detail_004_kani=true&JigyosyoCd=1090100387-00&ServiceCd=540&Type=search", "url2": "www.kiyosatosou.jp" }, "geometry": { "type": "Point", "coordinates": [ 139.016675699999951, 36.4134354 ] } },
{ "type": "Feature", "properties": { "内容": "特別養護老人ホーム　グランオー前橋【地域密着型介護老人福祉施設入所者生活介護】群馬県前橋市千代田町5丁目17－5", "url": "https://www.kaigokensaku.mhlw.go.jp/10/index.php?action_kouhyou_detail_004_kani=true&JigyosyoCd=1090100866-00&ServiceCd=540&Type=search", "url2": "https://hotakakai.or.jp" }, "geometry": { "type": "Point", "coordinates": [ 139.072557100000012, 36.3923339 ] } },
{ "type": "Feature", "properties": { "内容": "地域密着型介護老人福祉施設あじさい園(ユニット型)【地域密着型介護老人福祉施設入所者生活介護】群馬県前橋市川曲町536番地", "url": "https://www.kaigokensaku.mhlw.go.jp/10/index.php?action_kouhyou_detail_004_kani=true&JigyosyoCd=1090100445-00&ServiceCd=540&Type=search", "url2": "http://www.ajisaien.jp" }, "geometry": { "type": "Point", "coordinates": [ 139.052271900000051, 36.3517165 ] } },
{ "type": "Feature", "properties": { "内容": "地域密着型　特別養護老人ホーム　あゆみの里【地域密着型介護老人福祉施設入所者生活介護】群馬県前橋市柏倉町2189-223", "url": "https://www.kaigokensaku.mhlw.go.jp/10/index.php?action_kouhyou_detail_004_kani=true&JigyosyoCd=1090100510-00&ServiceCd=540&Type=search", "url2": "http://miyagikai.jp/" }, "geometry": { "type": "Point", "coordinates": [ 139.171544400000016, 36.4608611 ] } },
{ "type": "Feature", "properties": { "内容": "地域密着型特別養護老人ホーム　ふじみのさと【地域密着型介護老人福祉施設入所者生活介護】群馬県前橋市富士見町小沢２０７番地１", "url": "https://www.kaigokensaku.mhlw.go.jp/10/index.php?action_kouhyou_detail_004_kani=true&JigyosyoCd=1090100395-00&ServiceCd=540&Type=search", "url2": "https://fujimi-kai.or.jp" }, "geometry": { "type": "Point", "coordinates": [ 139.085445400000026, 36.4535677 ] } },
{ "type": "Feature", "properties": { "内容": "特別養護老人ホームすみれ荘ユニット施設【地域密着型介護老人福祉施設入所者生活介護】群馬県前橋市富田町1180-1", "url": "https://www.kaigokensaku.mhlw.go.jp/10/index.php?action_kouhyou_detail_004_kani=true&JigyosyoCd=1090100403-00&ServiceCd=540&Type=search", "url2": "https://www.sumiresou.org" }, "geometry": { "type": "Point", "coordinates": [ 139.146308699999963, 36.3926945 ] } },
{ "type": "Feature", "properties": { "内容": "ほのぼの荘ユニット【地域密着型介護老人福祉施設入所者生活介護】群馬県前橋市金丸町252-1", "url": "https://www.kaigokensaku.mhlw.go.jp/10/index.php?action_kouhyou_detail_004_kani=true&JigyosyoCd=1090100411-00&ServiceCd=540&Type=search", "url2": "https://eijyukai.la.coocan.jp" }, "geometry": { "type": "Point", "coordinates": [ 139.125477300000057, 36.4684755 ] } },
{ "type": "Feature", "properties": { "内容": "特別養護老人ホーム　桜苑【地域密着型介護老人福祉施設入所者生活介護】群馬県高崎市引間町709番地", "url": "https://www.kaigokensaku.mhlw.go.jp/10/index.php?action_kouhyou_detail_004_kani=true&JigyosyoCd=1090201466-00&ServiceCd=540&Type=search", "url2": "https://www.tokuyousakuraen.com" }, "geometry": { "type": "Point", "coordinates": [ 139.009708, 36.3945472 ] } },
{ "type": "Feature", "properties": { "内容": "特別養護老人ホーム　ことりの郷【地域密着型介護老人福祉施設入所者生活介護】群馬県高崎市下小鳥町1234番地2複合福祉施設　ちから　あわせる　ことりむら", "url": "https://www.kaigokensaku.mhlw.go.jp/10/index.php?action_kouhyou_detail_004_kani=true&JigyosyoCd=1090201185-00&ServiceCd=540&Type=search", "url2": "http://www.syoukakukai.or.jp/" }, "geometry": { "type": "Point", "coordinates": [ 138.99871440000004, 36.3473808 ] } },
{ "type": "Feature", "properties": { "内容": "特別養護老人ホーム　ことりのはな【地域密着型介護老人福祉施設入所者生活介護】群馬県高崎市下小鳥町1234-2複合福祉施設　ちから　あわせる　ことりむら", "url": "https://www.kaigokensaku.mhlw.go.jp/10/index.php?action_kouhyou_detail_004_kani=true&JigyosyoCd=1090201292-00&ServiceCd=540&Type=search", "url2": "http://www.syoukakukai.or.jp/" }, "geometry": { "type": "Point", "coordinates": [ 138.998714400000011, 36.3473808 ] } },
{ "type": "Feature", "properties": { "内容": "セピアの郷【地域密着型介護老人福祉施設入所者生活介護】群馬県高崎市吉井町塩1147", "url": "https://www.kaigokensaku.mhlw.go.jp/10/index.php?action_kouhyou_detail_004_kani=true&JigyosyoCd=1090200617-00&ServiceCd=540&Type=search", "url2": "https://mitsukikai.com/" }, "geometry": { "type": "Point", "coordinates": [ 138.97206140000003, 36.2341664 ] } },
{ "type": "Feature", "properties": { "内容": "特別養護老人ホーム吉井の丘【地域密着型介護老人福祉施設入所者生活介護】群馬県高崎市吉井町岩崎2224-1", "url": "https://www.kaigokensaku.mhlw.go.jp/10/index.php?action_kouhyou_detail_004_kani=true&JigyosyoCd=1090201029-00&ServiceCd=540&Type=search", "url2": "http://mikinokai.com/yoshiinooka_index.php" }, "geometry": { "type": "Point", "coordinates": [ 138.990145, 36.2702566 ] } },
{ "type": "Feature", "properties": { "内容": "地域密着型特養　吉井の丘　2号館【地域密着型介護老人福祉施設入所者生活介護】群馬県高崎市吉井町岩崎2229ｰ1", "url": "https://www.kaigokensaku.mhlw.go.jp/10/index.php?action_kouhyou_detail_004_kani=true&JigyosyoCd=1090201136-00&ServiceCd=540&Type=search", "url2": "http://mikinokai.com/yoshiinookaindex.php" }, "geometry": { "type": "Point", "coordinates": [ 138.996293807845518, 36.28312610908084 ] } },
{ "type": "Feature", "properties": { "内容": "特別養護老人ホーム敬愛【地域密着型介護老人福祉施設入所者生活介護】群馬県高崎市吉井町岩崎2316-7", "url": "https://www.kaigokensaku.mhlw.go.jp/10/index.php?action_kouhyou_detail_004_kani=true&JigyosyoCd=1090200781-00&ServiceCd=540&Type=search", "url2": "http://yoshii-ki.com/index.php" }, "geometry": { "type": "Point", "coordinates": [ 138.9798902, 36.26851 ] } },
{ "type": "Feature", "properties": { "内容": "特別養護老人ホーム高崎馬庭【地域密着型介護老人福祉施設入所者生活介護】群馬県高崎市吉井町馬庭2385-4", "url": "https://www.kaigokensaku.mhlw.go.jp/10/index.php?action_kouhyou_detail_004_kani=true&JigyosyoCd=1090200815-00&ServiceCd=540&Type=search", "url2": "http://care-net.biz/11/kamiyu/" }, "geometry": { "type": "Point", "coordinates": [ 139.003885994689853, 36.270518955061078 ] } },
{ "type": "Feature", "properties": { "内容": "特別養護老人ホーム　恵峰園【地域密着型介護老人福祉施設入所者生活介護】群馬県高崎市京目町1632番地1", "url": "https://www.kaigokensaku.mhlw.go.jp/10/index.php?action_kouhyou_detail_004_kani=true&JigyosyoCd=1090200575-00&ServiceCd=540&Type=search", "url2": "https://www.keihouen.or.jp" }, "geometry": { "type": "Point", "coordinates": [ 139.053777133204676, 36.348301720657965 ] } },
{ "type": "Feature", "properties": { "内容": "特別養護老人ホーム南八幡友の家【地域密着型介護老人福祉施設入所者生活介護】群馬県高崎市山名町150番地1", "url": "https://www.kaigokensaku.mhlw.go.jp/10/index.php?action_kouhyou_detail_004_kani=true&JigyosyoCd=1090200831-00&ServiceCd=540&Type=search", "url2": null }, "geometry": { "type": "Point", "coordinates": [ 139.040041800000012, 36.2800067 ] } },
{ "type": "Feature", "properties": { "内容": "特別養護老人ホーム　キートス山名【地域密着型介護老人福祉施設入所者生活介護】群馬県高崎市山名町838番地1", "url": "https://www.kaigokensaku.mhlw.go.jp/10/index.php?action_kouhyou_detail_004_kani=true&JigyosyoCd=1090201169-00&ServiceCd=540&Type=search", "url2": "http://www.keikokai.or.jp" }, "geometry": { "type": "Point", "coordinates": [ 139.039894223806328, 36.272204492576797 ] } },
{ "type": "Feature", "properties": { "内容": "特別養護老人ホームシェステさとの花別邸陽【地域密着型介護老人福祉施設入所者生活介護】群馬県高崎市乗附町208番地", "url": "https://www.kaigokensaku.mhlw.go.jp/10/index.php?action_kouhyou_detail_004_kani=true&JigyosyoCd=1090200690-00&ServiceCd=540&Type=search", "url2": "satonohana.sakura.ne.jp" }, "geometry": { "type": "Point", "coordinates": [ 138.98107559999994, 36.326811 ] } },
{ "type": "Feature", "properties": { "内容": "特別養護老人ホームシェステさとの花別邸紫【地域密着型介護老人福祉施設入所者生活介護】群馬県高崎市乗附町２０８番地", "url": "https://www.kaigokensaku.mhlw.go.jp/10/index.php?action_kouhyou_detail_004_kani=true&JigyosyoCd=1090201011-00&ServiceCd=540&Type=search", "url2": "https://satonohana.wixsite.com/satonohana" }, "geometry": { "type": "Point", "coordinates": [ 138.980989499999964, 36.3268888 ] } },
{ "type": "Feature", "properties": { "内容": "特別養護老人ホームさくら寮【地域密着型介護老人福祉施設入所者生活介護】群馬県高崎市新町1830-1特別養護老人ホームさくら寮", "url": "https://www.kaigokensaku.mhlw.go.jp/10/index.php?action_kouhyou_detail_004_kani=true&JigyosyoCd=1090200989-00&ServiceCd=540&Type=search", "url2": "http://www.genkimura.or.jp/" }, "geometry": { "type": "Point", "coordinates": [ 139.1050156, 36.261110400000014 ] } },
{ "type": "Feature", "properties": { "内容": "地域密着型特別養護老人ホーム高風園「そめやの里」【地域密着型介護老人福祉施設入所者生活介護】群馬県高崎市新保町９９３番地東村　番地　　南村　番地", "url": "https://www.kaigokensaku.mhlw.go.jp/10/index.php?action_kouhyou_detail_004_kani=true&JigyosyoCd=1090200591-00&ServiceCd=540&Type=search", "url2": "https://gswc-sf.org/kofuen-someyanosato/" }, "geometry": { "type": "Point", "coordinates": [ 139.042689500000051, 36.3490276 ] } },
{ "type": "Feature", "properties": { "内容": "地域密着型特別養護老人ホーム　誠の園【地域密着型介護老人福祉施設入所者生活介護】群馬県高崎市中室田町２１０９", "url": "https://www.kaigokensaku.mhlw.go.jp/10/index.php?action_kouhyou_detail_004_kani=true&JigyosyoCd=1090200625-00&ServiceCd=540&Type=search", "url2": "http://www.sinseikai.org/" }, "geometry": { "type": "Point", "coordinates": [ 138.860242504368529, 36.394691009594254 ] } },
{ "type": "Feature", "properties": { "内容": "特別養護老人ホーム寿楽園【地域密着型介護老人福祉施設入所者生活介護】群馬県高崎市田町71", "url": "https://www.kaigokensaku.mhlw.go.jp/10/index.php?action_kouhyou_detail_004_kani=true&JigyosyoCd=1090200955-00&ServiceCd=540&Type=search", "url2": "https://www.tenkaien.or.jp/" }, "geometry": { "type": "Point", "coordinates": [ 139.007335204601986, 36.32558903294688 ] } },
{ "type": "Feature", "properties": { "内容": "特別養護老人ホームはなかがり【地域密着型介護老人福祉施設入所者生活介護】群馬県高崎市棟高町1009-1", "url": "https://www.kaigokensaku.mhlw.go.jp/10/index.php?action_kouhyou_detail_004_kani=true&JigyosyoCd=1090200997-00&ServiceCd=540&Type=search", "url2": "https://kokufukai.jp" }, "geometry": { "type": "Point", "coordinates": [ 139.00424827469277, 36.398245359476846 ] } },
{ "type": "Feature", "properties": { "内容": "特別養護老人ホームよろこび【地域密着型介護老人福祉施設入所者生活介護】群馬県高崎市棟高町1010-2", "url": "https://www.kaigokensaku.mhlw.go.jp/10/index.php?action_kouhyou_detail_004_kani=true&JigyosyoCd=1090201276-00&ServiceCd=540&Type=search", "url2": "https://kokufukai.jp" }, "geometry": { "type": "Point", "coordinates": [ 139.00475727869329, 36.398509218396406 ] } },
{ "type": "Feature", "properties": { "内容": "社会福祉法人健生会特別養護老人ホーム高崎花の苑３号館【地域密着型介護老人福祉施設入所者生活介護】群馬県高崎市日高町419", "url": "https://www.kaigokensaku.mhlw.go.jp/10/index.php?action_kouhyou_detail_004_kani=true&JigyosyoCd=1090200930-00&ServiceCd=540&Type=search", "url2": "http://www.hidaka-kai.com/hananosono/facility/takasaki.html" }, "geometry": { "type": "Point", "coordinates": [ 139.030639559524474, 36.361976104812527 ] } },
{ "type": "Feature", "properties": { "内容": "社会福祉法人健生会　特別養護老人ホーム高崎花の苑【地域密着型介護老人福祉施設入所者生活介護】群馬県高崎市日高町433-1", "url": "https://www.kaigokensaku.mhlw.go.jp/10/index.php?action_kouhyou_detail_004_kani=true&JigyosyoCd=1090200633-00&ServiceCd=540&Type=search", "url2": "http://www.hidaka-kai.com/hananosono/facility/takasaki.html" }, "geometry": { "type": "Point", "coordinates": [ 139.030579230821019, 36.361844108381085 ] } },
{ "type": "Feature", "properties": { "内容": "社会福祉法人健生会特別養護老人ホーム高崎花の苑2号館【地域密着型介護老人福祉施設入所者生活介護】群馬県高崎市日高町433-1", "url": "https://www.kaigokensaku.mhlw.go.jp/10/index.php?action_kouhyou_detail_004_kani=true&JigyosyoCd=1090200757-00&ServiceCd=540&Type=search", "url2": "http://www.hidaka-kai.com/hananosono/facility/takasaki.html" }, "geometry": { "type": "Point", "coordinates": [ 139.03052802275397, 36.361801936352471 ] } },
{ "type": "Feature", "properties": { "内容": "特別養護老人ホームモデラート【地域密着型介護老人福祉施設入所者生活介護】群馬県高崎市八幡原町1009-30", "url": "https://www.kaigokensaku.mhlw.go.jp/10/index.php?action_kouhyou_detail_004_kani=true&JigyosyoCd=1090200856-00&ServiceCd=540&Type=search", "url2": "http://www.youzan.jp/" }, "geometry": { "type": "Point", "coordinates": [ 139.090957561515779, 36.296415519627246 ] } },
{ "type": "Feature", "properties": { "内容": "特別養護老人ホームアダージオ【地域密着型介護老人福祉施設入所者生活介護】群馬県高崎市八幡原町1009-31", "url": "https://www.kaigokensaku.mhlw.go.jp/10/index.php?action_kouhyou_detail_004_kani=true&JigyosyoCd=1090201003-00&ServiceCd=540&Type=search", "url2": "http://www.youzan.jp/" }, "geometry": { "type": "Point", "coordinates": [ 139.090859240475424, 36.296957734044113 ] } },
{ "type": "Feature", "properties": { "内容": "特別養護老人ホームアンダンテ【地域密着型介護老人福祉施設入所者生活介護】群馬県高崎市八幡町７６８－１", "url": "https://www.kaigokensaku.mhlw.go.jp/10/index.php?action_kouhyou_detail_004_kani=true&JigyosyoCd=1090200740-00&ServiceCd=540&Type=search", "url2": "http://www.youzan.jp/" }, "geometry": { "type": "Point", "coordinates": [ 138.944881200000026, 36.3386626 ] } },
{ "type": "Feature", "properties": { "内容": "特別養護老人ホームほたる【地域密着型介護老人福祉施設入所者生活介護】群馬県高崎市浜川町36番地", "url": "https://www.kaigokensaku.mhlw.go.jp/10/index.php?action_kouhyou_detail_004_kani=true&JigyosyoCd=1090201086-00&ServiceCd=540&Type=search", "url2": "http//sirius.or.jp/" }, "geometry": { "type": "Point", "coordinates": [ 138.977918940614359, 36.36034872476931 ] } },
{ "type": "Feature", "properties": { "内容": "特別養護老人ホーム森の小径【地域密着型介護老人福祉施設入所者生活介護】群馬県高崎市浜川町836-2", "url": "https://www.kaigokensaku.mhlw.go.jp/10/index.php?action_kouhyou_detail_004_kani=true&JigyosyoCd=1090200583-00&ServiceCd=540&Type=search", "url2": "https://erin-takasaki.com/" }, "geometry": { "type": "Point", "coordinates": [ 138.9826405, 36.3741816 ] } },
{ "type": "Feature", "properties": { "内容": "特別養護老人ホームみのわの里三山【地域密着型介護老人福祉施設入所者生活介護】群馬県高崎市箕郷町東明屋394", "url": "https://www.kaigokensaku.mhlw.go.jp/10/index.php?action_kouhyou_detail_004_kani=true&JigyosyoCd=1090201342-00&ServiceCd=540&Type=search", "url2": "https://www.miyamag.com/tokuyou" }, "geometry": { "type": "Point", "coordinates": [ 138.9568165, 36.4064425 ] } },
{ "type": "Feature", "properties": { "内容": "地域密着型特別養護老人ホーム泉の園【地域密着型介護老人福祉施設入所者生活介護】群馬県高崎市箕郷町矢原12番地1", "url": "https://www.kaigokensaku.mhlw.go.jp/10/index.php?action_kouhyou_detail_004_kani=true&JigyosyoCd=1090201078-00&ServiceCd=540&Type=search", "url2": "http://www.izuminosono.com" }, "geometry": { "type": "Point", "coordinates": [ 138.962777800000026, 36.3972831 ] } },
{ "type": "Feature", "properties": { "内容": "地域密着型特別養護老人ホーム　ふるさと【地域密着型介護老人福祉施設入所者生活介護】群馬県高崎市綿貫町１３６９番地", "url": "https://www.kaigokensaku.mhlw.go.jp/10/index.php?action_kouhyou_detail_004_kani=true&JigyosyoCd=1090200666-00&ServiceCd=540&Type=search", "url2": "http://yume-furusato.or.jp/" }, "geometry": { "type": "Point", "coordinates": [ 139.081381800000031, 36.3053142 ] } },
{ "type": "Feature", "properties": { "内容": "地域密着型特別養護老人ホーム　第二明生苑　やよい【地域密着型介護老人福祉施設入所者生活介護】群馬県高崎市矢中町1098－1", "url": "https://www.kaigokensaku.mhlw.go.jp/10/index.php?action_kouhyou_detail_004_kani=true&JigyosyoCd=1090200534-00&ServiceCd=540&Type=search", "url2": "http://meiseien.net/publics/index/13/" }, "geometry": { "type": "Point", "coordinates": [ 139.050575255082322, 36.305620067075111 ] } },
{ "type": "Feature", "properties": { "内容": "小規模特別養護老人ホーム双樹園【地域密着型介護老人福祉施設入所者生活介護】群馬県高崎市和田町8-16", "url": "https://www.kaigokensaku.mhlw.go.jp/10/index.php?action_kouhyou_detail_004_kani=true&JigyosyoCd=1090200393-00&ServiceCd=540&Type=search", "url2": "https://www.tenkaien.or.jp/" }, "geometry": { "type": "Point", "coordinates": [ 139.011815399999932, 36.3166036 ] } },
{ "type": "Feature", "properties": { "内容": "地域密着型特別養護老人ホーム　ユートピア広沢【地域密着型介護老人福祉施設入所者生活介護】群馬県桐生市広沢町６－３０７－３", "url": "https://www.kaigokensaku.mhlw.go.jp/10/index.php?action_kouhyou_detail_004_kani=true&JigyosyoCd=1090300284-00&ServiceCd=540&Type=search", "url2": "http://www.houchikai.or.jp" }, "geometry": { "type": "Point", "coordinates": [ 139.359239800000068, 36.3713938 ] } },
{ "type": "Feature", "properties": { "内容": "地域密着型特別養護老人ホームしみずの里（ユニット型）【地域密着型介護老人福祉施設入所者生活介護】群馬県桐生市黒保根町下田沢2565-1", "url": "https://www.kaigokensaku.mhlw.go.jp/10/index.php?action_kouhyou_detail_004_kani=true&JigyosyoCd=1090300292-00&ServiceCd=540&Type=search", "url2": "http://taiwakai.com" }, "geometry": { "type": "Point", "coordinates": [ 139.276081799999929, 36.5101374 ] } },
{ "type": "Feature", "properties": { "内容": "地域密着型　特別養護老人ホーム　瀬々らぎの里【地域密着型介護老人福祉施設入所者生活介護】群馬県桐生市梅田町１丁目724番地1", "url": "https://www.kaigokensaku.mhlw.go.jp/10/index.php?action_kouhyou_detail_004_kani=true&JigyosyoCd=1090300219-00&ServiceCd=540&Type=search", "url2": "https://www.seseraginosato.jp" }, "geometry": { "type": "Point", "coordinates": [ 139.36615269999993, 36.4474246 ] } },
{ "type": "Feature", "properties": { "内容": "小規模特別養護老人ホームいせさき【地域密着型介護老人福祉施設入所者生活介護】群馬県伊勢崎市境上武士６０３番地３", "url": "https://www.kaigokensaku.mhlw.go.jp/10/index.php?action_kouhyou_detail_004_kani=true&JigyosyoCd=1090400290-00&ServiceCd=540&Type=search", "url2": "http://nagomikai-isesaki.jp/" }, "geometry": { "type": "Point", "coordinates": [ 139.229822519331037, 36.28184478355292 ] } },
{ "type": "Feature", "properties": { "内容": "特別養護老人ホームサルビア荘（ユニット型）【地域密着型介護老人福祉施設入所者生活介護】群馬県伊勢崎市国定町二丁目２３４５", "url": "https://www.kaigokensaku.mhlw.go.jp/10/index.php?action_kouhyou_detail_004_kani=true&JigyosyoCd=1090400209-00&ServiceCd=540&Type=search", "url2": "http://sarubiasou.com" }, "geometry": { "type": "Point", "coordinates": [ 139.2353501, 36.3630705 ] } },
{ "type": "Feature", "properties": { "内容": "ゆたか（ユニット型地域密着型特別養護老人ホーム）【地域密着型介護老人福祉施設入所者生活介護】群馬県伊勢崎市馬見塚町1196-1", "url": "https://www.kaigokensaku.mhlw.go.jp/10/index.php?action_kouhyou_detail_004_kani=true&JigyosyoCd=1090400191-00&ServiceCd=540&Type=search", "url2": "http://www.yutaka-isesaki.com" }, "geometry": { "type": "Point", "coordinates": [ 139.211992199999941, 36.2727246 ] } },
{ "type": "Feature", "properties": { "内容": "ユニット型特別養護老人ホームみづほの里【地域密着型介護老人福祉施設入所者生活介護】群馬県太田市牛沢町156-1", "url": "https://www.kaigokensaku.mhlw.go.jp/10/index.php?action_kouhyou_detail_004_kani=true&JigyosyoCd=1090500370-00&ServiceCd=540&Type=search", "url2": "http://www.gunma-doujinkai.or.jp/" }, "geometry": { "type": "Point", "coordinates": [ 139.358120399999962, 36.2620196 ] } },
{ "type": "Feature", "properties": { "内容": "特別養護老人ホームはぴねす【地域密着型介護老人福祉施設入所者生活介護】群馬県太田市高林南町283番地25特別養護老人ホームはぴねす", "url": "https://www.kaigokensaku.mhlw.go.jp/10/index.php?action_kouhyou_detail_004_kani=true&JigyosyoCd=1090500602-00&ServiceCd=540&Type=search", "url2": null }, "geometry": { "type": "Point", "coordinates": [ 139.371296542015557, 36.252937275525241 ] } },
{ "type": "Feature", "properties": { "内容": "特別養護老人ホームゆう愛【地域密着型介護老人福祉施設入所者生活介護】群馬県太田市寺井町５６５", "url": "https://www.kaigokensaku.mhlw.go.jp/10/index.php?action_kouhyou_detail_004_kani=true&JigyosyoCd=1090500065-00&ServiceCd=540&Type=search", "url2": "http://www.gunma-doujinkai.or.jp" }, "geometry": { "type": "Point", "coordinates": [ 139.33571470000004, 36.3255955 ] } },
{ "type": "Feature", "properties": { "内容": "特別養護老人ホームいちの倉【地域密着型介護老人福祉施設入所者生活介護】群馬県太田市新田市野倉町220-21", "url": "https://www.kaigokensaku.mhlw.go.jp/10/index.php?action_kouhyou_detail_004_kani=true&JigyosyoCd=1090500222-00&ServiceCd=540&Type=search", "url2": "http://www.plaisir.or.jp/" }, "geometry": { "type": "Point", "coordinates": [ 139.310877600000026, 36.3321808 ] } },
{ "type": "Feature", "properties": { "内容": "特別養護老人ホーム　愛光園ユニット【地域密着型介護老人福祉施設入所者生活介護】群馬県太田市新田上江田町1513-1", "url": "https://www.kaigokensaku.mhlw.go.jp/10/index.php?action_kouhyou_detail_004_kani=true&JigyosyoCd=1090500719-00&ServiceCd=540&Type=search", "url2": "https://www.aikokai.com/" }, "geometry": { "type": "Point", "coordinates": [ 139.2851332, 36.3016913 ] } },
{ "type": "Feature", "properties": { "内容": "地域密着型特別養護老人ホーム　さくらの里【地域密着型介護老人福祉施設入所者生活介護】群馬県太田市新田町中江田1082-1", "url": "https://www.kaigokensaku.mhlw.go.jp/10/index.php?action_kouhyou_detail_004_kani=true&JigyosyoCd=1090500701-00&ServiceCd=540&Type=search", "url2": "https://keiyuukai-sakura.or.jp/" }, "geometry": { "type": "Point", "coordinates": [ 139.294461166660966, 36.280042431846041 ] } },
{ "type": "Feature", "properties": { "内容": "特別養護老人ホーム太田いずみの里【地域密着型介護老人福祉施設入所者生活介護】群馬県太田市東今泉町６８６太田いずみの里", "url": "https://www.kaigokensaku.mhlw.go.jp/10/index.php?action_kouhyou_detail_004_kani=true&JigyosyoCd=1090500339-00&ServiceCd=540&Type=search", "url2": null }, "geometry": { "type": "Point", "coordinates": [ 139.38518369999997, 36.3267491 ] } },
{ "type": "Feature", "properties": { "内容": "特別養護老人ホーム毛里田【地域密着型介護老人福祉施設入所者生活介護】群馬県太田市矢田堀町361-1", "url": "https://www.kaigokensaku.mhlw.go.jp/10/index.php?action_kouhyou_detail_004_kani=true&JigyosyoCd=1090500529-00&ServiceCd=540&Type=search", "url2": "https://www.morita-mutsumikai.com/welfare/" }, "geometry": { "type": "Point", "coordinates": [ 139.378624962704407, 36.33788181856012 ] } },
{ "type": "Feature", "properties": { "内容": "特別養護老人ホームゆらの里にこにこホーム【地域密着型介護老人福祉施設入所者生活介護】群馬県太田市由良町104番地の7", "url": "https://www.kaigokensaku.mhlw.go.jp/10/index.php?action_kouhyou_detail_004_kani=true&JigyosyoCd=1090500172-00&ServiceCd=540&Type=search", "url2": null }, "geometry": { "type": "Point", "coordinates": [ 139.350572599999964, 36.2860613 ] } },
{ "type": "Feature", "properties": { "内容": "特別養護老人ホームききょうの里ユニット型【地域密着型介護老人福祉施設入所者生活介護】群馬県沼田市横塚町９５７番地２", "url": "https://www.kaigokensaku.mhlw.go.jp/10/index.php?action_kouhyou_detail_004_kani=true&JigyosyoCd=1090600121-00&ServiceCd=540&Type=search", "url2": "https://www.kikyou.or.jp" }, "geometry": { "type": "Point", "coordinates": [ 139.100255, 36.6712937 ] } },
{ "type": "Feature", "properties": { "内容": "菜の花館本町通り【地域密着型介護老人福祉施設入所者生活介護】群馬県沼田市上之町１１４９番地", "url": "https://www.kaigokensaku.mhlw.go.jp/10/index.php?action_kouhyou_detail_004_kani=true&JigyosyoCd=1090600212-00&ServiceCd=540&Type=search", "url2": "https://kijokai.or.jp/nanohanakan-honchodori/" }, "geometry": { "type": "Point", "coordinates": [ 139.046613400000069, 36.6448522 ] } },
{ "type": "Feature", "properties": { "内容": "地域密着型特別養護老人ホームとね虹の里【地域密着型介護老人福祉施設入所者生活介護】群馬県沼田市東原新町1855番地1", "url": "https://www.kaigokensaku.mhlw.go.jp/10/index.php?action_kouhyou_detail_004_kani=true&JigyosyoCd=1090600204-00&ServiceCd=540&Type=search", "url2": "https://toneniji.or.jp" }, "geometry": { "type": "Point", "coordinates": [ 139.053732099999934, 36.6482159 ] } },
{ "type": "Feature", "properties": { "内容": "菜の花館園原【地域密着型介護老人福祉施設入所者生活介護】群馬県沼田市利根町園原870", "url": "https://www.kaigokensaku.mhlw.go.jp/10/index.php?action_kouhyou_detail_004_kani=true&JigyosyoCd=1092700028-00&ServiceCd=540&Type=search", "url2": "https://ssl.kijokai.or.jp/nanohanakan-sonohara/" }, "geometry": { "type": "Point", "coordinates": [ 139.184309, 36.656118700000015 ] } },
{ "type": "Feature", "properties": { "内容": "特別養護老人ホームニコアス【地域密着型介護老人福祉施設入所者生活介護】群馬県館林市苗木町２５７８－７", "url": "https://www.kaigokensaku.mhlw.go.jp/10/index.php?action_kouhyou_detail_004_kani=true&JigyosyoCd=1090700160-00&ServiceCd=540&Type=search", "url2": "http://matsubanokai.jp" }, "geometry": { "type": "Point", "coordinates": [ 139.497510828172295, 36.231261127768846 ] } },
{ "type": "Feature", "properties": { "内容": "特別養護老人ホーム鏑泉苑ユニット【地域密着型介護老人福祉施設入所者生活介護】群馬県富岡市下高瀬724番地", "url": "https://www.kaigokensaku.mhlw.go.jp/10/index.php?action_kouhyou_detail_004_kani=true&JigyosyoCd=1091000040-00&ServiceCd=540&Type=search", "url2": "https://www.keisaikai.com/" }, "geometry": { "type": "Point", "coordinates": [ 138.886503, 36.2421844 ] } },
{ "type": "Feature", "properties": { "内容": "サテライト天の間園【地域密着型介護老人福祉施設入所者生活介護】群馬県富岡市上高瀬1390サテライト天の間園", "url": "https://www.kaigokensaku.mhlw.go.jp/10/index.php?action_kouhyou_detail_004_kani=true&JigyosyoCd=1091000065-00&ServiceCd=540&Type=search", "url2": "https://amanomaen.coresv.com/" }, "geometry": { "type": "Point", "coordinates": [ 138.8739584, 36.2471782 ] } },
{ "type": "Feature", "properties": { "内容": "特別養護老人ホームうすいの里ユニット型【地域密着型介護老人福祉施設入所者生活介護】群馬県安中市松井田町高梨子1491－1", "url": "https://www.kaigokensaku.mhlw.go.jp/10/index.php?action_kouhyou_detail_004_kani=true&JigyosyoCd=1091100147-00&ServiceCd=540&Type=search", "url2": "https://www.usuinosato.com" }, "geometry": { "type": "Point", "coordinates": [ 138.795482, 36.3298489 ] } },
{ "type": "Feature", "properties": { "内容": "特別養護老人ホームしづの想い【地域密着型介護老人福祉施設入所者生活介護】群馬県安中市簗瀬１７５番１", "url": "https://www.kaigokensaku.mhlw.go.jp/10/index.php?action_kouhyou_detail_004_kani=true&JigyosyoCd=1091100261-00&ServiceCd=540&Type=search", "url2": "https://yanasefukusikai.com/" }, "geometry": { "type": "Point", "coordinates": [ 138.851992360572041, 36.306663658063215 ] } },
{ "type": "Feature", "properties": { "内容": "特別養護老人ホームプロヴァンス笠懸【地域密着型介護老人福祉施設入所者生活介護】群馬県みどり市笠懸町阿左美500-3", "url": "https://www.kaigokensaku.mhlw.go.jp/10/index.php?action_kouhyou_detail_004_kani=true&JigyosyoCd=1091200046-00&ServiceCd=540&Type=search", "url2": "http://www.yuuikai.jp" }, "geometry": { "type": "Point", "coordinates": [ 139.299251395739674, 36.374703729604335 ] } },
{ "type": "Feature", "properties": { "内容": "特別養護老人ホームいずみ【地域密着型介護老人福祉施設入所者生活介護】群馬県みどり市笠懸町久宮300番地", "url": "https://www.kaigokensaku.mhlw.go.jp/10/index.php?action_kouhyou_detail_004_kani=true&JigyosyoCd=1091200061-00&ServiceCd=540&Type=search", "url2": "http//kotobukikai.or.jp" }, "geometry": { "type": "Point", "coordinates": [ 139.280145800000014, 36.3789286 ] } },
{ "type": "Feature", "properties": { "内容": "地域密着型小規模特別養護老人ホームかのか【地域密着型介護老人福祉施設入所者生活介護】群馬県甘楽郡南牧村大字小沢1247", "url": "https://www.kaigokensaku.mhlw.go.jp/10/index.php?action_kouhyou_detail_004_kani=true&JigyosyoCd=1092400074-00&ServiceCd=540&Type=search", "url2": null }, "geometry": { "type": "Point", "coordinates": [ 138.751027370011684, 36.188660897821229 ] } },
{ "type": "Feature", "properties": { "内容": "地域密着型特別養護老人ホーム　シルク・ゆにっと【地域密着型介護老人福祉施設入所者生活介護】群馬県甘楽郡甘楽町白倉1384-1", "url": "https://www.kaigokensaku.mhlw.go.jp/10/index.php?action_kouhyou_detail_004_kani=true&JigyosyoCd=1092400058-00&ServiceCd=540&Type=search", "url2": "https://www.kanrakai-silk.or.jp" }, "geometry": { "type": "Point", "coordinates": [ 138.934550700000045, 36.2426733 ] } },
{ "type": "Feature", "properties": { "内容": "特別養護老人ホームひだまりの森白樺荘(ユニット型)【地域密着型介護老人福祉施設入所者生活介護】群馬県吾妻郡嬬恋村大字田代938－8", "url": "https://www.kaigokensaku.mhlw.go.jp/10/index.php?action_kouhyou_detail_004_kani=true&JigyosyoCd=1092600095-00&ServiceCd=540&Type=search", "url2": "www.nodoka.or.jp" }, "geometry": { "type": "Point", "coordinates": [ 138.461639099999957, 36.4843484 ] } },
{ "type": "Feature", "properties": { "内容": "地域密着型特別養護老人ホーム中山の郷【地域密着型介護老人福祉施設入所者生活介護】群馬県吾妻郡高山村大字中山2715番地11中山の郷", "url": "https://www.kaigokensaku.mhlw.go.jp/10/index.php?action_kouhyou_detail_004_kani=true&JigyosyoCd=1092600160-00&ServiceCd=540&Type=search", "url2": "http://www.nishimine.jp/" }, "geometry": { "type": "Point", "coordinates": [ 138.951940199999967, 36.6226336 ] } },
{ "type": "Feature", "properties": { "内容": "小規模特別養護老人ホームすいせんの里【地域密着型介護老人福祉施設入所者生活介護】群馬県吾妻郡東吾妻町大字原町３９", "url": "https://www.kaigokensaku.mhlw.go.jp/10/index.php?action_kouhyou_detail_004_kani=true&JigyosyoCd=1092600079-00&ServiceCd=540&Type=search", "url2": "http//www12.wind.ne.jp/harukaze/index.html" }, "geometry": { "type": "Point", "coordinates": [ 138.835273005371164, 36.578870602422448 ] } },
{ "type": "Feature", "properties": { "内容": "地域密着型特別養護老人ホーム桜花苑きらり【地域密着型介護老人福祉施設入所者生活介護】群馬県利根郡片品村大字摺渕340番地", "url": "https://www.kaigokensaku.mhlw.go.jp/10/index.php?action_kouhyou_detail_004_kani=true&JigyosyoCd=1092700093-00&ServiceCd=540&Type=search", "url2": "https://oukaen.wixsite.com/ozetyoujukai" }, "geometry": { "type": "Point", "coordinates": [ 139.221533499999964, 36.7375397 ] } },
{ "type": "Feature", "properties": { "内容": "特別養護老人ホーム　川場春光園（ユニット型）【地域密着型介護老人福祉施設入所者生活介護】群馬県利根郡川場村大字生品1861番地", "url": "https://www.kaigokensaku.mhlw.go.jp/10/index.php?action_kouhyou_detail_004_kani=true&JigyosyoCd=1092700077-00&ServiceCd=540&Type=search", "url2": "https://hotakakai.or.jp/facilities/kawaba-s/" }, "geometry": { "type": "Point", "coordinates": [ 139.077473967459127, 36.667853095594737 ] } },
{ "type": "Feature", "properties": { "内容": "地域密着型特別養護老人ホームあさひ【地域密着型介護老人福祉施設入所者生活介護】群馬県邑楽郡大泉町朝日4-17-30", "url": "https://www.kaigokensaku.mhlw.go.jp/10/index.php?action_kouhyou_detail_004_kani=true&JigyosyoCd=1093100111-00&ServiceCd=540&Type=search", "url2": "http://www.houenkai.jp/" }, "geometry": { "type": "Point", "coordinates": [ 139.419771099999906, 36.2533546 ] } },
{ "type": "Feature", "properties": { "内容": "特別養護老人ホームすずかけ荘【地域密着型介護老人福祉施設入所者生活介護】群馬県邑楽郡邑楽町中野5260-1", "url": "https://www.kaigokensaku.mhlw.go.jp/10/index.php?action_kouhyou_detail_004_kani=true&JigyosyoCd=1093100053-00&ServiceCd=540&Type=search", "url2": "http://www.popurakai.or.jp" }, "geometry": { "type": "Point", "coordinates": [ 139.4789783, 36.2670543 ] } }
]
}
