{
"type": "FeatureCollection",
"name": "geo_10_介護老人保健施設",
"crs": { "type": "name", "properties": { "name": "urn:ogc:def:crs:OGC:1.3:CRS84" } },
"features": [
{ "type": "Feature", "properties": { "内容": "介護老人保健施設けやき苑【介護老人保健施設】群馬県前橋市下大島町５９６－１", "url": "https://www.kaigokensaku.mhlw.go.jp/10/index.php?action_kouhyou_detail_004_kani=true&JigyosyoCd=1050180056-00&ServiceCd=520&Type=search", "url2": "http://keyaki-en.com" }, "geometry": { "type": "Point", "coordinates": [ 139.114909875918528, 36.360897866872051 ] } },
{ "type": "Feature", "properties": { "内容": "老人保健施設　ビハーラ寿苑【介護老人保健施設】群馬県前橋市江木町1072", "url": "https://www.kaigokensaku.mhlw.go.jp/10/index.php?action_kouhyou_detail_004_kani=true&JigyosyoCd=1050180049-00&ServiceCd=520&Type=search", "url2": "http://www3.wind.ne.jp/akagi-hospital/vihara/" }, "geometry": { "type": "Point", "coordinates": [ 139.138734600000021, 36.3998073 ] } },
{ "type": "Feature", "properties": { "内容": "独立行政法人地域医療機能推進機構群馬中央病院附属介護老人保健施設【介護老人保健施設】群馬県前橋市紅雲町一丁目７番１３号", "url": "https://www.kaigokensaku.mhlw.go.jp/10/index.php?action_kouhyou_detail_004_kani=true&JigyosyoCd=1050180080-00&ServiceCd=520&Type=search", "url2": "http://gunma.jcho.go.jp/rouken/" }, "geometry": { "type": "Point", "coordinates": [ 139.060937859193473, 36.385974234743927 ] } },
{ "type": "Feature", "properties": { "内容": "介護老人保健施設　山王ライフ【介護老人保健施設】群馬県前橋市山王町133番地", "url": "https://www.kaigokensaku.mhlw.go.jp/10/index.php?action_kouhyou_detail_004_kani=true&JigyosyoCd=1050180098-00&ServiceCd=520&Type=search", "url2": "http://www.sannou-life.jp" }, "geometry": { "type": "Point", "coordinates": [ 139.124543300000028, 36.350037200000017 ] } },
{ "type": "Feature", "properties": { "内容": "介護老人保健施設やまぶき【介護老人保健施設】群馬県前橋市小屋原町977-3", "url": "https://www.kaigokensaku.mhlw.go.jp/10/index.php?action_kouhyou_detail_004_kani=true&JigyosyoCd=1050180114-00&ServiceCd=520&Type=search", "url2": null }, "geometry": { "type": "Point", "coordinates": [ 139.135684640830988, 36.357559804413285 ] } },
{ "type": "Feature", "properties": { "内容": "介護老人保健施設やまぶき【介護老人保健施設】群馬県前橋市小屋原町977-3", "url": "https://www.kaigokensaku.mhlw.go.jp/10/index.php?action_kouhyou_detail_004_kani=true&JigyosyoCd=1050180130-00&ServiceCd=520&Type=search", "url2": "www.nakajimakai.or.jp" }, "geometry": { "type": "Point", "coordinates": [ 139.135684640830988, 36.357486361937646 ] } },
{ "type": "Feature", "properties": { "内容": "老人保健施設　一羊館【介護老人保健施設】群馬県前橋市小坂子町1012-5", "url": "https://www.kaigokensaku.mhlw.go.jp/10/index.php?action_kouhyou_detail_004_kani=true&JigyosyoCd=1050180064-00&ServiceCd=520&Type=search", "url2": "http://www.maroon.dti.ne.jp/sheep2/" }, "geometry": { "type": "Point", "coordinates": [ 139.115393400000016, 36.4228755 ] } },
{ "type": "Feature", "properties": { "内容": "社会福祉法人恩賜財団済生会支部群馬県済生会老人保健施設あずま荘【介護老人保健施設】群馬県前橋市上新田町603-1", "url": "https://www.kaigokensaku.mhlw.go.jp/10/index.php?action_kouhyou_detail_004_kani=true&JigyosyoCd=1050180023-00&ServiceCd=520&Type=search", "url2": "http://www.maebashi.saiseikai.or.jp/azumasou/" }, "geometry": { "type": "Point", "coordinates": [ 139.060476200000039, 36.3681624 ] } },
{ "type": "Feature", "properties": { "内容": "介護老人保健施設青梨子荘【介護老人保健施設】群馬県前橋市青梨子町１６７０", "url": "https://www.kaigokensaku.mhlw.go.jp/10/index.php?action_kouhyou_detail_004_kani=true&JigyosyoCd=1050180072-00&ServiceCd=520&Type=search", "url2": "https://hotakakai.or.jp" }, "geometry": { "type": "Point", "coordinates": [ 139.011307200000033, 36.4058111 ] } },
{ "type": "Feature", "properties": { "内容": "介護老人保健施設おうみ【介護老人保健施設】群馬県前橋市総社町総社２６２８", "url": "https://www.kaigokensaku.mhlw.go.jp/10/index.php?action_kouhyou_detail_004_kani=true&JigyosyoCd=1050180122-00&ServiceCd=520&Type=search", "url2": "http://ken-ei-kai.or.jp/publics/index/103/" }, "geometry": { "type": "Point", "coordinates": [ 139.032905699999986, 36.3956938 ] } },
{ "type": "Feature", "properties": { "内容": "介護老人保健施設　おうみ【介護老人保健施設】群馬県前橋市総社町総社２６２８", "url": "https://www.kaigokensaku.mhlw.go.jp/10/index.php?action_kouhyou_detail_004_kani=true&JigyosyoCd=1050180148-00&ServiceCd=520&Type=search", "url2": "http://ken-ei-kai.or.jp/publics/index/103/" }, "geometry": { "type": "Point", "coordinates": [ 139.032919499999906, 36.3957021 ] } },
{ "type": "Feature", "properties": { "内容": "群馬老人保健センター陽光苑【介護老人保健施設】群馬県前橋市大友町3-26-8", "url": "https://www.kaigokensaku.mhlw.go.jp/10/index.php?action_kouhyou_detail_004_kani=true&JigyosyoCd=1050180015-00&ServiceCd=520&Type=search", "url2": "http://www.ronenbyo.or.jp/youkouen/" }, "geometry": { "type": "Point", "coordinates": [ 139.042285399999969, 36.3927889 ] } },
{ "type": "Feature", "properties": { "内容": "介護老人保健施設　創春館【介護老人保健施設】群馬県前橋市日輪寺町東田342-1", "url": "https://www.kaigokensaku.mhlw.go.jp/10/index.php?action_kouhyou_detail_004_kani=true&JigyosyoCd=1050180106-00&ServiceCd=520&Type=search", "url2": "https://www.sousyunkan.or.jp/center/kaigo_roujin_hoken_sisetsu_sousyunkan/" }, "geometry": { "type": "Point", "coordinates": [ 139.062683358335903, 36.432542250201827 ] } },
{ "type": "Feature", "properties": { "内容": "介護老人保健施設　森の泉【介護老人保健施設】群馬県高崎市井出町1280-4", "url": "https://www.kaigokensaku.mhlw.go.jp/10/index.php?action_kouhyou_detail_004_kani=true&JigyosyoCd=1052180047-00&ServiceCd=520&Type=search", "url2": "http://care-net.biz/1-/erin" }, "geometry": { "type": "Point", "coordinates": [ 138.9841626, 36.3738178 ] } },
{ "type": "Feature", "properties": { "内容": "介護老人保健施設　森の泉【介護老人保健施設】群馬県高崎市井出町1280-4", "url": "https://www.kaigokensaku.mhlw.go.jp/10/index.php?action_kouhyou_detail_004_kani=true&JigyosyoCd=1050280146-00&ServiceCd=520&Type=search", "url2": "http://care-net.biz/1-/erin" }, "geometry": { "type": "Point", "coordinates": [ 138.9841626, 36.3738178 ] } },
{ "type": "Feature", "properties": { "内容": "介護老人保健施設　太陽【介護老人保健施設】群馬県高崎市井野町1040", "url": "https://www.kaigokensaku.mhlw.go.jp/10/index.php?action_kouhyou_detail_004_kani=true&JigyosyoCd=1050280070-00&ServiceCd=520&Type=search", "url2": "https://www.ra-inoue-hp.com/taiyo/" }, "geometry": { "type": "Point", "coordinates": [ 139.027404700000034, 36.3526129 ] } },
{ "type": "Feature", "properties": { "内容": "介護老人保健施設　ことりの園【介護老人保健施設】群馬県高崎市下小鳥町1277番地", "url": "https://www.kaigokensaku.mhlw.go.jp/10/index.php?action_kouhyou_detail_004_kani=true&JigyosyoCd=1050280112-00&ServiceCd=520&Type=search", "url2": "http://www.daiichi-hp.or.jp/" }, "geometry": { "type": "Point", "coordinates": [ 138.999703899999986, 36.3480292 ] } },
{ "type": "Feature", "properties": { "内容": "介護老人保健施設ウェルライフ三愛【介護老人保健施設】群馬県高崎市金古町1758", "url": "https://www.kaigokensaku.mhlw.go.jp/10/index.php?action_kouhyou_detail_004_kani=true&JigyosyoCd=1052180039-00&ServiceCd=520&Type=search", "url2": "http://www.sanaiclinic.or.jp" }, "geometry": { "type": "Point", "coordinates": [ 138.988103099999989, 36.4168869 ] } },
{ "type": "Feature", "properties": { "内容": "介護老人保健施設　春照苑【介護老人保健施設】群馬県高崎市江木町７１７番地春照苑", "url": "https://www.kaigokensaku.mhlw.go.jp/10/index.php?action_kouhyou_detail_004_kani=true&JigyosyoCd=1050280047-00&ServiceCd=520&Type=search", "url2": "http://www.kibokan-hp.or.jp/shunshouen/" }, "geometry": { "type": "Point", "coordinates": [ 139.020174355819648, 36.335698177657122 ] } },
{ "type": "Feature", "properties": { "内容": "介護老人保健施設ジャスミン【介護老人保健施設】群馬県高崎市上小塙町565番地1もてき介護福祉センター2階", "url": "https://www.kaigokensaku.mhlw.go.jp/10/index.php?action_kouhyou_detail_004_kani=true&JigyosyoCd=1050280179-00&ServiceCd=520&Type=search", "url2": "https://suika.or.jp/" }, "geometry": { "type": "Point", "coordinates": [ 138.978803915869065, 36.359934142418801 ] } },
{ "type": "Feature", "properties": { "内容": "介護老人保健施設　若宮苑【介護老人保健施設】群馬県高崎市上大類町７５９", "url": "https://www.kaigokensaku.mhlw.go.jp/10/index.php?action_kouhyou_detail_004_kani=true&JigyosyoCd=1050280021-00&ServiceCd=520&Type=search", "url2": "http://www.juuyakukai.or.jp" }, "geometry": { "type": "Point", "coordinates": [ 139.030210500000067, 36.3339895 ] } },
{ "type": "Feature", "properties": { "内容": "介護老人保健施設　ケアピース【介護老人保健施設】群馬県高崎市上豊岡町１１６８－１", "url": "https://www.kaigokensaku.mhlw.go.jp/10/index.php?action_kouhyou_detail_004_kani=true&JigyosyoCd=1050280054-00&ServiceCd=520&Type=search", "url2": "https://carepeace.net/" }, "geometry": { "type": "Point", "coordinates": [ 138.969700800000027, 36.3431625 ] } },
{ "type": "Feature", "properties": { "内容": "介護老人保健施設　あけぼの苑高崎【介護老人保健施設】群馬県高崎市上豊岡町８２７－１", "url": "https://www.kaigokensaku.mhlw.go.jp/10/index.php?action_kouhyou_detail_004_kani=true&JigyosyoCd=1050280062-00&ServiceCd=520&Type=search", "url2": "http://www.harunaso.or.jp/" }, "geometry": { "type": "Point", "coordinates": [ 138.966932400000019, 36.3432312 ] } },
{ "type": "Feature", "properties": { "内容": "二之沢パナケア介護老人保健施設【介護老人保健施設】群馬県高崎市足門町158番地2", "url": "https://www.kaigokensaku.mhlw.go.jp/10/index.php?action_kouhyou_detail_004_kani=true&JigyosyoCd=1052180021-00&ServiceCd=520&Type=search", "url2": "http://www.ninosawahp.com/rouken/" }, "geometry": { "type": "Point", "coordinates": [ 138.981383754630968, 36.402713988050166 ] } },
{ "type": "Feature", "properties": { "内容": "介護老人保健施設　老健くろさわ【介護老人保健施設】群馬県高崎市中居町3-19-2", "url": "https://www.kaigokensaku.mhlw.go.jp/10/index.php?action_kouhyou_detail_004_kani=true&JigyosyoCd=1050280153-00&ServiceCd=520&Type=search", "url2": "http://www.bishinkai.or.jp/roken_kurosawa/" }, "geometry": { "type": "Point", "coordinates": [ 139.0407768, 36.3144099 ] } },
{ "type": "Feature", "properties": { "内容": "介護老人保健施設　老健くろさわユニットさくら【介護老人保健施設】群馬県高崎市中居町3-19-2", "url": "https://www.kaigokensaku.mhlw.go.jp/10/index.php?action_kouhyou_detail_004_kani=true&JigyosyoCd=1050280161-00&ServiceCd=520&Type=search", "url2": "http://www.bishinkai.or.jp/roken_kurosawa/" }, "geometry": { "type": "Point", "coordinates": [ 139.040226102866541, 36.314820026785775 ] } },
{ "type": "Feature", "properties": { "内容": "介護老人保健施設　あけぼの苑【介護老人保健施設】群馬県高崎市中室田町2258-1", "url": "https://www.kaigokensaku.mhlw.go.jp/10/index.php?action_kouhyou_detail_004_kani=true&JigyosyoCd=1052180013-00&ServiceCd=520&Type=search", "url2": "https://www.harunaso.or.jp/akebonoen/" }, "geometry": { "type": "Point", "coordinates": [ 138.859285383467068, 36.397590103934888 ] } },
{ "type": "Feature", "properties": { "内容": "介護老人保健施設みさと【介護老人保健施設】群馬県高崎市箕郷町上芝６２８－１", "url": "https://www.kaigokensaku.mhlw.go.jp/10/index.php?action_kouhyou_detail_004_kani=true&JigyosyoCd=1052180005-00&ServiceCd=520&Type=search", "url2": "http://mizuhokai-misato.or.jp/" }, "geometry": { "type": "Point", "coordinates": [ 138.956623, 36.3830489 ] } },
{ "type": "Feature", "properties": { "内容": "介護療養型老人保健施設みさと【介護老人保健施設】群馬県高崎市箕郷町上芝６２８－２", "url": "https://www.kaigokensaku.mhlw.go.jp/10/index.php?action_kouhyou_detail_004_kani=true&JigyosyoCd=1050280120-00&ServiceCd=520&Type=search", "url2": "http://mizuhokai-misato.or.jp" }, "geometry": { "type": "Point", "coordinates": [ 138.956625799999983, 36.3827323 ] } },
{ "type": "Feature", "properties": { "内容": "介護老人保健施設いずみ【介護老人保健施設】群馬県高崎市箕郷町矢原12番地1", "url": "https://www.kaigokensaku.mhlw.go.jp/10/index.php?action_kouhyou_detail_004_kani=true&JigyosyoCd=1050280187-00&ServiceCd=520&Type=search", "url2": "http://www.izuminosono.com" }, "geometry": { "type": "Point", "coordinates": [ 138.962777800000026, 36.3972831 ] } },
{ "type": "Feature", "properties": { "内容": "高崎老人保健施設　幸寿苑【介護老人保健施設】群馬県高崎市矢中町841", "url": "https://www.kaigokensaku.mhlw.go.jp/10/index.php?action_kouhyou_detail_004_kani=true&JigyosyoCd=1050280138-00&ServiceCd=520&Type=search", "url2": "https://www.iwata-hp.or.jp" }, "geometry": { "type": "Point", "coordinates": [ 139.051315100000011, 36.3047688 ] } },
{ "type": "Feature", "properties": { "内容": "高崎老人保健施設　福寿苑【介護老人保健施設】群馬県高崎市矢中町841", "url": "https://www.kaigokensaku.mhlw.go.jp/10/index.php?action_kouhyou_detail_004_kani=true&JigyosyoCd=1050280039-00&ServiceCd=520&Type=search", "url2": "https://www.iwata-hp.or.jp" }, "geometry": { "type": "Point", "coordinates": [ 139.051315100000011, 36.3047688 ] } },
{ "type": "Feature", "properties": { "内容": "介護老人保健施設和光園【介護老人保健施設】群馬県高崎市矢島町449-2", "url": "https://www.kaigokensaku.mhlw.go.jp/10/index.php?action_kouhyou_detail_004_kani=true&JigyosyoCd=1050280013-00&ServiceCd=520&Type=search", "url2": "https://komai-hp.com/corporation/wakoen/" }, "geometry": { "type": "Point", "coordinates": [ 139.049367, 36.3391454 ] } },
{ "type": "Feature", "properties": { "内容": "介護老人保健施設グッドウェル【介護老人保健施設】群馬県高崎市吉井町吉井415-1", "url": "https://www.kaigokensaku.mhlw.go.jp/10/index.php?action_kouhyou_detail_004_kani=true&JigyosyoCd=1052380019-00&ServiceCd=520&Type=search", "url2": null }, "geometry": { "type": "Point", "coordinates": [ 138.983693, 36.2563809 ] } },
{ "type": "Feature", "properties": { "内容": "介護老人保健施設　クララトーホー【介護老人保健施設】群馬県桐生市広沢町2-3208-1", "url": "https://www.kaigokensaku.mhlw.go.jp/10/index.php?action_kouhyou_detail_004_kani=true&JigyosyoCd=1050380037-00&ServiceCd=520&Type=search", "url2": "http://www.kurara-toho.or.jp/index.html" }, "geometry": { "type": "Point", "coordinates": [ 139.321063800000047, 36.3906449 ] } },
{ "type": "Feature", "properties": { "内容": "ユニット型介護老人保健施設クララトーホー【介護老人保健施設】群馬県桐生市広沢町2丁目3208-1", "url": "https://www.kaigokensaku.mhlw.go.jp/10/index.php?action_kouhyou_detail_004_kani=true&JigyosyoCd=1050380060-00&ServiceCd=520&Type=search", "url2": "http://www.kurara-toho.or.jp/index.html" }, "geometry": { "type": "Point", "coordinates": [ 139.32100479140172, 36.390580125375379 ] } },
{ "type": "Feature", "properties": { "内容": "介護老人保健施設さくら苑【介護老人保健施設】群馬県桐生市新里町新川２４８８", "url": "https://www.kaigokensaku.mhlw.go.jp/10/index.php?action_kouhyou_detail_004_kani=true&JigyosyoCd=1052080023-00&ServiceCd=520&Type=search", "url2": "http://www.kiryuushisakura.com/" }, "geometry": { "type": "Point", "coordinates": [ 139.250720099999967, 36.4221876 ] } },
{ "type": "Feature", "properties": { "内容": "介護老人保健施設　かがやき【介護老人保健施設】群馬県桐生市川内町１－４０７－１", "url": "https://www.kaigokensaku.mhlw.go.jp/10/index.php?action_kouhyou_detail_004_kani=true&JigyosyoCd=1050380029-00&ServiceCd=520&Type=search", "url2": "http://www.sanikukai.com" }, "geometry": { "type": "Point", "coordinates": [ 139.324015799999984, 36.4346094 ] } },
{ "type": "Feature", "properties": { "内容": "介護老人保健施設　ナーシングケア川内の杜【介護老人保健施設】群馬県桐生市川内町4丁目315-1", "url": "https://www.kaigokensaku.mhlw.go.jp/10/index.php?action_kouhyou_detail_004_kani=true&JigyosyoCd=1050380045-00&ServiceCd=520&Type=search", "url2": "http:/www.koaikai.or.jp" }, "geometry": { "type": "Point", "coordinates": [ 139.293888124873945, 36.433317945473043 ] } },
{ "type": "Feature", "properties": { "内容": "介護老人保健施設　幸の杜【介護老人保健施設】群馬県桐生市相生町1丁目253-1", "url": "https://www.kaigokensaku.mhlw.go.jp/10/index.php?action_kouhyou_detail_004_kani=true&JigyosyoCd=1050380052-00&ServiceCd=520&Type=search", "url2": "https://kiryu-seikei.com" }, "geometry": { "type": "Point", "coordinates": [ 139.321767172492372, 36.398029426964193 ] } },
{ "type": "Feature", "properties": { "内容": "介護老人保健施設　旭ヶ丘【介護老人保健施設】群馬県伊勢崎市間野谷町１３５－１", "url": "https://www.kaigokensaku.mhlw.go.jp/10/index.php?action_kouhyou_detail_004_kani=true&JigyosyoCd=1052880034-00&ServiceCd=520&Type=search", "url2": "http://www.asahigaoka.or.jp" }, "geometry": { "type": "Point", "coordinates": [ 139.26671650000003, 36.3740785 ] } },
{ "type": "Feature", "properties": { "内容": "介護老人保健施設鶴寿園【介護老人保健施設】群馬県伊勢崎市境百々421", "url": "https://www.kaigokensaku.mhlw.go.jp/10/index.php?action_kouhyou_detail_004_kani=true&JigyosyoCd=1052880018-00&ServiceCd=520&Type=search", "url2": null }, "geometry": { "type": "Point", "coordinates": [ 139.2544239, 36.2772801 ] } },
{ "type": "Feature", "properties": { "内容": "介護老人保健施設アルボース【介護老人保健施設】群馬県伊勢崎市太田町427-3", "url": "https://www.kaigokensaku.mhlw.go.jp/10/index.php?action_kouhyou_detail_004_kani=true&JigyosyoCd=1050480019-00&ServiceCd=520&Type=search", "url2": "http://mihara-ibbv.jp/arbos/" }, "geometry": { "type": "Point", "coordinates": [ 139.180090899999982, 36.3282338 ] } },
{ "type": "Feature", "properties": { "内容": "アルボース（ユニット）【介護老人保健施設】群馬県伊勢崎市太田町427-3", "url": "https://www.kaigokensaku.mhlw.go.jp/10/index.php?action_kouhyou_detail_004_kani=true&JigyosyoCd=1050480050-00&ServiceCd=520&Type=search", "url2": "https://mihara-ibbv.jp/arbos/" }, "geometry": { "type": "Point", "coordinates": [ 139.180057600000026, 36.3283671 ] } },
{ "type": "Feature", "properties": { "内容": "介護老人保健施設　まゆ玉【介護老人保健施設】群馬県伊勢崎市長沼町２６６４－１", "url": "https://www.kaigokensaku.mhlw.go.jp/10/index.php?action_kouhyou_detail_004_kani=true&JigyosyoCd=1050480035-00&ServiceCd=520&Type=search", "url2": "http://www.mayudama.or.jp" }, "geometry": { "type": "Point", "coordinates": [ 139.213297900000043, 36.2648893 ] } },
{ "type": "Feature", "properties": { "内容": "介護老人保健施設ひまわり【介護老人保健施設】群馬県伊勢崎市連取本町12番地１", "url": "https://www.kaigokensaku.mhlw.go.jp/10/index.php?action_kouhyou_detail_004_kani=true&JigyosyoCd=1050480043-00&ServiceCd=520&Type=search", "url2": "http://wwww.hospital.isesaki.gunma.jp" }, "geometry": { "type": "Point", "coordinates": [ 139.17756380000003, 36.3230399 ] } },
{ "type": "Feature", "properties": { "内容": "介護老人保健施設　聖寿園【介護老人保健施設】群馬県太田市熊野町３８－８１", "url": "https://www.kaigokensaku.mhlw.go.jp/10/index.php?action_kouhyou_detail_004_kani=true&JigyosyoCd=1050580016-00&ServiceCd=520&Type=search", "url2": "http://www.fujigaoka-hosp.jp" }, "geometry": { "type": "Point", "coordinates": [ 139.383792200000016, 36.3080707 ] } },
{ "type": "Feature", "properties": { "内容": "介護老人保健施設　希望の苑【介護老人保健施設】群馬県太田市高林北町1138", "url": "https://www.kaigokensaku.mhlw.go.jp/10/index.php?action_kouhyou_detail_004_kani=true&JigyosyoCd=1050580024-00&ServiceCd=520&Type=search", "url2": "http://www.horie.or.jp/group/sono/" }, "geometry": { "type": "Point", "coordinates": [ 139.371441600000026, 36.2636 ] } },
{ "type": "Feature", "properties": { "内容": "介護老人保健施設　　あけぼの荘【介護老人保健施設】群馬県太田市西本町１３－９", "url": "https://www.kaigokensaku.mhlw.go.jp/10/index.php?action_kouhyou_detail_004_kani=true&JigyosyoCd=1050580032-00&ServiceCd=520&Type=search", "url2": "http://www.motojima.jp" }, "geometry": { "type": "Point", "coordinates": [ 139.36690729999998, 36.2947856 ] } },
{ "type": "Feature", "properties": { "内容": "医療法人財団明理会介護老人保健施設　イムスやぶづかロイヤルケアセンター【介護老人保健施設】群馬県太田市大原町531-3", "url": "https://www.kaigokensaku.mhlw.go.jp/10/index.php?action_kouhyou_detail_004_kani=true&JigyosyoCd=1050580073-00&ServiceCd=520&Type=search", "url2": "http://www.ims.gr.jp/yabuduka-royal/" }, "geometry": { "type": "Point", "coordinates": [ 139.296267, 36.3568174 ] } },
{ "type": "Feature", "properties": { "内容": "介護老人保健施設　金山【介護老人保健施設】群馬県太田市東金井町1856-18", "url": "https://www.kaigokensaku.mhlw.go.jp/10/index.php?action_kouhyou_detail_004_kani=true&JigyosyoCd=1050580107-00&ServiceCd=520&Type=search", "url2": "http://fujigaoka-hosp.jp" }, "geometry": { "type": "Point", "coordinates": [ 139.384663363368162, 36.308528570858819 ] } },
{ "type": "Feature", "properties": { "内容": "介護老人保健施設　ふじあく光荘【介護老人保健施設】群馬県太田市藤阿久町３４５", "url": "https://www.kaigokensaku.mhlw.go.jp/10/index.php?action_kouhyou_detail_004_kani=true&JigyosyoCd=1050580065-00&ServiceCd=520&Type=search", "url2": "http://www.f-hikari.com" }, "geometry": { "type": "Point", "coordinates": [ 139.360691299999985, 36.2852643 ] } },
{ "type": "Feature", "properties": { "内容": "ふじあく光荘（ユニット）【介護老人保健施設】群馬県太田市藤阿久町345", "url": "https://www.kaigokensaku.mhlw.go.jp/10/index.php?action_kouhyou_detail_004_kani=true&JigyosyoCd=1050580099-00&ServiceCd=520&Type=search", "url2": "http://www.f-hikari.com" }, "geometry": { "type": "Point", "coordinates": [ 139.360691299999985, 36.2852643 ] } },
{ "type": "Feature", "properties": { "内容": "介護老人保健施設　宏愛苑【介護老人保健施設】群馬県太田市六千石町59", "url": "https://www.kaigokensaku.mhlw.go.jp/10/index.php?action_kouhyou_detail_004_kani=true&JigyosyoCd=1050380011-00&ServiceCd=520&Type=search", "url2": "http://www.koaikai.jp/koaien/index.html" }, "geometry": { "type": "Point", "coordinates": [ 139.28869157495501, 36.335738620737374 ] } },
{ "type": "Feature", "properties": { "内容": "介護老人保健施設　高砂荘【介護老人保健施設】群馬県太田市飯塚町973-1", "url": "https://www.kaigokensaku.mhlw.go.jp/10/index.php?action_kouhyou_detail_004_kani=true&JigyosyoCd=1050580040-00&ServiceCd=520&Type=search", "url2": "http://www.takasagosou.org" }, "geometry": { "type": "Point", "coordinates": [ 139.388856499999946, 36.2767544 ] } },
{ "type": "Feature", "properties": { "内容": "介護老人保健施設　大誠苑【介護老人保健施設】群馬県沼田市久屋原町３４５－１", "url": "https://www.kaigokensaku.mhlw.go.jp/10/index.php?action_kouhyou_detail_004_kani=true&JigyosyoCd=1050680014-00&ServiceCd=520&Type=search", "url2": "http://www.taiseikai-group.com" }, "geometry": { "type": "Point", "coordinates": [ 139.10431589999996, 36.6658499 ] } },
{ "type": "Feature", "properties": { "内容": "介護老人保健施設　恵寿の園【介護老人保健施設】群馬県沼田市上原町１５５５－３", "url": "https://www.kaigokensaku.mhlw.go.jp/10/index.php?action_kouhyou_detail_004_kani=true&JigyosyoCd=1050680022-00&ServiceCd=520&Type=search", "url2": null }, "geometry": { "type": "Point", "coordinates": [ 139.059678800000029, 36.6472327 ] } },
{ "type": "Feature", "properties": { "内容": "介護老人保健施設とね【介護老人保健施設】群馬県沼田市東原新町1917番地1", "url": "https://www.kaigokensaku.mhlw.go.jp/10/index.php?action_kouhyou_detail_004_kani=true&JigyosyoCd=1050680030-00&ServiceCd=520&Type=search", "url2": "http://www.tonehoken.or.jp/" }, "geometry": { "type": "Point", "coordinates": [ 139.055176299999971, 36.6508156 ] } },
{ "type": "Feature", "properties": { "内容": "介護老人保健施設すみれの里【介護老人保健施設】群馬県館林市坂下町3191-1", "url": "https://www.kaigokensaku.mhlw.go.jp/10/index.php?action_kouhyou_detail_004_kani=true&JigyosyoCd=1050780020-00&ServiceCd=520&Type=search", "url2": "http://www.rikkakai.jp" }, "geometry": { "type": "Point", "coordinates": [ 139.534483, 36.2559901 ] } },
{ "type": "Feature", "properties": { "内容": "介護老人保健施設虹の郷すわ【介護老人保健施設】群馬県館林市諏訪町1509", "url": "https://www.kaigokensaku.mhlw.go.jp/10/index.php?action_kouhyou_detail_004_kani=true&JigyosyoCd=1050780038-00&ServiceCd=520&Type=search", "url2": "https://tsutsujimental.jp/sw/" }, "geometry": { "type": "Point", "coordinates": [ 139.5172814, 36.2321466 ] } },
{ "type": "Feature", "properties": { "内容": "介護老人保健施設　ナーシングホーム館林【介護老人保健施設】群馬県館林市赤生田町1865-1", "url": "https://www.kaigokensaku.mhlw.go.jp/10/index.php?action_kouhyou_detail_004_kani=true&JigyosyoCd=1050780012-00&ServiceCd=520&Type=search", "url2": null }, "geometry": { "type": "Point", "coordinates": [ 139.563347099999987, 36.2271847 ] } },
{ "type": "Feature", "properties": { "内容": "ナーシングホーム館林（ユニット）【介護老人保健施設】群馬県館林市赤生田町1865-1", "url": "https://www.kaigokensaku.mhlw.go.jp/10/index.php?action_kouhyou_detail_004_kani=true&JigyosyoCd=1050780046-00&ServiceCd=520&Type=search", "url2": null }, "geometry": { "type": "Point", "coordinates": [ 139.563347099999987, 36.2271847 ] } },
{ "type": "Feature", "properties": { "内容": "介護老人保健施設からたちの丘【介護老人保健施設】群馬県渋川市赤城町津久田4013-1", "url": "https://www.kaigokensaku.mhlw.go.jp/10/index.php?action_kouhyou_detail_004_kani=true&JigyosyoCd=1050880036-00&ServiceCd=520&Type=search", "url2": "http://www.karatachi-web.com/" }, "geometry": { "type": "Point", "coordinates": [ 139.053283100000044, 36.5376373 ] } },
{ "type": "Feature", "properties": { "内容": "介護老人保健施設からたちの丘（ユニット型）【介護老人保健施設】群馬県渋川市赤城町津久田4013-1", "url": "https://www.kaigokensaku.mhlw.go.jp/10/index.php?action_kouhyou_detail_004_kani=true&JigyosyoCd=1050880044-00&ServiceCd=520&Type=search", "url2": "http://www.karatachi-web.com/" }, "geometry": { "type": "Point", "coordinates": [ 139.053283100000044, 36.5376373 ] } },
{ "type": "Feature", "properties": { "内容": "介護老人保健施設　銀玲【介護老人保健施設】群馬県渋川市石原564-1", "url": "https://www.kaigokensaku.mhlw.go.jp/10/index.php?action_kouhyou_detail_004_kani=true&JigyosyoCd=1050880010-00&ServiceCd=520&Type=search", "url2": "http://hirakatakai.jp" }, "geometry": { "type": "Point", "coordinates": [ 139.004211899999973, 36.4848267 ] } },
{ "type": "Feature", "properties": { "内容": "介護老人保健施設　銀玲(ユニット)【介護老人保健施設】群馬県渋川市石原564-1", "url": "https://www.kaigokensaku.mhlw.go.jp/10/index.php?action_kouhyou_detail_004_kani=true&JigyosyoCd=1050880028-00&ServiceCd=520&Type=search", "url2": "http://hirakatakai.jp" }, "geometry": { "type": "Point", "coordinates": [ 139.004248, 36.48486 ] } },
{ "type": "Feature", "properties": { "内容": "介護老人保健施設　赤城苑（ユニット型）【介護老人保健施設】群馬県渋川市赤城町北赤城山１０５５－１", "url": "https://www.kaigokensaku.mhlw.go.jp/10/index.php?action_kouhyou_detail_004_kani=true&JigyosyoCd=1050880051-00&ServiceCd=520&Type=search", "url2": "https://www.akagien.com/" }, "geometry": { "type": "Point", "coordinates": [ 139.067188200000032, 36.5403991 ] } },
{ "type": "Feature", "properties": { "内容": "介護老人保健施設　赤城苑【介護老人保健施設】群馬県渋川市赤城町北赤城山1055-1", "url": "https://www.kaigokensaku.mhlw.go.jp/10/index.php?action_kouhyou_detail_004_kani=true&JigyosyoCd=1052080031-00&ServiceCd=520&Type=search", "url2": "https://www.akagien.com/" }, "geometry": { "type": "Point", "coordinates": [ 139.067188200000032, 36.5403991 ] } },
{ "type": "Feature", "properties": { "内容": "介護老人保健施設　たちばな荘【介護老人保健施設】群馬県渋川市北橘町上南室163番地1", "url": "https://www.kaigokensaku.mhlw.go.jp/10/index.php?action_kouhyou_detail_004_kani=true&JigyosyoCd=1052080015-00&ServiceCd=520&Type=search", "url2": null }, "geometry": { "type": "Point", "coordinates": [ 139.066178400000013, 36.4992903 ] } },
{ "type": "Feature", "properties": { "内容": "介護老人保健施設ほくもう【介護老人保健施設】群馬県渋川市有馬259-1", "url": "https://www.kaigokensaku.mhlw.go.jp/10/index.php?action_kouhyou_detail_004_kani=true&JigyosyoCd=1050880002-00&ServiceCd=520&Type=search", "url2": null }, "geometry": { "type": "Point", "coordinates": [ 139.007535906405764, 36.472038622273551 ] } },
{ "type": "Feature", "properties": { "内容": "介護老人保健施設　藤岡みどりの園【介護老人保健施設】群馬県藤岡市下大塚525", "url": "https://www.kaigokensaku.mhlw.go.jp/10/index.php?action_kouhyou_detail_004_kani=true&JigyosyoCd=1050980018-00&ServiceCd=520&Type=search", "url2": "http://www.shinozuka-hp.or.jp/" }, "geometry": { "type": "Point", "coordinates": [ 139.062592699999982, 36.254768400000025 ] } },
{ "type": "Feature", "properties": { "内容": "介護老人保健施設藤岡みどりの園（ユニット）【介護老人保健施設】群馬県藤岡市下大塚字東525", "url": "https://www.kaigokensaku.mhlw.go.jp/10/index.php?action_kouhyou_detail_004_kani=true&JigyosyoCd=1050980034-00&ServiceCd=520&Type=search", "url2": "http://ｗｗｗ.shinozuka-hp.or.jp/" }, "geometry": { "type": "Point", "coordinates": [ 139.062592699999982, 36.2547684 ] } },
{ "type": "Feature", "properties": { "内容": "藤岡市介護老人保健施設鬼石【介護老人保健施設】群馬県藤岡市鬼石１３９－１", "url": "https://www.kaigokensaku.mhlw.go.jp/10/index.php?action_kouhyou_detail_004_kani=true&JigyosyoCd=1050980000-00&ServiceCd=520&Type=search", "url2": "http//www.city.fujioka.gunma.jp/" }, "geometry": { "type": "Point", "coordinates": [ 139.061652924606278, 36.157653954618553 ] } },
{ "type": "Feature", "properties": { "内容": "サテライト型小規模介護老人保健施設ぬきさき【介護老人保健施設】群馬県富岡市一ノ宮1745-1", "url": "https://www.kaigokensaku.mhlw.go.jp/10/index.php?action_kouhyou_detail_004_kani=true&JigyosyoCd=1051080057-00&ServiceCd=520&Type=search", "url2": "http://www3.wind.ne.jp/cocon/" }, "geometry": { "type": "Point", "coordinates": [ 138.861743599999954, 36.2518027 ] } },
{ "type": "Feature", "properties": { "内容": "介護老人保健施設ミドルホーム富岡【介護老人保健施設】群馬県富岡市岡本９６５", "url": "https://www.kaigokensaku.mhlw.go.jp/10/index.php?action_kouhyou_detail_004_kani=true&JigyosyoCd=1051080016-00&ServiceCd=520&Type=search", "url2": "http://www.middle-home.org/" }, "geometry": { "type": "Point", "coordinates": [ 138.8886781, 36.2381682 ] } },
{ "type": "Feature", "properties": { "内容": "介護老人保健施設ココン【介護老人保健施設】群馬県富岡市上小林47", "url": "https://www.kaigokensaku.mhlw.go.jp/10/index.php?action_kouhyou_detail_004_kani=true&JigyosyoCd=1051080032-00&ServiceCd=520&Type=search", "url2": "http://www3.wind.ne.jp/cocon/" }, "geometry": { "type": "Point", "coordinates": [ 138.825994900000069, 36.2372239 ] } },
{ "type": "Feature", "properties": { "内容": "介護老人保健施設こまち【介護老人保健施設】群馬県富岡市相野田469", "url": "https://www.kaigokensaku.mhlw.go.jp/10/index.php?action_kouhyou_detail_004_kani=true&JigyosyoCd=1051080024-00&ServiceCd=520&Type=search", "url2": "http://www.ryokuyou.jp" }, "geometry": { "type": "Point", "coordinates": [ 138.924868485180696, 36.283498279113438 ] } },
{ "type": "Feature", "properties": { "内容": "介護老人保健施設　細谷【介護老人保健施設】群馬県富岡市富岡1375", "url": "https://www.kaigokensaku.mhlw.go.jp/10/index.php?action_kouhyou_detail_004_kani=true&JigyosyoCd=1051080073-00&ServiceCd=520&Type=search", "url2": "www.hosoya.or.jp" }, "geometry": { "type": "Point", "coordinates": [ 138.893981899999972, 36.257727 ] } },
{ "type": "Feature", "properties": { "内容": "介護老人保健施設　めぐみ【介護老人保健施設】群馬県安中市安中3-25-13", "url": "https://www.kaigokensaku.mhlw.go.jp/10/index.php?action_kouhyou_detail_004_kani=true&JigyosyoCd=1051180014-00&ServiceCd=520&Type=search", "url2": "http://med.wind.ne,jp/sutoh-hp" }, "geometry": { "type": "Point", "coordinates": [ 138.90023640000004, 36.3287816 ] } },
{ "type": "Feature", "properties": { "内容": "介護老人施設うららく【介護老人保健施設】群馬県安中市鷺宮２０５－１", "url": "https://www.kaigokensaku.mhlw.go.jp/10/index.php?action_kouhyou_detail_004_kani=true&JigyosyoCd=1051180022-00&ServiceCd=520&Type=search", "url2": "http://www.honda-hospital.jp/" }, "geometry": { "type": "Point", "coordinates": [ 138.89696570000001, 36.3051779 ] } },
{ "type": "Feature", "properties": { "内容": "介護老人保健施設　せせらぎ苑【介護老人保健施設】群馬県安中市松井田町新堀1300-1", "url": "https://www.kaigokensaku.mhlw.go.jp/10/index.php?action_kouhyou_detail_004_kani=true&JigyosyoCd=1052580014-00&ServiceCd=520&Type=search", "url2": "http://www.matsuida-hp.com" }, "geometry": { "type": "Point", "coordinates": [ 138.792669, 36.3183193 ] } },
{ "type": "Feature", "properties": { "内容": "介護老人保健施設サンホープ笠懸【介護老人保健施設】群馬県みどり市笠懸町鹿２６４６－１", "url": "https://www.kaigokensaku.mhlw.go.jp/10/index.php?action_kouhyou_detail_004_kani=true&JigyosyoCd=1052980024-00&ServiceCd=520&Type=search", "url2": "http://sunhope.or.jp" }, "geometry": { "type": "Point", "coordinates": [ 139.281562399999984, 36.3997376 ] } },
{ "type": "Feature", "properties": { "内容": "介護老人保健施設　プランタンおおまま【介護老人保健施設】群馬県みどり市大間々町桐原1570-498", "url": "https://www.kaigokensaku.mhlw.go.jp/10/index.php?action_kouhyou_detail_004_kani=true&JigyosyoCd=1053080014-00&ServiceCd=520&Type=search", "url2": "https://www.syunkoukai.or.jp/" }, "geometry": { "type": "Point", "coordinates": [ 139.265759900000035, 36.4417463 ] } },
{ "type": "Feature", "properties": { "内容": "介護老人保健施設リハビリホーム喜望峰【介護老人保健施設】群馬県北群馬郡榛東村山子田2547-1", "url": "https://www.kaigokensaku.mhlw.go.jp/10/index.php?action_kouhyou_detail_004_kani=true&JigyosyoCd=1052280003-00&ServiceCd=520&Type=search", "url2": "http://inoseikei.webmedipr.jp/" }, "geometry": { "type": "Point", "coordinates": [ 138.966487, 36.4401668 ] } },
{ "type": "Feature", "properties": { "内容": "介護老人保健施設　リハビリホーム喜望峰（ユニット型）【介護老人保健施設】群馬県北群馬郡榛東村山子田2547-1", "url": "https://www.kaigokensaku.mhlw.go.jp/10/index.php?action_kouhyou_detail_004_kani=true&JigyosyoCd=1052280037-00&ServiceCd=520&Type=search", "url2": "ｈｔｔｐ//inoseikeiwebmedipr.jp/" }, "geometry": { "type": "Point", "coordinates": [ 138.966487, 36.4401668 ] } },
{ "type": "Feature", "properties": { "内容": "介護老人保健施設みずき荘【介護老人保健施設】群馬県北群馬郡吉岡町陣場９８番地", "url": "https://www.kaigokensaku.mhlw.go.jp/10/index.php?action_kouhyou_detail_004_kani=true&JigyosyoCd=1052280011-00&ServiceCd=520&Type=search", "url2": "https://gunneikai.jp/mizuki/index.html" }, "geometry": { "type": "Point", "coordinates": [ 139.005420100000038, 36.4310385 ] } },
{ "type": "Feature", "properties": { "内容": "介護老人保健施設みずき荘　ユニット【介護老人保健施設】群馬県北群馬郡吉岡町陣場９８番地", "url": "https://www.kaigokensaku.mhlw.go.jp/10/index.php?action_kouhyou_detail_004_kani=true&JigyosyoCd=1052280029-00&ServiceCd=520&Type=search", "url2": "https://www.gunneikai.jp/mizuki/index.html" }, "geometry": { "type": "Point", "coordinates": [ 139.005420100000038, 36.4310385 ] } },
{ "type": "Feature", "properties": { "内容": "中之条町介護老人保健施設ゆうあい荘【介護老人保健施設】群馬県吾妻郡中之条町大字上沢渡２１３３－４", "url": "https://www.kaigokensaku.mhlw.go.jp/10/index.php?action_kouhyou_detail_004_kani=true&JigyosyoCd=1052680020-00&ServiceCd=520&Type=search", "url2": "https://www.town.nakanojo.gunma.jp/soshiki/5/1298.html" }, "geometry": { "type": "Point", "coordinates": [ 138.766373700000031, 36.6248592 ] } },
{ "type": "Feature", "properties": { "内容": "介護老人保健施設りんどうの里【介護老人保健施設】群馬県吾妻郡高山村大字中山２７１５番地２", "url": "https://www.kaigokensaku.mhlw.go.jp/10/index.php?action_kouhyou_detail_004_kani=true&JigyosyoCd=1052680038-00&ServiceCd=520&Type=search", "url2": "http://www.rindo.jp" }, "geometry": { "type": "Point", "coordinates": [ 138.951940199999967, 36.6226336 ] } },
{ "type": "Feature", "properties": { "内容": "介護老人保健施設　武尊荘【介護老人保健施設】群馬県利根郡川場村生品１８６１", "url": "https://www.kaigokensaku.mhlw.go.jp/10/index.php?action_kouhyou_detail_004_kani=true&JigyosyoCd=1052780010-00&ServiceCd=520&Type=search", "url2": "http://www.hotaka.or.jp" }, "geometry": { "type": "Point", "coordinates": [ 139.077634900000021, 36.6683135 ] } },
{ "type": "Feature", "properties": { "内容": "介護老人保健施設　草笛の里【介護老人保健施設】群馬県利根郡みなかみ町石倉194番地1", "url": "https://www.kaigokensaku.mhlw.go.jp/10/index.php?action_kouhyou_detail_004_kani=true&JigyosyoCd=1052780036-00&ServiceCd=520&Type=search", "url2": "http://www.kamimoku-spa-hp.com/kusabue/index.html" }, "geometry": { "type": "Point", "coordinates": [ 138.982994100000042, 36.7403491 ] } },
{ "type": "Feature", "properties": { "内容": "介護老人保健施設たまむら【介護老人保健施設】群馬県佐波郡玉村町上新田675-1", "url": "https://www.kaigokensaku.mhlw.go.jp/10/index.php?action_kouhyou_detail_004_kani=true&JigyosyoCd=1052880026-00&ServiceCd=520&Type=search", "url2": "https://www.jyushinkai.or.jp/rouken/" }, "geometry": { "type": "Point", "coordinates": [ 139.098101700000029, 36.3108591 ] } },
{ "type": "Feature", "properties": { "内容": "ユニット型介護老人保健施設たまむら【介護老人保健施設】群馬県佐波郡玉村町上新田６７５‐１", "url": "https://www.kaigokensaku.mhlw.go.jp/10/index.php?action_kouhyou_detail_004_kani=true&JigyosyoCd=1052880042-00&ServiceCd=520&Type=search", "url2": "https://www.jyushinkai.or.jp/rouken/" }, "geometry": { "type": "Point", "coordinates": [ 139.098101700000029, 36.3108591 ] } },
{ "type": "Feature", "properties": { "内容": "介護老人保健施設　いずみの里【介護老人保健施設】群馬県邑楽郡大泉町北小泉1丁目26-1", "url": "https://www.kaigokensaku.mhlw.go.jp/10/index.php?action_kouhyou_detail_004_kani=true&JigyosyoCd=1053180020-00&ServiceCd=520&Type=search", "url2": "http://www.houenkai.jp/izumi/index.htm" }, "geometry": { "type": "Point", "coordinates": [ 139.421701100000064, 36.2652008 ] } },
{ "type": "Feature", "properties": { "内容": "介護老人保健施設　おうらの光【介護老人保健施設】群馬県邑楽郡邑楽町篠塚3233-1", "url": "https://www.kaigokensaku.mhlw.go.jp/10/index.php?action_kouhyou_detail_004_kani=true&JigyosyoCd=1050580057-00&ServiceCd=520&Type=search", "url2": "https://hikari.ora-hosp.or.jp/" }, "geometry": { "type": "Point", "coordinates": [ 139.433058500289917, 36.25508416819288 ] } },
{ "type": "Feature", "properties": { "内容": "介護老人保健施設　ラポール・レイゾン【介護老人保健施設】群馬県邑楽郡邑楽町大字赤堀1031番地", "url": "https://www.kaigokensaku.mhlw.go.jp/10/index.php?action_kouhyou_detail_004_kani=true&JigyosyoCd=1053180012-00&ServiceCd=520&Type=search", "url2": null }, "geometry": { "type": "Point", "coordinates": [ 139.4847843, 36.235761 ] } }
]
}
