{
"type": "FeatureCollection",
"name": "geo_10_小学校",
"crs": { "type": "name", "properties": { "name": "urn:ogc:def:crs:EPSG::6668" } },
"features": [
{ "type": "Feature", "properties": { "P29_001": "10201", "P29_002": "B110110000019", "P29_003": "16001", "P29_004": "群馬大学共同教育学部附属小学校", "P29_005": "群馬県前橋市若宮町2-8-1", "P29_006": "1", "P29_007": "1", "P29_008": "00", "P29_009": null }, "geometry": { "type": "Point", "coordinates": [ 139.073961227893903, 36.401014377519836 ] } },
{ "type": "Feature", "properties": { "P29_001": "10201", "P29_002": "B110210000017", "P29_003": "16001", "P29_004": "前橋市立桃井小学校", "P29_005": "群馬県前橋市大手町2-16-4", "P29_006": "3", "P29_007": "1", "P29_008": "00", "P29_009": null }, "geometry": { "type": "Point", "coordinates": [ 139.064383902419763, 36.388777995579041 ] } },
{ "type": "Feature", "properties": { "P29_001": "10201", "P29_002": "B110210000026", "P29_003": "16001", "P29_004": "前橋市立中川小学校", "P29_005": "群馬県前橋市三河町2-1-3", "P29_006": "3", "P29_007": "1", "P29_008": "00", "P29_009": null }, "geometry": { "type": "Point", "coordinates": [ 139.07875415321692, 36.386578903485862 ] } },
{ "type": "Feature", "properties": { "P29_001": "10201", "P29_002": "B110210000035", "P29_003": "16001", "P29_004": "前橋市立敷島小学校", "P29_005": "群馬県前橋市昭和町1-22-8", "P29_006": "3", "P29_007": "1", "P29_008": "00", "P29_009": null }, "geometry": { "type": "Point", "coordinates": [ 139.065645278694063, 36.402898913196317 ] } },
{ "type": "Feature", "properties": { "P29_001": "10201", "P29_002": "B110210000044", "P29_003": "16001", "P29_004": "前橋市立城南小学校", "P29_005": "群馬県前橋市六供町1-13-2", "P29_006": "3", "P29_007": "1", "P29_008": "00", "P29_009": null }, "geometry": { "type": "Point", "coordinates": [ 139.074239949144015, 36.375577043223053 ] } },
{ "type": "Feature", "properties": { "P29_001": "10201", "P29_002": "B110210000053", "P29_003": "16001", "P29_004": "前橋市立城東小学校", "P29_005": "群馬県前橋市城東町1-35-7", "P29_006": "3", "P29_007": "1", "P29_008": "00", "P29_009": null }, "geometry": { "type": "Point", "coordinates": [ 139.080156214525317, 36.394647979208266 ] } },
{ "type": "Feature", "properties": { "P29_001": "10201", "P29_002": "B110210000062", "P29_003": "16001", "P29_004": "前橋市立若宮小学校", "P29_005": "群馬県前橋市若宮町4-12-24", "P29_006": "3", "P29_007": "1", "P29_008": "00", "P29_009": null }, "geometry": { "type": "Point", "coordinates": [ 139.071474291456838, 36.406041347123036 ] } },
{ "type": "Feature", "properties": { "P29_001": "10201", "P29_002": "B110210000071", "P29_003": "16001", "P29_004": "前橋市立天川小学校", "P29_005": "群馬県前橋市文京町3-18-4", "P29_006": "3", "P29_007": "1", "P29_008": "00", "P29_009": null }, "geometry": { "type": "Point", "coordinates": [ 139.085567479391841, 36.379005610363329 ] } },
{ "type": "Feature", "properties": { "P29_001": "10201", "P29_002": "B110210000080", "P29_003": "16001", "P29_004": "前橋市立岩神小学校", "P29_005": "群馬県前橋市岩神町4-4-1", "P29_006": "3", "P29_007": "1", "P29_008": "00", "P29_009": null }, "geometry": { "type": "Point", "coordinates": [ 139.056191250917465, 36.407373974425184 ] } },
{ "type": "Feature", "properties": { "P29_001": "10201", "P29_002": "B110210000099", "P29_003": "16001", "P29_004": "前橋市立上川淵小学校", "P29_005": "群馬県前橋市朝倉町466", "P29_006": "3", "P29_007": "1", "P29_008": "00", "P29_009": null }, "geometry": { "type": "Point", "coordinates": [ 139.090397314756927, 36.35825399862933 ] } },
{ "type": "Feature", "properties": { "P29_001": "10201", "P29_002": "B110210000106", "P29_003": "16001", "P29_004": "前橋市立下川淵小学校", "P29_005": "群馬県前橋市鶴光路町38-1", "P29_006": "3", "P29_007": "1", "P29_008": "00", "P29_009": null }, "geometry": { "type": "Point", "coordinates": [ 139.094594350393493, 36.33599694213617 ] } },
{ "type": "Feature", "properties": { "P29_001": "10201", "P29_002": "B110210000115", "P29_003": "16001", "P29_004": "前橋市立桂萱小学校", "P29_005": "群馬県前橋市上泉町178", "P29_006": "3", "P29_007": "1", "P29_008": "00", "P29_009": null }, "geometry": { "type": "Point", "coordinates": [ 139.10491333123241, 36.396196926493275 ] } },
{ "type": "Feature", "properties": { "P29_001": "10201", "P29_002": "B110210000124", "P29_003": "16001", "P29_004": "前橋市立桂萱東小学校", "P29_005": "群馬県前橋市堤町471", "P29_006": "3", "P29_007": "1", "P29_008": "00", "P29_009": null }, "geometry": { "type": "Point", "coordinates": [ 139.129808042714473, 36.397618990356932 ] } },
{ "type": "Feature", "properties": { "P29_001": "10201", "P29_002": "B110210000133", "P29_003": "16001", "P29_004": "前橋市立芳賀小学校", "P29_005": "群馬県前橋市勝沢町719", "P29_006": "3", "P29_007": "1", "P29_008": "00", "P29_009": null }, "geometry": { "type": "Point", "coordinates": [ 139.105109907376601, 36.423076760288644 ] } },
{ "type": "Feature", "properties": { "P29_001": "10201", "P29_002": "B110210000142", "P29_003": "16001", "P29_004": "前橋市立総社小学校", "P29_005": "群馬県前橋市総社町総社1625", "P29_006": "3", "P29_007": "1", "P29_008": "00", "P29_009": null }, "geometry": { "type": "Point", "coordinates": [ 139.037931998683206, 36.409089000257644 ] } },
{ "type": "Feature", "properties": { "P29_001": "10201", "P29_002": "B110210000151", "P29_003": "16001", "P29_004": "前橋市立元総社小学校", "P29_005": "群馬県前橋市元総社町1-33-11", "P29_006": "3", "P29_007": "1", "P29_008": "00", "P29_009": null }, "geometry": { "type": "Point", "coordinates": [ 139.03868683382376, 36.386431933667055 ] } },
{ "type": "Feature", "properties": { "P29_001": "10201", "P29_002": "B110210000160", "P29_003": "16001", "P29_004": "前橋市立東小学校", "P29_005": "群馬県前橋市箱田町1452-1", "P29_006": "3", "P29_007": "1", "P29_008": "00", "P29_009": null }, "geometry": { "type": "Point", "coordinates": [ 139.052615043058637, 36.365877259886226 ] } },
{ "type": "Feature", "properties": { "P29_001": "10201", "P29_002": "B110210000179", "P29_003": "16001", "P29_004": "前橋市立細井小学校", "P29_005": "群馬県前橋市下細井町67-1", "P29_006": "3", "P29_007": "1", "P29_008": "00", "P29_009": null }, "geometry": { "type": "Point", "coordinates": [ 139.075575394522986, 36.415827188919408 ] } },
{ "type": "Feature", "properties": { "P29_001": "10201", "P29_002": "B110210000188", "P29_003": "16001", "P29_004": "前橋市立桃川小学校", "P29_005": "群馬県前橋市荒牧町1-46-11", "P29_006": "3", "P29_007": "1", "P29_008": "00", "P29_009": null }, "geometry": { "type": "Point", "coordinates": [ 139.0548593971738, 36.430474110326308 ] } },
{ "type": "Feature", "properties": { "P29_001": "10201", "P29_002": "B110210000197", "P29_003": "16001", "P29_004": "前橋市立清里小学校", "P29_005": "群馬県前橋市青梨子町446", "P29_006": "3", "P29_007": "1", "P29_008": "00", "P29_009": null }, "geometry": { "type": "Point", "coordinates": [ 139.012445464942829, 36.417264133575671 ] } },
{ "type": "Feature", "properties": { "P29_001": "10201", "P29_002": "B110210000204", "P29_003": "16001", "P29_004": "前橋市立永明小学校", "P29_005": "群馬県前橋市上大島町655", "P29_006": "3", "P29_007": "1", "P29_008": "00", "P29_009": null }, "geometry": { "type": "Point", "coordinates": [ 139.122319553481361, 36.369112611723288 ] } },
{ "type": "Feature", "properties": { "P29_001": "10201", "P29_002": "B110210000213", "P29_003": "16001", "P29_004": "前橋市立駒形小学校", "P29_005": "群馬県前橋市駒形町1172", "P29_006": "3", "P29_007": "1", "P29_008": "00", "P29_009": null }, "geometry": { "type": "Point", "coordinates": [ 139.136215762580434, 36.347276974496168 ] } },
{ "type": "Feature", "properties": { "P29_001": "10201", "P29_002": "B110210000222", "P29_003": "16001", "P29_004": "前橋市立荒子小学校", "P29_005": "群馬県前橋市荒子町1240", "P29_006": "3", "P29_007": "1", "P29_008": "00", "P29_009": null }, "geometry": { "type": "Point", "coordinates": [ 139.164785688702921, 36.388143287662757 ] } },
{ "type": "Feature", "properties": { "P29_001": "10201", "P29_002": "B110210000231", "P29_003": "16001", "P29_004": "前橋市立大室小学校", "P29_005": "群馬県前橋市西大室町2817", "P29_006": "3", "P29_007": "1", "P29_008": "00", "P29_009": null }, "geometry": { "type": "Point", "coordinates": [ 139.191843374841739, 36.384121953661996 ] } },
{ "type": "Feature", "properties": { "P29_001": "10201", "P29_002": "B110210000240", "P29_003": "16001", "P29_004": "前橋市立二之宮小学校", "P29_005": "群馬県前橋市二之宮町1841", "P29_006": "3", "P29_007": "1", "P29_008": "00", "P29_009": null }, "geometry": { "type": "Point", "coordinates": [ 139.167943238159665, 36.362520050114497 ] } },
{ "type": "Feature", "properties": { "P29_001": "10201", "P29_002": "B110210000259", "P29_003": "16001", "P29_004": "前橋市立笂井小学校", "P29_005": "群馬県前橋市笂井町1160", "P29_006": "3", "P29_007": "1", "P29_008": "00", "P29_009": null }, "geometry": { "type": "Point", "coordinates": [ 139.139107924726289, 36.361050975697069 ] } },
{ "type": "Feature", "properties": { "P29_001": "10201", "P29_002": "B110210000268", "P29_003": "16001", "P29_004": "前橋市立広瀬小学校", "P29_005": "群馬県前橋市広瀬町3-19", "P29_006": "3", "P29_007": "1", "P29_008": "00", "P29_009": null }, "geometry": { "type": "Point", "coordinates": [ 139.113886891491518, 36.357299730780355 ] } },
{ "type": "Feature", "properties": { "P29_001": "10201", "P29_002": "B110210000277", "P29_003": "16001", "P29_004": "前橋市立大利根小学校", "P29_005": "群馬県前橋市大利根町2-12-1", "P29_006": "3", "P29_007": "1", "P29_008": "00", "P29_009": null }, "geometry": { "type": "Point", "coordinates": [ 139.058991821921069, 36.36042064639264 ] } },
{ "type": "Feature", "properties": { "P29_001": "10201", "P29_002": "B110210000286", "P29_003": "16001", "P29_004": "前橋市立桃瀬小学校", "P29_005": "群馬県前橋市西片貝町3-343", "P29_006": "3", "P29_007": "1", "P29_008": "00", "P29_009": null }, "geometry": { "type": "Point", "coordinates": [ 139.101316187167953, 36.386254960846756 ] } },
{ "type": "Feature", "properties": { "P29_001": "10201", "P29_002": "B110210000295", "P29_003": "16001", "P29_004": "前橋市立荒牧小学校", "P29_005": "群馬県前橋市荒牧町4-9-2", "P29_006": "3", "P29_007": "1", "P29_008": "00", "P29_009": null }, "geometry": { "type": "Point", "coordinates": [ 139.048041218489431, 36.427928111113772 ] } },
{ "type": "Feature", "properties": { "P29_001": "10201", "P29_002": "B110210000302", "P29_003": "16001", "P29_004": "前橋市立勝山小学校", "P29_005": "群馬県前橋市総社町植野123", "P29_006": "3", "P29_007": "1", "P29_008": "00", "P29_009": null }, "geometry": { "type": "Point", "coordinates": [ 139.041492284404455, 36.414320538269799 ] } },
{ "type": "Feature", "properties": { "P29_001": "10201", "P29_002": "B110210000311", "P29_003": "16001", "P29_004": "前橋市立元総社南小学校", "P29_005": "群馬県前橋市元総社町80-2", "P29_006": "3", "P29_007": "1", "P29_008": "00", "P29_009": null }, "geometry": { "type": "Point", "coordinates": [ 139.042980345137494, 36.382831946586151 ] } },
{ "type": "Feature", "properties": { "P29_001": "10201", "P29_002": "B110210000320", "P29_003": "16001", "P29_004": "前橋市立桃木小学校", "P29_005": "群馬県前橋市上沖町732-1", "P29_006": "3", "P29_007": "1", "P29_008": "00", "P29_009": null }, "geometry": { "type": "Point", "coordinates": [ 139.090696478001462, 36.403689508271519 ] } },
{ "type": "Feature", "properties": { "P29_001": "10201", "P29_002": "B110210000339", "P29_003": "16001", "P29_004": "前橋市立山王小学校", "P29_005": "群馬県前橋市山王町160-1", "P29_006": "3", "P29_007": "1", "P29_008": "00", "P29_009": null }, "geometry": { "type": "Point", "coordinates": [ 139.12428949541129, 36.349091995554446 ] } },
{ "type": "Feature", "properties": { "P29_001": "10201", "P29_002": "B110210000348", "P29_003": "16001", "P29_004": "前橋市立新田小学校", "P29_005": "群馬県前橋市上新田町1160", "P29_006": "3", "P29_007": "1", "P29_008": "00", "P29_009": null }, "geometry": { "type": "Point", "coordinates": [ 139.06744799841286, 36.362085000034867 ] } },
{ "type": "Feature", "properties": { "P29_001": "10201", "P29_002": "B110210000357", "P29_003": "16001", "P29_004": "前橋市立元総社北小学校", "P29_005": "群馬県前橋市総社町総社3149", "P29_006": "3", "P29_007": "1", "P29_008": "00", "P29_009": null }, "geometry": { "type": "Point", "coordinates": [ 139.033887083970228, 36.395028928609747 ] } },
{ "type": "Feature", "properties": { "P29_001": "10202", "P29_002": "B110210000366", "P29_003": "16001", "P29_004": "高崎市立中央小学校", "P29_005": "群馬県高崎市常盤町48-1", "P29_006": "3", "P29_007": "1", "P29_008": "00", "P29_009": null }, "geometry": { "type": "Point", "coordinates": [ 138.99903011881014, 36.327948348882053 ] } },
{ "type": "Feature", "properties": { "P29_001": "10202", "P29_002": "B110210000375", "P29_003": "16001", "P29_004": "高崎市立北小学校", "P29_005": "群馬県高崎市請地町20-2", "P29_006": "3", "P29_007": "1", "P29_008": "00", "P29_009": null }, "geometry": { "type": "Point", "coordinates": [ 139.002169467730312, 36.333120888138964 ] } },
{ "type": "Feature", "properties": { "P29_001": "10202", "P29_002": "B110210000384", "P29_003": "16001", "P29_004": "高崎市立南小学校", "P29_005": "群馬県高崎市八島町70-1", "P29_006": "3", "P29_007": "1", "P29_008": "00", "P29_009": null }, "geometry": { "type": "Point", "coordinates": [ 139.009750337506233, 36.321485954623064 ] } },
{ "type": "Feature", "properties": { "P29_001": "10202", "P29_002": "B110210000393", "P29_003": "16001", "P29_004": "高崎市立東小学校", "P29_005": "群馬県高崎市弓町121-1", "P29_006": "3", "P29_007": "1", "P29_008": "00", "P29_009": null }, "geometry": { "type": "Point", "coordinates": [ 139.010092455576114, 36.329575905905493 ] } },
{ "type": "Feature", "properties": { "P29_001": "10202", "P29_002": "B110210000400", "P29_003": "16001", "P29_004": "高崎市立西小学校", "P29_005": "群馬県高崎市並榎町109-1", "P29_006": "3", "P29_007": "1", "P29_008": "00", "P29_009": null }, "geometry": { "type": "Point", "coordinates": [ 138.99468739067558, 36.339454322068953 ] } },
{ "type": "Feature", "properties": { "P29_001": "10202", "P29_002": "B110210000419", "P29_003": "16001", "P29_004": "高崎市立塚沢小学校", "P29_005": "群馬県高崎市飯玉町134-1", "P29_006": "3", "P29_007": "1", "P29_008": "00", "P29_009": null }, "geometry": { "type": "Point", "coordinates": [ 139.016724248163683, 36.340132015010958 ] } },
{ "type": "Feature", "properties": { "P29_001": "10202", "P29_002": "B110210000428", "P29_003": "16001", "P29_004": "高崎市立片岡小学校", "P29_005": "群馬県高崎市片岡町2-12-1", "P29_006": "3", "P29_007": "1", "P29_008": "00", "P29_009": null }, "geometry": { "type": "Point", "coordinates": [ 138.99739736677401, 36.315810329003654 ] } },
{ "type": "Feature", "properties": { "P29_001": "10202", "P29_002": "B110210000437", "P29_003": "16001", "P29_004": "高崎市立佐野小学校", "P29_005": "群馬県高崎市上佐野町918-2", "P29_006": "3", "P29_007": "1", "P29_008": "00", "P29_009": null }, "geometry": { "type": "Point", "coordinates": [ 139.024982810803436, 36.308839774668307 ] } },
{ "type": "Feature", "properties": { "P29_001": "10202", "P29_002": "B110210000446", "P29_003": "16001", "P29_004": "高崎市立六郷小学校", "P29_005": "群馬県高崎市筑縄町32-2", "P29_006": "3", "P29_007": "1", "P29_008": "00", "P29_009": null }, "geometry": { "type": "Point", "coordinates": [ 138.987298569336645, 36.353585682296149 ] } },
{ "type": "Feature", "properties": { "P29_001": "10202", "P29_002": "B110210000455", "P29_003": "16001", "P29_004": "高崎市立城南小学校", "P29_005": "群馬県高崎市新後閑町301-1", "P29_006": "3", "P29_007": "1", "P29_008": "00", "P29_009": null }, "geometry": { "type": "Point", "coordinates": [ 139.011812056153047, 36.310836953827156 ] } },
{ "type": "Feature", "properties": { "P29_001": "10202", "P29_002": "B110210000464", "P29_003": "16001", "P29_004": "高崎市立城東小学校", "P29_005": "群馬県高崎市江木町128-1", "P29_006": "3", "P29_007": "1", "P29_008": "00", "P29_009": null }, "geometry": { "type": "Point", "coordinates": [ 139.021176587914482, 36.326627777747248 ] } },
{ "type": "Feature", "properties": { "P29_001": "10202", "P29_002": "B110210000473", "P29_003": "16001", "P29_004": "高崎市立新高尾小学校", "P29_005": "群馬県高崎市日高町592-1", "P29_006": "3", "P29_007": "1", "P29_008": "00", "P29_009": null }, "geometry": { "type": "Point", "coordinates": [ 139.036460224435245, 36.364702678266852 ] } },
{ "type": "Feature", "properties": { "P29_001": "10202", "P29_002": "B110210000482", "P29_003": "16001", "P29_004": "高崎市立中川小学校", "P29_005": "群馬県高崎市小八木町1860-1", "P29_006": "3", "P29_007": "1", "P29_008": "00", "P29_009": null }, "geometry": { "type": "Point", "coordinates": [ 139.01482156374675, 36.364313406411178 ] } },
{ "type": "Feature", "properties": { "P29_001": "10202", "P29_002": "B110210000491", "P29_003": "16001", "P29_004": "高崎市立八幡小学校", "P29_005": "群馬県高崎市八幡町179-1", "P29_006": "3", "P29_007": "1", "P29_008": "00", "P29_009": null }, "geometry": { "type": "Point", "coordinates": [ 138.951619603611505, 36.336151088321522 ] } },
{ "type": "Feature", "properties": { "P29_001": "10202", "P29_002": "B110210000507", "P29_003": "16001", "P29_004": "高崎市立豊岡小学校", "P29_005": "群馬県高崎市中豊岡町24", "P29_006": "3", "P29_007": "1", "P29_008": "00", "P29_009": null }, "geometry": { "type": "Point", "coordinates": [ 138.975001908707554, 36.334914705478248 ] } },
{ "type": "Feature", "properties": { "P29_001": "10202", "P29_002": "B110210000516", "P29_003": "16001", "P29_004": "高崎市立長野小学校", "P29_005": "群馬県高崎市南新波町77-1", "P29_006": "3", "P29_007": "1", "P29_008": "00", "P29_009": null }, "geometry": { "type": "Point", "coordinates": [ 138.971617507248283, 36.363738976006935 ] } },
{ "type": "Feature", "properties": { "P29_001": "10202", "P29_002": "B110210000525", "P29_003": "16001", "P29_004": "高崎市立大類小学校", "P29_005": "群馬県高崎市南大類町543-1", "P29_006": "3", "P29_007": "1", "P29_008": "00", "P29_009": null }, "geometry": { "type": "Point", "coordinates": [ 139.045690784225144, 36.324127696954115 ] } },
{ "type": "Feature", "properties": { "P29_001": "10202", "P29_002": "B110210000534", "P29_003": "16001", "P29_004": "高崎市立南八幡小学校", "P29_005": "群馬県高崎市山名町24-1", "P29_006": "3", "P29_007": "1", "P29_008": "00", "P29_009": null }, "geometry": { "type": "Point", "coordinates": [ 139.039005064266604, 36.281071279061159 ] } },
{ "type": "Feature", "properties": { "P29_001": "10202", "P29_002": "B110210000543", "P29_003": "16001", "P29_004": "高崎市立倉賀野小学校", "P29_005": "群馬県高崎市倉賀野町1744", "P29_006": "3", "P29_007": "1", "P29_008": "00", "P29_009": null }, "geometry": { "type": "Point", "coordinates": [ 139.048470341112079, 36.299909940956866 ] } },
{ "type": "Feature", "properties": { "P29_001": "10202", "P29_002": "B110210000552", "P29_003": "16001", "P29_004": "高崎市立岩鼻小学校", "P29_005": "群馬県高崎市台新田町1", "P29_006": "3", "P29_007": "1", "P29_008": "00", "P29_009": null }, "geometry": { "type": "Point", "coordinates": [ 139.069635905268285, 36.302493905332597 ] } },
{ "type": "Feature", "properties": { "P29_001": "10202", "P29_002": "B110210000561", "P29_003": "16001", "P29_004": "高崎市立京ケ島小学校", "P29_005": "群馬県高崎市京目町44-1", "P29_006": "3", "P29_007": "1", "P29_008": "00", "P29_009": null }, "geometry": { "type": "Point", "coordinates": [ 139.064052901071051, 36.340465975335611 ] } },
{ "type": "Feature", "properties": { "P29_001": "10202", "P29_002": "B110210000570", "P29_003": "16001", "P29_004": "高崎市立滝川小学校", "P29_005": "群馬県高崎市下滝町585-2", "P29_006": "3", "P29_007": "1", "P29_008": "00", "P29_009": null }, "geometry": { "type": "Point", "coordinates": [ 139.084141947546584, 36.311776295469478 ] } },
{ "type": "Feature", "properties": { "P29_001": "10202", "P29_002": "B110210000589", "P29_003": "16001", "P29_004": "高崎市立寺尾小学校", "P29_005": "群馬県高崎市寺尾町290", "P29_006": "3", "P29_007": "1", "P29_008": "00", "P29_009": null }, "geometry": { "type": "Point", "coordinates": [ 139.007511110861941, 36.302680956994216 ] } },
{ "type": "Feature", "properties": { "P29_001": "10202", "P29_002": "B110210000598", "P29_003": "16001", "P29_004": "高崎市立東部小学校", "P29_005": "群馬県高崎市上大類町1372", "P29_006": "3", "P29_007": "1", "P29_008": "00", "P29_009": null }, "geometry": { "type": "Point", "coordinates": [ 139.030902619048049, 36.342338889081105 ] } },
{ "type": "Feature", "properties": { "P29_001": "10202", "P29_002": "B110210000605", "P29_003": "16001", "P29_004": "高崎市立中居小学校", "P29_005": "群馬県高崎市中居町3-28-1", "P29_006": "3", "P29_007": "1", "P29_008": "00", "P29_009": null }, "geometry": { "type": "Point", "coordinates": [ 139.041039016971354, 36.316318234212311 ] } },
{ "type": "Feature", "properties": { "P29_001": "10202", "P29_002": "B110210000614", "P29_003": "16001", "P29_004": "高崎市立北部小学校", "P29_005": "群馬県高崎市下小塙町719-1", "P29_006": "3", "P29_007": "1", "P29_008": "00", "P29_009": null }, "geometry": { "type": "Point", "coordinates": [ 138.973844001794447, 36.351166996396145 ] } },
{ "type": "Feature", "properties": { "P29_001": "10202", "P29_002": "B110210000623", "P29_003": "16001", "P29_004": "高崎市立西部小学校", "P29_005": "群馬県高崎市八幡町1414", "P29_006": "3", "P29_007": "1", "P29_008": "00", "P29_009": null }, "geometry": { "type": "Point", "coordinates": [ 138.943602832357612, 36.347934978811466 ] } },
{ "type": "Feature", "properties": { "P29_001": "10202", "P29_002": "B110210000632", "P29_003": "16001", "P29_004": "高崎市立乗附小学校", "P29_005": "群馬県高崎市乗附町155-1", "P29_006": "3", "P29_007": "1", "P29_008": "00", "P29_009": null }, "geometry": { "type": "Point", "coordinates": [ 138.985092414929028, 36.326528423365005 ] } },
{ "type": "Feature", "properties": { "P29_001": "10202", "P29_002": "B110210000641", "P29_003": "16001", "P29_004": "高崎市立浜尻小学校", "P29_005": "群馬県高崎市浜尻町210-1", "P29_006": "3", "P29_007": "1", "P29_008": "00", "P29_009": null }, "geometry": { "type": "Point", "coordinates": [ 139.014109637446467, 36.350623844953446 ] } },
{ "type": "Feature", "properties": { "P29_001": "10202", "P29_002": "B110210000650", "P29_003": "16001", "P29_004": "高崎市立城山小学校", "P29_005": "群馬県高崎市城山町2-16-1", "P29_006": "3", "P29_007": "1", "P29_008": "00", "P29_009": null }, "geometry": { "type": "Point", "coordinates": [ 139.013738343685134, 36.285985264999681 ] } },
{ "type": "Feature", "properties": { "P29_001": "10202", "P29_002": "B110210000669", "P29_003": "16001", "P29_004": "高崎市立矢中小学校", "P29_005": "群馬県高崎市矢中町160-1", "P29_006": "3", "P29_007": "1", "P29_008": "00", "P29_009": null }, "geometry": { "type": "Point", "coordinates": [ 139.048310397463979, 36.310445192290864 ] } },
{ "type": "Feature", "properties": { "P29_001": "10202", "P29_002": "B110210000678", "P29_003": "16001", "P29_004": "高崎市立鼻高小学校", "P29_005": "群馬県高崎市鼻高町58-2", "P29_006": "3", "P29_007": "1", "P29_008": "00", "P29_009": null }, "geometry": { "type": "Point", "coordinates": [ 138.939319188915618, 36.332414932529787 ] } },
{ "type": "Feature", "properties": { "P29_001": "10203", "P29_002": "B110210000687", "P29_003": "16001", "P29_004": "桐生市立東小学校", "P29_005": "群馬県桐生市仲町2-4-21", "P29_006": "3", "P29_007": "1", "P29_008": "00", "P29_009": null }, "geometry": { "type": "Point", "coordinates": [ 139.342624678333181, 36.410298728152341 ] } },
{ "type": "Feature", "properties": { "P29_001": "10203", "P29_002": "B110210000696", "P29_003": "16001", "P29_004": "桐生市立西小学校", "P29_005": "群馬県桐生市小曽根町1-9", "P29_006": "3", "P29_007": "1", "P29_008": "00", "P29_009": null }, "geometry": { "type": "Point", "coordinates": [ 139.337023654561818, 36.414769560012651 ] } },
{ "type": "Feature", "properties": { "P29_001": "10203", "P29_002": "B110210000703", "P29_003": "16001", "P29_004": "桐生市立南小学校", "P29_005": "群馬県桐生市新宿2-7-1", "P29_006": "3", "P29_007": "1", "P29_008": "00", "P29_009": null }, "geometry": { "type": "Point", "coordinates": [ 139.338893580580049, 36.40003681244287 ] } },
{ "type": "Feature", "properties": { "P29_001": "10203", "P29_002": "B110210000712", "P29_003": "16001", "P29_004": "桐生市立北小学校", "P29_005": "群馬県桐生市西久方町2-1-5", "P29_006": "3", "P29_007": "1", "P29_008": "00", "P29_009": null }, "geometry": { "type": "Point", "coordinates": [ 139.341150164736462, 36.418089797237748 ] } },
{ "type": "Feature", "properties": { "P29_001": "10203", "P29_002": "B110210000721", "P29_003": "16001", "P29_004": "桐生市立境野小学校", "P29_005": "群馬県桐生市境野町6-1616-1", "P29_006": "3", "P29_007": "1", "P29_008": "00", "P29_009": null }, "geometry": { "type": "Point", "coordinates": [ 139.353615541951882, 36.384514738543544 ] } },
{ "type": "Feature", "properties": { "P29_001": "10203", "P29_002": "B110210000730", "P29_003": "16001", "P29_004": "桐生市立広沢小学校", "P29_005": "群馬県桐生市広沢町4-2044-2", "P29_006": "3", "P29_007": "1", "P29_008": "00", "P29_009": null }, "geometry": { "type": "Point", "coordinates": [ 139.338681975750205, 36.381043665835449 ] } },
{ "type": "Feature", "properties": { "P29_001": "10203", "P29_002": "B110210000749", "P29_003": "16001", "P29_004": "桐生市立梅田南小学校", "P29_005": "群馬県桐生市梅田町2-179", "P29_006": "3", "P29_007": "1", "P29_008": "00", "P29_009": null }, "geometry": { "type": "Point", "coordinates": [ 139.380228138924338, 36.452372983654371 ] } },
{ "type": "Feature", "properties": { "P29_001": "10203", "P29_002": "B110210000758", "P29_003": "16001", "P29_004": "桐生市立相生小学校", "P29_005": "群馬県桐生市相生町2-420", "P29_006": "3", "P29_007": "1", "P29_008": "00", "P29_009": null }, "geometry": { "type": "Point", "coordinates": [ 139.309630299517323, 36.413458018683706 ] } },
{ "type": "Feature", "properties": { "P29_001": "10203", "P29_002": "B110210000767", "P29_003": "16001", "P29_004": "桐生市立桜木小学校", "P29_005": "群馬県桐生市相生町1-383", "P29_006": "3", "P29_007": "1", "P29_008": "00", "P29_009": null }, "geometry": { "type": "Point", "coordinates": [ 139.319136004942948, 36.398949239712834 ] } },
{ "type": "Feature", "properties": { "P29_001": "10203", "P29_002": "B110210000776", "P29_003": "16001", "P29_004": "桐生市立菱小学校", "P29_005": "群馬県桐生市菱町2-1919-1", "P29_006": "3", "P29_007": "1", "P29_008": "00", "P29_009": null }, "geometry": { "type": "Point", "coordinates": [ 139.356878909233131, 36.413024931074027 ] } },
{ "type": "Feature", "properties": { "P29_001": "10203", "P29_002": "B110210000785", "P29_003": "16001", "P29_004": "桐生市立天沼小学校", "P29_005": "群馬県桐生市相生町5-713-1", "P29_006": "3", "P29_007": "1", "P29_008": "00", "P29_009": null }, "geometry": { "type": "Point", "coordinates": [ 139.295292649108433, 36.408032030362563 ] } },
{ "type": "Feature", "properties": { "P29_001": "10203", "P29_002": "B110210000794", "P29_003": "16001", "P29_004": "桐生市立神明小学校", "P29_005": "群馬県桐生市広沢町2-3242-1", "P29_006": "3", "P29_007": "1", "P29_008": "00", "P29_009": null }, "geometry": { "type": "Point", "coordinates": [ 139.321419064530062, 36.38924672418959 ] } },
{ "type": "Feature", "properties": { "P29_001": "10203", "P29_002": "B110210000801", "P29_003": "16001", "P29_004": "桐生市立川内小学校", "P29_005": "群馬県桐生市川内町3-572", "P29_006": "3", "P29_007": "1", "P29_008": "00", "P29_009": null }, "geometry": { "type": "Point", "coordinates": [ 139.305341691683225, 36.432748955601411 ] } },
{ "type": "Feature", "properties": { "P29_001": "10204", "P29_002": "B110210000810", "P29_003": "16001", "P29_004": "伊勢崎市立北小学校", "P29_005": "群馬県伊勢崎市曲輪町28-24", "P29_006": "3", "P29_007": "1", "P29_008": "00", "P29_009": null }, "geometry": { "type": "Point", "coordinates": [ 139.191548245099995, 36.322544479484016 ] } },
{ "type": "Feature", "properties": { "P29_001": "10204", "P29_002": "B110210000829", "P29_003": "16001", "P29_004": "伊勢崎市立南小学校", "P29_005": "群馬県伊勢崎市上泉町310", "P29_006": "3", "P29_007": "1", "P29_008": "00", "P29_009": null }, "geometry": { "type": "Point", "coordinates": [ 139.194517889797623, 36.313489054 ] } },
{ "type": "Feature", "properties": { "P29_001": "10204", "P29_002": "B110210000838", "P29_003": "16001", "P29_004": "伊勢崎市立殖蓮小学校", "P29_005": "群馬県伊勢崎市上植木本町2763", "P29_006": "3", "P29_007": "1", "P29_008": "00", "P29_009": null }, "geometry": { "type": "Point", "coordinates": [ 139.211801279012519, 36.333717571089863 ] } },
{ "type": "Feature", "properties": { "P29_001": "10204", "P29_002": "B110210000847", "P29_003": "16001", "P29_004": "伊勢崎市立茂呂小学校", "P29_005": "群馬県伊勢崎市茂呂町2-2169-1", "P29_006": "3", "P29_007": "1", "P29_008": "00", "P29_009": null }, "geometry": { "type": "Point", "coordinates": [ 139.207838673536031, 36.303298482344339 ] } },
{ "type": "Feature", "properties": { "P29_001": "10204", "P29_002": "B110210000856", "P29_003": "16001", "P29_004": "伊勢崎市立三郷小学校", "P29_005": "群馬県伊勢崎市波志江町1620", "P29_006": "3", "P29_007": "1", "P29_008": "00", "P29_009": null }, "geometry": { "type": "Point", "coordinates": [ 139.18418399532581, 36.343280998337399 ] } },
{ "type": "Feature", "properties": { "P29_001": "10204", "P29_002": "B110210000865", "P29_003": "16001", "P29_004": "伊勢崎市立宮郷小学校", "P29_005": "群馬県伊勢崎市田中島町1475-4", "P29_006": "3", "P29_007": "1", "P29_008": "00", "P29_009": null }, "geometry": { "type": "Point", "coordinates": [ 139.163642356812801, 36.319580978583453 ] } },
{ "type": "Feature", "properties": { "P29_001": "10204", "P29_002": "B110210000874", "P29_003": "16001", "P29_004": "伊勢崎市立名和小学校", "P29_005": "群馬県伊勢崎市堀口町502-1", "P29_006": "3", "P29_007": "1", "P29_008": "00", "P29_009": null }, "geometry": { "type": "Point", "coordinates": [ 139.181061263036895, 36.290722040946832 ] } },
{ "type": "Feature", "properties": { "P29_001": "10204", "P29_002": "B110210000883", "P29_003": "16001", "P29_004": "伊勢崎市立豊受小学校", "P29_005": "群馬県伊勢崎市馬見塚町1130", "P29_006": "3", "P29_007": "1", "P29_008": "00", "P29_009": null }, "geometry": { "type": "Point", "coordinates": [ 139.211344159613759, 36.274756620040058 ] } },
{ "type": "Feature", "properties": { "P29_001": "10204", "P29_002": "B110210000892", "P29_003": "16001", "P29_004": "伊勢崎市立北第二小学校", "P29_005": "群馬県伊勢崎市宗高町125", "P29_006": "3", "P29_007": "1", "P29_008": "00", "P29_009": null }, "geometry": { "type": "Point", "coordinates": [ 139.200602629051332, 36.328745938810634 ] } },
{ "type": "Feature", "properties": { "P29_001": "10204", "P29_002": "B110210000909", "P29_003": "16001", "P29_004": "伊勢崎市立殖蓮第二小学校", "P29_005": "群馬県伊勢崎市下植木町1203", "P29_006": "3", "P29_007": "1", "P29_008": "00", "P29_009": null }, "geometry": { "type": "Point", "coordinates": [ 139.215149291745206, 36.32343391634825 ] } },
{ "type": "Feature", "properties": { "P29_001": "10204", "P29_002": "B110210000918", "P29_003": "16001", "P29_004": "伊勢崎市立広瀬小学校", "P29_005": "群馬県伊勢崎市新栄町4074-1", "P29_006": "3", "P29_007": "1", "P29_008": "00", "P29_009": null }, "geometry": { "type": "Point", "coordinates": [ 139.192336613407463, 36.303055972476862 ] } },
{ "type": "Feature", "properties": { "P29_001": "10204", "P29_002": "B110210000927", "P29_003": "16001", "P29_004": "伊勢崎市立坂東小学校", "P29_005": "群馬県伊勢崎市除ヶ町422", "P29_006": "3", "P29_007": "1", "P29_008": "00", "P29_009": null }, "geometry": { "type": "Point", "coordinates": [ 139.189887316113129, 36.28021563822265 ] } },
{ "type": "Feature", "properties": { "P29_001": "10204", "P29_002": "B110210000936", "P29_003": "16001", "P29_004": "伊勢崎市立宮郷第二小学校", "P29_005": "群馬県伊勢崎市連取町3069-1", "P29_006": "3", "P29_007": "1", "P29_008": "00", "P29_009": null }, "geometry": { "type": "Point", "coordinates": [ 139.175835879902138, 36.317658483257453 ] } },
{ "type": "Feature", "properties": { "P29_001": "10205", "P29_002": "B110210000945", "P29_003": "16001", "P29_004": "太田市立太田小学校", "P29_005": "群馬県太田市本町31-1", "P29_006": "3", "P29_007": "1", "P29_008": "00", "P29_009": null }, "geometry": { "type": "Point", "coordinates": [ 139.373104602611619, 36.298522633260326 ] } },
{ "type": "Feature", "properties": { "P29_001": "10205", "P29_002": "B110210000954", "P29_003": "16001", "P29_004": "太田市立九合小学校", "P29_005": "群馬県太田市飯塚町1534", "P29_006": "3", "P29_007": "1", "P29_008": "00", "P29_009": null }, "geometry": { "type": "Point", "coordinates": [ 139.384260307360108, 36.282408959845498 ] } },
{ "type": "Feature", "properties": { "P29_001": "10205", "P29_002": "B110210000963", "P29_003": "16001", "P29_004": "太田市立沢野小学校", "P29_005": "群馬県太田市福沢町226-1", "P29_006": "3", "P29_007": "1", "P29_008": "00", "P29_009": null }, "geometry": { "type": "Point", "coordinates": [ 139.355740388877422, 36.266768209020441 ] } },
{ "type": "Feature", "properties": { "P29_001": "10205", "P29_002": "B110210000972", "P29_003": "16001", "P29_004": "太田市立韮川小学校", "P29_005": "群馬県太田市台之郷町999", "P29_006": "3", "P29_007": "1", "P29_008": "00", "P29_009": null }, "geometry": { "type": "Point", "coordinates": [ 139.403136648501174, 36.304275620578593 ] } },
{ "type": "Feature", "properties": { "P29_001": "10205", "P29_002": "B110210000981", "P29_003": "16001", "P29_004": "太田市立鳥之郷小学校", "P29_005": "群馬県太田市鶴生田町83-2", "P29_006": "3", "P29_007": "1", "P29_008": "00", "P29_009": null }, "geometry": { "type": "Point", "coordinates": [ 139.357349268658538, 36.317531704129649 ] } },
{ "type": "Feature", "properties": { "P29_001": "10205", "P29_002": "B110210001007", "P29_003": "16001", "P29_004": "太田市立南小学校", "P29_005": "群馬県太田市高林東町1372", "P29_006": "3", "P29_007": "1", "P29_008": "00", "P29_009": null }, "geometry": { "type": "Point", "coordinates": [ 139.376400659774021, 36.25575494764518 ] } },
{ "type": "Feature", "properties": { "P29_001": "10205", "P29_002": "B110210001016", "P29_003": "16001", "P29_004": "太田市立休泊小学校", "P29_005": "群馬県太田市龍舞町3816-3", "P29_006": "3", "P29_007": "1", "P29_008": "00", "P29_009": null }, "geometry": { "type": "Point", "coordinates": [ 139.416474037505935, 36.28367449834797 ] } },
{ "type": "Feature", "properties": { "P29_001": "10205", "P29_002": "B110210001025", "P29_003": "16001", "P29_004": "太田市立強戸小学校", "P29_005": "群馬県太田市天良町858-2", "P29_006": "3", "P29_007": "1", "P29_008": "00", "P29_009": null }, "geometry": { "type": "Point", "coordinates": [ 139.337949240425246, 36.333230965397583 ] } },
{ "type": "Feature", "properties": { "P29_001": "10205", "P29_002": "B110210001034", "P29_003": "16001", "P29_004": "太田市立宝泉小学校", "P29_005": "群馬県太田市由良町1738-1", "P29_006": "3", "P29_007": "1", "P29_008": "00", "P29_009": null }, "geometry": { "type": "Point", "coordinates": [ 139.335995195139247, 36.28866361105004 ] } },
{ "type": "Feature", "properties": { "P29_001": "10205", "P29_002": "B110210001043", "P29_003": "16001", "P29_004": "太田市立宝泉南小学校", "P29_005": "群馬県太田市中根町261-1", "P29_006": "3", "P29_007": "1", "P29_008": "00", "P29_009": null }, "geometry": { "type": "Point", "coordinates": [ 139.325772850090743, 36.274422062942335 ] } },
{ "type": "Feature", "properties": { "P29_001": "10205", "P29_002": "B110210001052", "P29_003": "16001", "P29_004": "太田市立毛里田小学校", "P29_005": "群馬県太田市只上町970-1", "P29_006": "3", "P29_007": "1", "P29_008": "00", "P29_009": null }, "geometry": { "type": "Point", "coordinates": [ 139.389914569077717, 36.337446710925448 ] } },
{ "type": "Feature", "properties": { "P29_001": "10205", "P29_002": "B110210001061", "P29_003": "16001", "P29_004": "太田市立中央小学校", "P29_005": "群馬県太田市飯田町1166", "P29_006": "3", "P29_007": "1", "P29_008": "00", "P29_009": null }, "geometry": { "type": "Point", "coordinates": [ 139.381735822141422, 36.290901439084948 ] } },
{ "type": "Feature", "properties": { "P29_001": "10205", "P29_002": "B110210001070", "P29_003": "16001", "P29_004": "太田市立宝泉東小学校", "P29_005": "群馬県太田市藤久良町1", "P29_006": "3", "P29_007": "1", "P29_008": "00", "P29_009": null }, "geometry": { "type": "Point", "coordinates": [ 139.353120750814668, 36.293318101133536 ] } },
{ "type": "Feature", "properties": { "P29_001": "10205", "P29_002": "B110210001098", "P29_003": "16001", "P29_004": "太田市立旭小学校", "P29_005": "群馬県太田市東矢島町1249", "P29_006": "3", "P29_007": "1", "P29_008": "00", "P29_009": null }, "geometry": { "type": "Point", "coordinates": [ 139.385376553244782, 36.27267474068951 ] } },
{ "type": "Feature", "properties": { "P29_001": "10205", "P29_002": "B110210001105", "P29_003": "16001", "P29_004": "太田市立駒形小学校", "P29_005": "群馬県太田市植木野町7", "P29_006": "3", "P29_007": "1", "P29_008": "00", "P29_009": null }, "geometry": { "type": "Point", "coordinates": [ 139.414263701370743, 36.314239204876877 ] } },
{ "type": "Feature", "properties": { "P29_001": "10205", "P29_002": "B110210001114", "P29_003": "16001", "P29_004": "太田市立城西小学校", "P29_005": "群馬県太田市新野町127", "P29_006": "3", "P29_007": "1", "P29_008": "00", "P29_009": null }, "geometry": { "type": "Point", "coordinates": [ 139.347708265748764, 36.308968014274939 ] } },
{ "type": "Feature", "properties": { "P29_001": "10205", "P29_002": "B110210001123", "P29_003": "16001", "P29_004": "太田市立沢野中央小学校", "P29_005": "群馬県太田市富沢町73", "P29_006": "3", "P29_007": "1", "P29_008": "00", "P29_009": null }, "geometry": { "type": "Point", "coordinates": [ 139.358060270957651, 36.263565225628348 ] } },
{ "type": "Feature", "properties": { "P29_001": "10206", "P29_002": "B110210001132", "P29_003": "16001", "P29_004": "沼田市立沼田小学校", "P29_005": "群馬県沼田市西倉内町746", "P29_006": "3", "P29_007": "1", "P29_008": "00", "P29_009": null }, "geometry": { "type": "Point", "coordinates": [ 139.043284366935865, 36.647112533578529 ] } },
{ "type": "Feature", "properties": { "P29_001": "10206", "P29_002": "B110210001141", "P29_003": "16001", "P29_004": "沼田市立沼田東小学校", "P29_005": "群馬県沼田市東原新町1801-1", "P29_006": "3", "P29_007": "1", "P29_008": "00", "P29_009": null }, "geometry": { "type": "Point", "coordinates": [ 139.062196385736968, 36.650159146259917 ] } },
{ "type": "Feature", "properties": { "P29_001": "10206", "P29_002": "B110210001150", "P29_003": "16001", "P29_004": "沼田市立升形小学校", "P29_005": "群馬県沼田市栄町141", "P29_006": "3", "P29_007": "1", "P29_008": "00", "P29_009": null }, "geometry": { "type": "Point", "coordinates": [ 139.048470768804634, 36.633122303709918 ] } },
{ "type": "Feature", "properties": { "P29_001": "10206", "P29_002": "B110210001169", "P29_003": "16001", "P29_004": "沼田市立利南東小学校", "P29_005": "群馬県沼田市上久屋町2135", "P29_006": "3", "P29_007": "1", "P29_008": "00", "P29_009": null }, "geometry": { "type": "Point", "coordinates": [ 139.088976842506327, 36.657384916377268 ] } },
{ "type": "Feature", "properties": { "P29_001": "10206", "P29_002": "B110210001178", "P29_003": "16001", "P29_004": "沼田市立池田小学校", "P29_005": "群馬県沼田市発知新田町533", "P29_006": "3", "P29_007": "1", "P29_008": "00", "P29_009": null }, "geometry": { "type": "Point", "coordinates": [ 139.06328860266504, 36.696337947154284 ] } },
{ "type": "Feature", "properties": { "P29_001": "10206", "P29_002": "B110210001187", "P29_003": "16001", "P29_004": "沼田市立薄根小学校", "P29_005": "群馬県沼田市善桂寺町32", "P29_006": "3", "P29_007": "1", "P29_008": "00", "P29_009": null }, "geometry": { "type": "Point", "coordinates": [ 139.037083838573494, 36.662227916051563 ] } },
{ "type": "Feature", "properties": { "P29_001": "10206", "P29_002": "B110210001196", "P29_003": "16001", "P29_004": "沼田市立川田小学校", "P29_005": "群馬県沼田市下川田町540", "P29_006": "3", "P29_007": "1", "P29_008": "00", "P29_009": null }, "geometry": { "type": "Point", "coordinates": [ 139.032654475428302, 36.630132828239091 ] } },
{ "type": "Feature", "properties": { "P29_001": "10206", "P29_002": "B110210001203", "P29_003": "16001", "P29_004": "沼田市立沼田北小学校", "P29_005": "群馬県沼田市高橋場町4898", "P29_006": "3", "P29_007": "1", "P29_008": "00", "P29_009": null }, "geometry": { "type": "Point", "coordinates": [ 139.064637746944868, 36.656536875754334 ] } },
{ "type": "Feature", "properties": { "P29_001": "10207", "P29_002": "B110210001212", "P29_003": "16001", "P29_004": "館林市立第一小学校", "P29_005": "群馬県館林市代官町9-1", "P29_006": "3", "P29_007": "1", "P29_008": "00", "P29_009": null }, "geometry": { "type": "Point", "coordinates": [ 139.533834612466819, 36.253170913521259 ] } },
{ "type": "Feature", "properties": { "P29_001": "10207", "P29_002": "B110210001221", "P29_003": "16001", "P29_004": "館林市立第二小学校", "P29_005": "群馬県館林市本町3-6-1", "P29_006": "3", "P29_007": "1", "P29_008": "00", "P29_009": null }, "geometry": { "type": "Point", "coordinates": [ 139.536757206156125, 36.245174334603476 ] } },
{ "type": "Feature", "properties": { "P29_001": "10207", "P29_002": "B110210001230", "P29_003": "16001", "P29_004": "館林市立第三小学校", "P29_005": "群馬県館林市尾曳町14-1", "P29_006": "3", "P29_007": "1", "P29_008": "00", "P29_009": null }, "geometry": { "type": "Point", "coordinates": [ 139.546320003448983, 36.247829003298463 ] } },
{ "type": "Feature", "properties": { "P29_001": "10207", "P29_002": "B110210001249", "P29_003": "16001", "P29_004": "館林市立第四小学校", "P29_005": "群馬県館林市大島町4355", "P29_006": "3", "P29_007": "1", "P29_008": "00", "P29_009": null }, "geometry": { "type": "Point", "coordinates": [ 139.581040157777068, 36.263180550495974 ] } },
{ "type": "Feature", "properties": { "P29_001": "10207", "P29_002": "B110210001258", "P29_003": "16001", "P29_004": "館林市立第五小学校", "P29_005": "群馬県館林市羽附町乙1565", "P29_006": "3", "P29_007": "1", "P29_008": "00", "P29_009": null }, "geometry": { "type": "Point", "coordinates": [ 139.561316450275115, 36.232551910976639 ] } },
{ "type": "Feature", "properties": { "P29_001": "10207", "P29_002": "B110210001267", "P29_003": "16001", "P29_004": "館林市立第六小学校", "P29_005": "群馬県館林市新宿2-15-1", "P29_006": "3", "P29_007": "1", "P29_008": "00", "P29_009": null }, "geometry": { "type": "Point", "coordinates": [ 139.524808011448926, 36.237440864385448 ] } },
{ "type": "Feature", "properties": { "P29_001": "10207", "P29_002": "B110210001276", "P29_003": "16001", "P29_004": "館林市立第七小学校", "P29_005": "群馬県館林市上三林町599", "P29_006": "3", "P29_007": "1", "P29_008": "00", "P29_009": null }, "geometry": { "type": "Point", "coordinates": [ 139.487968714680761, 36.218436933397996 ] } },
{ "type": "Feature", "properties": { "P29_001": "10207", "P29_002": "B110210001285", "P29_003": "16001", "P29_004": "館林市立第八小学校", "P29_005": "群馬県館林市西高根町45-1", "P29_006": "3", "P29_007": "1", "P29_008": "00", "P29_009": null }, "geometry": { "type": "Point", "coordinates": [ 139.511827352029258, 36.262903793809762 ] } },
{ "type": "Feature", "properties": { "P29_001": "10207", "P29_002": "B110210001294", "P29_003": "16001", "P29_004": "館林市立第九小学校", "P29_005": "群馬県館林市足次町172", "P29_006": "3", "P29_007": "1", "P29_008": "00", "P29_009": null }, "geometry": { "type": "Point", "coordinates": [ 139.535796131396239, 36.264114615748582 ] } },
{ "type": "Feature", "properties": { "P29_001": "10207", "P29_002": "B110210001301", "P29_003": "16001", "P29_004": "館林市立第十小学校", "P29_005": "群馬県館林市近藤町178-39", "P29_006": "3", "P29_007": "1", "P29_008": "00", "P29_009": null }, "geometry": { "type": "Point", "coordinates": [ 139.507403222188458, 36.241616256806516 ] } },
{ "type": "Feature", "properties": { "P29_001": "10207", "P29_002": "B110210001310", "P29_003": "16001", "P29_004": "館林市立美園小学校", "P29_005": "群馬県館林市美園町27-1", "P29_006": "3", "P29_007": "1", "P29_008": "00", "P29_009": null }, "geometry": { "type": "Point", "coordinates": [ 139.532002520441921, 36.231828036763972 ] } },
{ "type": "Feature", "properties": { "P29_001": "10208", "P29_002": "B110210001329", "P29_003": "16001", "P29_004": "渋川市立渋川北小学校", "P29_005": "群馬県渋川市渋川681-2", "P29_006": "3", "P29_007": "1", "P29_008": "00", "P29_009": null }, "geometry": { "type": "Point", "coordinates": [ 139.000903039193645, 36.500732842464345 ] } },
{ "type": "Feature", "properties": { "P29_001": "10208", "P29_002": "B110210001338", "P29_003": "16001", "P29_004": "渋川市立渋川南小学校", "P29_005": "群馬県渋川市渋川2573-1", "P29_006": "3", "P29_007": "1", "P29_008": "00", "P29_009": null }, "geometry": { "type": "Point", "coordinates": [ 138.99873029430799, 36.494157699660754 ] } },
{ "type": "Feature", "properties": { "P29_001": "10208", "P29_002": "B110210001347", "P29_003": "16001", "P29_004": "渋川市立金島小学校", "P29_005": "群馬県渋川市金井2310", "P29_006": "3", "P29_007": "1", "P29_008": "00", "P29_009": null }, "geometry": { "type": "Point", "coordinates": [ 138.981024682396935, 36.519919900396815 ] } },
{ "type": "Feature", "properties": { "P29_001": "10208", "P29_002": "B110210001356", "P29_003": "16001", "P29_004": "渋川市立古巻小学校", "P29_005": "群馬県渋川市八木原852", "P29_006": "3", "P29_007": "1", "P29_008": "00", "P29_009": null }, "geometry": { "type": "Point", "coordinates": [ 139.013732486100679, 36.464622998892942 ] } },
{ "type": "Feature", "properties": { "P29_001": "10208", "P29_002": "B110210001365", "P29_003": "16001", "P29_004": "渋川市立豊秋小学校", "P29_005": "群馬県渋川市石原1001", "P29_006": "3", "P29_007": "1", "P29_008": "00", "P29_009": null }, "geometry": { "type": "Point", "coordinates": [ 139.000503324530911, 36.48528486180912 ] } },
{ "type": "Feature", "properties": { "P29_001": "10208", "P29_002": "B110210001374", "P29_003": "16001", "P29_004": "渋川市立渋川西小学校", "P29_005": "群馬県渋川市金井2817", "P29_006": "3", "P29_007": "1", "P29_008": "00", "P29_009": null }, "geometry": { "type": "Point", "coordinates": [ 138.986853952053053, 36.503850160307209 ] } },
{ "type": "Feature", "properties": { "P29_001": "10209", "P29_002": "B110210001383", "P29_003": "16001", "P29_004": "藤岡市立藤岡第一小学校", "P29_005": "群馬県藤岡市藤岡1848-2", "P29_006": "3", "P29_007": "1", "P29_008": "00", "P29_009": null }, "geometry": { "type": "Point", "coordinates": [ 139.075052385504989, 36.241974973529238 ] } },
{ "type": "Feature", "properties": { "P29_001": "10209", "P29_002": "B110210001392", "P29_003": "16001", "P29_004": "藤岡市立藤岡第二小学校", "P29_005": "群馬県藤岡市藤岡991", "P29_006": "3", "P29_007": "1", "P29_008": "00", "P29_009": null }, "geometry": { "type": "Point", "coordinates": [ 139.073522209782851, 36.253478754021003 ] } },
{ "type": "Feature", "properties": { "P29_001": "10209", "P29_002": "B110210001409", "P29_003": "16001", "P29_004": "藤岡市立神流小学校", "P29_005": "群馬県藤岡市下戸塚190", "P29_006": "3", "P29_007": "1", "P29_008": "00", "P29_009": null }, "geometry": { "type": "Point", "coordinates": [ 139.09539988245254, 36.258454963622597 ] } },
{ "type": "Feature", "properties": { "P29_001": "10209", "P29_002": "B110210001418", "P29_003": "16001", "P29_004": "藤岡市立小野小学校", "P29_005": "群馬県藤岡市森541", "P29_006": "3", "P29_007": "1", "P29_008": "00", "P29_009": null }, "geometry": { "type": "Point", "coordinates": [ 139.075524821529768, 36.278234995693914 ] } },
{ "type": "Feature", "properties": { "P29_001": "10209", "P29_002": "B110210001427", "P29_003": "16001", "P29_004": "藤岡市立美土里小学校", "P29_005": "群馬県藤岡市下大塚222", "P29_006": "3", "P29_007": "1", "P29_008": "00", "P29_009": null }, "geometry": { "type": "Point", "coordinates": [ 139.052395262977228, 36.255471327598798 ] } },
{ "type": "Feature", "properties": { "P29_001": "10209", "P29_002": "B110210001436", "P29_003": "16001", "P29_004": "藤岡市立美九里東小学校", "P29_005": "群馬県藤岡市本郷2067", "P29_006": "3", "P29_007": "1", "P29_008": "00", "P29_009": null }, "geometry": { "type": "Point", "coordinates": [ 139.075811883711054, 36.222287007563473 ] } },
{ "type": "Feature", "properties": { "P29_001": "10209", "P29_002": "B110210001445", "P29_003": "16001", "P29_004": "藤岡市立美九里西小学校", "P29_005": "群馬県藤岡市三本木769", "P29_006": "3", "P29_007": "1", "P29_008": "00", "P29_009": null }, "geometry": { "type": "Point", "coordinates": [ 139.056956491354441, 36.207081812148537 ] } },
{ "type": "Feature", "properties": { "P29_001": "10209", "P29_002": "B110210001454", "P29_003": "16001", "P29_004": "藤岡市立平井小学校", "P29_005": "群馬県藤岡市緑埜388", "P29_006": "3", "P29_007": "1", "P29_008": "00", "P29_009": null }, "geometry": { "type": "Point", "coordinates": [ 139.035418119878528, 36.238254040725323 ] } },
{ "type": "Feature", "properties": { "P29_001": "10209", "P29_002": "B110210001463", "P29_003": "16001", "P29_004": "藤岡市立日野小学校", "P29_005": "群馬県藤岡市金井658", "P29_006": "3", "P29_007": "1", "P29_008": "00", "P29_009": null }, "geometry": { "type": "Point", "coordinates": [ 139.023529340302986, 36.212232862845269 ] } },
{ "type": "Feature", "properties": { "P29_001": "10210", "P29_002": "B110210001472", "P29_003": "16001", "P29_004": "富岡市立富岡小学校", "P29_005": "群馬県富岡市富岡1359", "P29_006": "3", "P29_007": "1", "P29_008": "00", "P29_009": null }, "geometry": { "type": "Point", "coordinates": [ 138.894439762116917, 36.258990952479486 ] } },
{ "type": "Feature", "properties": { "P29_001": "10210", "P29_002": "B110210001481", "P29_003": "16001", "P29_004": "富岡市立西小学校", "P29_005": "群馬県富岡市七日市1073-1", "P29_006": "3", "P29_007": "1", "P29_008": "00", "P29_009": null }, "geometry": { "type": "Point", "coordinates": [ 138.879544770511444, 36.255790988552519 ] } },
{ "type": "Feature", "properties": { "P29_001": "10210", "P29_002": "B110210001490", "P29_003": "16001", "P29_004": "富岡市立黒岩小学校", "P29_005": "群馬県富岡市下黒岩1870-1", "P29_006": "3", "P29_007": "1", "P29_008": "00", "P29_009": null }, "geometry": { "type": "Point", "coordinates": [ 138.883272996894192, 36.281255000664174 ] } },
{ "type": "Feature", "properties": { "P29_001": "10210", "P29_002": "B110210001506", "P29_003": "16001", "P29_004": "富岡市立一ノ宮小学校", "P29_005": "群馬県富岡市一ノ宮16-1", "P29_006": "3", "P29_007": "1", "P29_008": "00", "P29_009": null }, "geometry": { "type": "Point", "coordinates": [ 138.855681039356796, 36.248897905041119 ] } },
{ "type": "Feature", "properties": { "P29_001": "10210", "P29_002": "B110210001515", "P29_003": "16001", "P29_004": "富岡市立高瀬小学校", "P29_005": "群馬県富岡市中高瀬761-1", "P29_006": "3", "P29_007": "1", "P29_008": "00", "P29_009": null }, "geometry": { "type": "Point", "coordinates": [ 138.878913998900174, 36.245646997307233 ] } },
{ "type": "Feature", "properties": { "P29_001": "10210", "P29_002": "B110210001524", "P29_003": "16001", "P29_004": "富岡市立額部小学校", "P29_005": "群馬県富岡市南後箇275", "P29_006": "3", "P29_007": "1", "P29_008": "00", "P29_009": null }, "geometry": { "type": "Point", "coordinates": [ 138.867989416936979, 36.234250029217577 ] } },
{ "type": "Feature", "properties": { "P29_001": "10210", "P29_002": "B110210001533", "P29_003": "16001", "P29_004": "富岡市立小野小学校", "P29_005": "群馬県富岡市相野田711-2", "P29_006": "3", "P29_007": "1", "P29_008": "00", "P29_009": null }, "geometry": { "type": "Point", "coordinates": [ 138.921689279783266, 36.285965038901459 ] } },
{ "type": "Feature", "properties": { "P29_001": "10210", "P29_002": "B110210001542", "P29_003": "16001", "P29_004": "富岡市立吉田小学校", "P29_005": "群馬県富岡市南蛇井275", "P29_006": "3", "P29_007": "1", "P29_008": "00", "P29_009": null }, "geometry": { "type": "Point", "coordinates": [ 138.815172012790953, 36.237820062813562 ] } },
{ "type": "Feature", "properties": { "P29_001": "10210", "P29_002": "B110210001551", "P29_003": "16001", "P29_004": "富岡市立丹生小学校", "P29_005": "群馬県富岡市上丹生3", "P29_006": "3", "P29_007": "1", "P29_008": "00", "P29_009": null }, "geometry": { "type": "Point", "coordinates": [ 138.823499631206289, 36.261368994390686 ] } },
{ "type": "Feature", "properties": { "P29_001": "10211", "P29_002": "B110210001560", "P29_003": "16001", "P29_004": "安中市立安中小学校", "P29_005": "群馬県安中市安中3-10-43", "P29_006": "3", "P29_007": "1", "P29_008": "00", "P29_009": null }, "geometry": { "type": "Point", "coordinates": [ 138.895852993999597, 36.329945000120937 ] } },
{ "type": "Feature", "properties": { "P29_001": "10211", "P29_002": "B110210001579", "P29_003": "16001", "P29_004": "安中市立原市小学校", "P29_005": "群馬県安中市原市1-10-23", "P29_006": "3", "P29_007": "1", "P29_008": "00", "P29_009": null }, "geometry": { "type": "Point", "coordinates": [ 138.858439995746096, 36.315168000340954 ] } },
{ "type": "Feature", "properties": { "P29_001": "10211", "P29_002": "B110210001588", "P29_003": "16001", "P29_004": "安中市立磯部小学校", "P29_005": "群馬県安中市磯部4-12-8", "P29_006": "3", "P29_007": "1", "P29_008": "00", "P29_009": null }, "geometry": { "type": "Point", "coordinates": [ 138.863828547917564, 36.304986059287899 ] } },
{ "type": "Feature", "properties": { "P29_001": "10211", "P29_002": "B110210001597", "P29_003": "16001", "P29_004": "安中市立東横野小学校", "P29_005": "群馬県安中市鷺宮3139-2", "P29_006": "3", "P29_007": "1", "P29_008": "00", "P29_009": null }, "geometry": { "type": "Point", "coordinates": [ 138.879810664576127, 36.298896901002855 ] } },
{ "type": "Feature", "properties": { "P29_001": "10211", "P29_002": "B110210001604", "P29_003": "16001", "P29_004": "安中市立碓東小学校", "P29_005": "群馬県安中市岩井62", "P29_006": "3", "P29_007": "1", "P29_008": "00", "P29_009": null }, "geometry": { "type": "Point", "coordinates": [ 138.926973014832868, 36.330928843826207 ] } },
{ "type": "Feature", "properties": { "P29_001": "10211", "P29_002": "B110210001613", "P29_003": "16001", "P29_004": "安中市立秋間小学校", "P29_005": "群馬県安中市東上秋間1831", "P29_006": "3", "P29_007": "1", "P29_008": "00", "P29_009": null }, "geometry": { "type": "Point", "coordinates": [ 138.854355694311607, 36.352855031209138 ] } },
{ "type": "Feature", "properties": { "P29_001": "10211", "P29_002": "B110210001622", "P29_003": "16001", "P29_004": "安中市立後閑小学校", "P29_005": "群馬県安中市下後閑1999-1", "P29_006": "3", "P29_007": "1", "P29_008": "00", "P29_009": null }, "geometry": { "type": "Point", "coordinates": [ 138.841957079924157, 36.327360927112636 ] } },
{ "type": "Feature", "properties": { "P29_001": "10208", "P29_002": "B110210001631", "P29_003": "16001", "P29_004": "渋川市立橘小学校", "P29_005": "群馬県渋川市北橘町真壁524", "P29_006": "3", "P29_007": "1", "P29_008": "00", "P29_009": null }, "geometry": { "type": "Point", "coordinates": [ 139.043539695027988, 36.48021633610567 ] } },
{ "type": "Feature", "properties": { "P29_001": "10208", "P29_002": "B110210001640", "P29_003": "16001", "P29_004": "渋川市立橘北小学校", "P29_005": "群馬県渋川市北橘町八崎995", "P29_006": "3", "P29_007": "1", "P29_008": "00", "P29_009": null }, "geometry": { "type": "Point", "coordinates": [ 139.023119308489072, 36.489807660646633 ] } },
{ "type": "Feature", "properties": { "P29_001": "10208", "P29_002": "B110210001659", "P29_003": "16001", "P29_004": "渋川市立三原田小学校", "P29_005": "群馬県渋川市赤城町上三原田851-1", "P29_006": "3", "P29_007": "1", "P29_008": "00", "P29_009": null }, "geometry": { "type": "Point", "coordinates": [ 139.045410034524167, 36.510197670932151 ] } },
{ "type": "Feature", "properties": { "P29_001": "10208", "P29_002": "B110210001668", "P29_003": "16001", "P29_004": "渋川市立津久田小学校", "P29_005": "群馬県渋川市赤城町津久田1905", "P29_006": "3", "P29_007": "1", "P29_008": "00", "P29_009": null }, "geometry": { "type": "Point", "coordinates": [ 139.044847731706511, 36.547450704527506 ] } },
{ "type": "Feature", "properties": { "P29_001": "10201", "P29_002": "B110210001677", "P29_003": "16001", "P29_004": "前橋市立原小学校", "P29_005": "群馬県前橋市富士見町原ノ郷1933-1", "P29_006": "3", "P29_007": "1", "P29_008": "00", "P29_009": null }, "geometry": { "type": "Point", "coordinates": [ 139.066498374145311, 36.446474048844927 ] } },
{ "type": "Feature", "properties": { "P29_001": "10201", "P29_002": "B110210001686", "P29_003": "16001", "P29_004": "前橋市立石井小学校", "P29_005": "群馬県前橋市富士見町石井546-1", "P29_006": "3", "P29_007": "1", "P29_008": "00", "P29_009": null }, "geometry": { "type": "Point", "coordinates": [ 139.083457000474937, 36.467802998245006 ] } },
{ "type": "Feature", "properties": { "P29_001": "10201", "P29_002": "B110210001695", "P29_003": "16001", "P29_004": "前橋市立時沢小学校", "P29_005": "群馬県前橋市富士見町時沢3164-1", "P29_006": "3", "P29_007": "1", "P29_008": "00", "P29_009": null }, "geometry": { "type": "Point", "coordinates": [ 139.093276279847117, 36.440494007505116 ] } },
{ "type": "Feature", "properties": { "P29_001": "10201", "P29_002": "B110210001702", "P29_003": "16001", "P29_004": "前橋市立白川小学校", "P29_005": "群馬県前橋市富士見町小暮2425-63", "P29_006": "3", "P29_007": "1", "P29_008": "00", "P29_009": null }, "geometry": { "type": "Point", "coordinates": [ 139.108544107147679, 36.468446648298602 ] } },
{ "type": "Feature", "properties": { "P29_001": "10201", "P29_002": "B110210001711", "P29_003": "16001", "P29_004": "前橋市立大胡小学校", "P29_005": "群馬県前橋市堀越町1161", "P29_006": "3", "P29_007": "1", "P29_008": "00", "P29_009": null }, "geometry": { "type": "Point", "coordinates": [ 139.15683780638264, 36.416927635992749 ] } },
{ "type": "Feature", "properties": { "P29_001": "10201", "P29_002": "B110210001720", "P29_003": "16001", "P29_004": "前橋市立滝窪小学校", "P29_005": "群馬県前橋市滝窪町185-1", "P29_006": "3", "P29_007": "1", "P29_008": "00", "P29_009": null }, "geometry": { "type": "Point", "coordinates": [ 139.138248572321629, 36.435599854041726 ] } },
{ "type": "Feature", "properties": { "P29_001": "10201", "P29_002": "B110210001739", "P29_003": "16001", "P29_004": "前橋市立滝窪小学校金丸分校", "P29_005": "群馬県前橋市東金丸町136-1", "P29_006": "3", "P29_007": "1", "P29_008": "00", "P29_009": null }, "geometry": { "type": "Point", "coordinates": [ 139.133783515472288, 36.465960687805449 ] } },
{ "type": "Feature", "properties": { "P29_001": "10201", "P29_002": "B110210001748", "P29_003": "16001", "P29_004": "前橋市立大胡東小学校", "P29_005": "群馬県前橋市河原浜町870-1", "P29_006": "3", "P29_007": "1", "P29_008": "00", "P29_009": null }, "geometry": { "type": "Point", "coordinates": [ 139.166080644446396, 36.419402896414638 ] } },
{ "type": "Feature", "properties": { "P29_001": "10201", "P29_002": "B110210001757", "P29_003": "16001", "P29_004": "前橋市立宮城小学校", "P29_005": "群馬県前橋市鼻毛石町1507-1", "P29_006": "3", "P29_007": "1", "P29_008": "00", "P29_009": null }, "geometry": { "type": "Point", "coordinates": [ 139.178564584231822, 36.438810147080709 ] } },
{ "type": "Feature", "properties": { "P29_001": "10201", "P29_002": "B110210001766", "P29_003": "16001", "P29_004": "前橋市立粕川小学校", "P29_005": "群馬県前橋市粕川町女渕521-2", "P29_006": "3", "P29_007": "1", "P29_008": "00", "P29_009": null }, "geometry": { "type": "Point", "coordinates": [ 139.209370952422887, 36.411690176232177 ] } },
{ "type": "Feature", "properties": { "P29_001": "10201", "P29_002": "B110210001775", "P29_003": "16001", "P29_004": "前橋市立月田小学校", "P29_005": "群馬県前橋市粕川町月田273", "P29_006": "3", "P29_007": "1", "P29_008": "00", "P29_009": null }, "geometry": { "type": "Point", "coordinates": [ 139.211216530673596, 36.433042718571251 ] } },
{ "type": "Feature", "properties": { "P29_001": "10201", "P29_002": "B110210001784", "P29_003": "16001", "P29_004": "前橋市立わかば小学校", "P29_005": "群馬県前橋市朝倉町165-1", "P29_006": "3", "P29_007": "1", "P29_008": "00", "P29_009": null }, "geometry": { "type": "Point", "coordinates": [ 139.09629027010925, 36.366853959737384 ] } },
{ "type": "Feature", "properties": { "P29_001": "10203", "P29_002": "B110210001793", "P29_003": "16001", "P29_004": "桐生市立新里中央小学校", "P29_005": "群馬県桐生市新里町小林甲60", "P29_006": "3", "P29_007": "1", "P29_008": "00", "P29_009": null }, "geometry": { "type": "Point", "coordinates": [ 139.237487247663239, 36.421816458650575 ] } },
{ "type": "Feature", "properties": { "P29_001": "10203", "P29_002": "B110210001800", "P29_003": "16001", "P29_004": "桐生市立新里東小学校", "P29_005": "群馬県桐生市新里町新川2072", "P29_006": "3", "P29_007": "1", "P29_008": "00", "P29_009": null }, "geometry": { "type": "Point", "coordinates": [ 139.257270696738715, 36.421373947760117 ] } },
{ "type": "Feature", "properties": { "P29_001": "10203", "P29_002": "B110210001819", "P29_003": "16001", "P29_004": "桐生市立新里北小学校", "P29_005": "群馬県桐生市新里町大久保302", "P29_006": "3", "P29_007": "1", "P29_008": "00", "P29_009": null }, "geometry": { "type": "Point", "coordinates": [ 139.232938461887443, 36.450308163686572 ] } },
{ "type": "Feature", "properties": { "P29_001": "10202", "P29_002": "B110210001846", "P29_003": "16001", "P29_004": "高崎市立下室田小学校", "P29_005": "群馬県高崎市下室田町1206", "P29_006": "3", "P29_007": "1", "P29_008": "00", "P29_009": null }, "geometry": { "type": "Point", "coordinates": [ 138.887795842374629, 36.386245090145323 ] } },
{ "type": "Feature", "properties": { "P29_001": "10202", "P29_002": "B110210001855", "P29_003": "16001", "P29_004": "高崎市立中室田小学校", "P29_005": "群馬県高崎市中室田町1561-1", "P29_006": "3", "P29_007": "1", "P29_008": "00", "P29_009": null }, "geometry": { "type": "Point", "coordinates": [ 138.869635184706965, 36.393383910482889 ] } },
{ "type": "Feature", "properties": { "P29_001": "10202", "P29_002": "B110210001864", "P29_003": "16001", "P29_004": "高崎市立上室田小学校", "P29_005": "群馬県高崎市上室田町4210", "P29_006": "3", "P29_007": "1", "P29_008": "00", "P29_009": null }, "geometry": { "type": "Point", "coordinates": [ 138.839912897295221, 36.403466529702328 ] } },
{ "type": "Feature", "properties": { "P29_001": "10202", "P29_002": "B110210001873", "P29_003": "16001", "P29_004": "高崎市立里見小学校", "P29_005": "群馬県高崎市上里見町42-2", "P29_006": "3", "P29_007": "1", "P29_008": "00", "P29_009": null }, "geometry": { "type": "Point", "coordinates": [ 138.897615672360672, 36.374554356998068 ] } },
{ "type": "Feature", "properties": { "P29_001": "10202", "P29_002": "B110210001882", "P29_003": "16001", "P29_004": "高崎市立久留馬小学校", "P29_005": "群馬県高崎市高浜町2321-1", "P29_006": "3", "P29_007": "1", "P29_008": "00", "P29_009": null }, "geometry": { "type": "Point", "coordinates": [ 138.932033777043813, 36.369613088265872 ] } },
{ "type": "Feature", "properties": { "P29_001": "10202", "P29_002": "B110210001891", "P29_003": "16001", "P29_004": "高崎市立下里見小学校", "P29_005": "群馬県高崎市下里見町380", "P29_006": "3", "P29_007": "1", "P29_008": "00", "P29_009": null }, "geometry": { "type": "Point", "coordinates": [ 138.919127946162149, 36.363477948607546 ] } },
{ "type": "Feature", "properties": { "P29_001": "10202", "P29_002": "B110210001908", "P29_003": "16001", "P29_004": "高崎市立宮沢小学校", "P29_005": "群馬県高崎市宮沢町1100-1", "P29_006": "3", "P29_007": "1", "P29_008": "00", "P29_009": null }, "geometry": { "type": "Point", "coordinates": [ 138.91399188383761, 36.398659884433016 ] } },
{ "type": "Feature", "properties": { "P29_001": "10202", "P29_002": "B110210001917", "P29_003": "16001", "P29_004": "高崎市立倉渕小学校", "P29_005": "群馬県高崎市倉渕町権田314-1", "P29_006": "3", "P29_007": "1", "P29_008": "00", "P29_009": null }, "geometry": { "type": "Point", "coordinates": [ 138.772641281441651, 36.447268788245331 ] } },
{ "type": "Feature", "properties": { "P29_001": "10202", "P29_002": "B110210001926", "P29_003": "16001", "P29_004": "高崎市立箕輪小学校", "P29_005": "群馬県高崎市箕郷町西明屋196-1", "P29_006": "3", "P29_007": "1", "P29_008": "00", "P29_009": null }, "geometry": { "type": "Point", "coordinates": [ 138.954675999970164, 36.398805001956617 ] } },
{ "type": "Feature", "properties": { "P29_001": "10202", "P29_002": "B110210001935", "P29_003": "16001", "P29_004": "高崎市立車郷小学校", "P29_005": "群馬県高崎市箕郷町富岡255-1", "P29_006": "3", "P29_007": "1", "P29_008": "00", "P29_009": null }, "geometry": { "type": "Point", "coordinates": [ 138.949388910952734, 36.390339437168102 ] } },
{ "type": "Feature", "properties": { "P29_001": "10202", "P29_002": "B110210001944", "P29_003": "16001", "P29_004": "高崎市立箕郷東小学校", "P29_005": "群馬県高崎市箕郷町生原922-2", "P29_006": "3", "P29_007": "1", "P29_008": "00", "P29_009": null }, "geometry": { "type": "Point", "coordinates": [ 138.96852000532337, 36.401597009858037 ] } },
{ "type": "Feature", "properties": { "P29_001": "10202", "P29_002": "B110210001953", "P29_003": "16001", "P29_004": "高崎市立金古小学校", "P29_005": "群馬県高崎市金古町1271-1", "P29_006": "3", "P29_007": "1", "P29_008": "00", "P29_009": null }, "geometry": { "type": "Point", "coordinates": [ 138.999345817375655, 36.407218771997456 ] } },
{ "type": "Feature", "properties": { "P29_001": "10202", "P29_002": "B110210001962", "P29_003": "16001", "P29_004": "高崎市立国府小学校", "P29_005": "群馬県高崎市後疋間町184-1", "P29_006": "3", "P29_007": "1", "P29_008": "00", "P29_009": null }, "geometry": { "type": "Point", "coordinates": [ 139.016175329467472, 36.39505192466865 ] } },
{ "type": "Feature", "properties": { "P29_001": "10202", "P29_002": "B110210001971", "P29_003": "16001", "P29_004": "高崎市立堤ヶ岡小学校", "P29_005": "群馬県高崎市棟高町2227-1", "P29_006": "3", "P29_007": "1", "P29_008": "00", "P29_009": null }, "geometry": { "type": "Point", "coordinates": [ 139.002161002451203, 36.378943003511893 ] } },
{ "type": "Feature", "properties": { "P29_001": "10202", "P29_002": "B110210001980", "P29_003": "16001", "P29_004": "高崎市立上郊小学校", "P29_005": "群馬県高崎市保渡田町2107-1", "P29_006": "3", "P29_007": "1", "P29_008": "00", "P29_009": null }, "geometry": { "type": "Point", "coordinates": [ 138.983698306177445, 36.388167290104541 ] } },
{ "type": "Feature", "properties": { "P29_001": "10202", "P29_002": "B110210001999", "P29_003": "16001", "P29_004": "高崎市立金古南小学校", "P29_005": "群馬県高崎市金古町658", "P29_006": "3", "P29_007": "1", "P29_008": "00", "P29_009": null }, "geometry": { "type": "Point", "coordinates": [ 138.994366816796457, 36.401716200601037 ] } },
{ "type": "Feature", "properties": { "P29_001": "10202", "P29_002": "B110210002006", "P29_003": "16001", "P29_004": "高崎市立桜山小学校", "P29_005": "群馬県高崎市棟高町2489-1", "P29_006": "3", "P29_007": "1", "P29_008": "00", "P29_009": null }, "geometry": { "type": "Point", "coordinates": [ 139.00640918113109, 36.372464038845486 ] } },
{ "type": "Feature", "properties": { "P29_001": "10208", "P29_002": "B110210002015", "P29_003": "16001", "P29_004": "渋川市立長尾小学校", "P29_005": "群馬県渋川市北牧85", "P29_006": "3", "P29_007": "1", "P29_008": "00", "P29_009": null }, "geometry": { "type": "Point", "coordinates": [ 138.998275375850056, 36.524196897632059 ] } },
{ "type": "Feature", "properties": { "P29_001": "10208", "P29_002": "B110210002024", "P29_003": "16001", "P29_004": "渋川市立中郷小学校", "P29_005": "群馬県渋川市中郷2626", "P29_006": "3", "P29_007": "1", "P29_008": "00", "P29_009": null }, "geometry": { "type": "Point", "coordinates": [ 139.011170152611299, 36.53381789192234 ] } },
{ "type": "Feature", "properties": { "P29_001": "10208", "P29_002": "B110210002033", "P29_003": "16001", "P29_004": "渋川市立小野上小学校", "P29_005": "群馬県渋川市村上3767-1", "P29_006": "3", "P29_007": "1", "P29_008": "00", "P29_009": null }, "geometry": { "type": "Point", "coordinates": [ 138.939771006337338, 36.548609380883327 ] } },
{ "type": "Feature", "properties": { "P29_001": "10208", "P29_002": "B110210002042", "P29_003": "16001", "P29_004": "渋川市立伊香保小学校", "P29_005": "群馬県渋川市伊香保町伊香保322-1", "P29_006": "3", "P29_007": "1", "P29_008": "00", "P29_009": null }, "geometry": { "type": "Point", "coordinates": [ 138.924455751953445, 36.504232578328867 ] } },
{ "type": "Feature", "properties": { "P29_001": "10344", "P29_002": "B110210002051", "P29_003": "16001", "P29_004": "榛東村立北小学校", "P29_005": "群馬県北群馬郡榛東村山子田1261", "P29_006": "3", "P29_007": "1", "P29_008": "00", "P29_009": null }, "geometry": { "type": "Point", "coordinates": [ 138.981027570444382, 36.441691444032855 ] } },
{ "type": "Feature", "properties": { "P29_001": "10344", "P29_002": "B110210002060", "P29_003": "16001", "P29_004": "榛東村立南小学校", "P29_005": "群馬県北群馬郡榛東村広馬場1142", "P29_006": "3", "P29_007": "1", "P29_008": "00", "P29_009": null }, "geometry": { "type": "Point", "coordinates": [ 138.975731805065351, 36.426847895069258 ] } },
{ "type": "Feature", "properties": { "P29_001": "10345", "P29_002": "B110210002079", "P29_003": "16001", "P29_004": "吉岡町立明治小学校", "P29_005": "群馬県北群馬郡吉岡町北下433", "P29_006": "3", "P29_007": "1", "P29_008": "00", "P29_009": null }, "geometry": { "type": "Point", "coordinates": [ 139.000040532177934, 36.446750023721641 ] } },
{ "type": "Feature", "properties": { "P29_001": "10345", "P29_002": "B110210002088", "P29_003": "16001", "P29_004": "吉岡町立駒寄小学校", "P29_005": "群馬県北群馬郡吉岡町漆原1016", "P29_006": "3", "P29_007": "1", "P29_008": "00", "P29_009": null }, "geometry": { "type": "Point", "coordinates": [ 139.024949669794523, 36.438967745830539 ] } },
{ "type": "Feature", "properties": { "P29_001": "10202", "P29_002": "B110210002097", "P29_003": "16001", "P29_004": "高崎市立新町第一小学校", "P29_005": "群馬県高崎市新町345-1", "P29_006": "3", "P29_007": "1", "P29_008": "00", "P29_009": null }, "geometry": { "type": "Point", "coordinates": [ 139.111720516231827, 36.277141044585932 ] } },
{ "type": "Feature", "properties": { "P29_001": "10202", "P29_002": "B110210002104", "P29_003": "16001", "P29_004": "高崎市立新町第二小学校", "P29_005": "群馬県高崎市新町2010-1", "P29_006": "3", "P29_007": "1", "P29_008": "00", "P29_009": null }, "geometry": { "type": "Point", "coordinates": [ 139.102432148389596, 36.265057160399444 ] } },
{ "type": "Feature", "properties": { "P29_001": "10209", "P29_002": "B110210002113", "P29_003": "16001", "P29_004": "藤岡市立鬼石北小学校", "P29_005": "群馬県藤岡市浄法寺842", "P29_006": "3", "P29_007": "1", "P29_008": "00", "P29_009": null }, "geometry": { "type": "Point", "coordinates": [ 139.059394709945451, 36.187941995814022 ] } },
{ "type": "Feature", "properties": { "P29_001": "10209", "P29_002": "B110210002122", "P29_003": "16001", "P29_004": "藤岡市立鬼石小学校", "P29_005": "群馬県藤岡市鬼石439", "P29_006": "3", "P29_007": "1", "P29_008": "00", "P29_009": null }, "geometry": { "type": "Point", "coordinates": [ 139.055561122401798, 36.158390059076204 ] } },
{ "type": "Feature", "properties": { "P29_001": "10202", "P29_002": "B110210002131", "P29_003": "16001", "P29_004": "高崎市立吉井小学校", "P29_005": "群馬県高崎市吉井町吉井235-1", "P29_006": "3", "P29_007": "1", "P29_008": "00", "P29_009": null }, "geometry": { "type": "Point", "coordinates": [ 138.983204887042007, 36.255477956344656 ] } },
{ "type": "Feature", "properties": { "P29_001": "10202", "P29_002": "B110210002140", "P29_003": "16001", "P29_004": "高崎市立多胡小学校", "P29_005": "群馬県高崎市吉井町塩24-3", "P29_006": "3", "P29_007": "1", "P29_008": "00", "P29_009": null }, "geometry": { "type": "Point", "coordinates": [ 138.977229034489227, 36.236665970893775 ] } },
{ "type": "Feature", "properties": { "P29_001": "10202", "P29_002": "B110210002159", "P29_003": "16001", "P29_004": "高崎市立入野小学校", "P29_005": "群馬県高崎市吉井町小串130", "P29_006": "3", "P29_007": "1", "P29_008": "00", "P29_009": null }, "geometry": { "type": "Point", "coordinates": [ 139.014178497029292, 36.25608998095467 ] } },
{ "type": "Feature", "properties": { "P29_001": "10202", "P29_002": "B110210002168", "P29_003": "16001", "P29_004": "高崎市立岩平小学校", "P29_005": "群馬県高崎市吉井町下奥平205-1", "P29_006": "3", "P29_007": "1", "P29_008": "00", "P29_009": null }, "geometry": { "type": "Point", "coordinates": [ 138.966525752519487, 36.273051301515721 ] } },
{ "type": "Feature", "properties": { "P29_001": "10202", "P29_002": "B110210002177", "P29_003": "16001", "P29_004": "高崎市立馬庭小学校", "P29_005": "群馬県高崎市吉井町馬庭1033-1", "P29_006": "3", "P29_007": "1", "P29_008": "00", "P29_009": null }, "geometry": { "type": "Point", "coordinates": [ 139.012994630952107, 36.266849960998186 ] } },
{ "type": "Feature", "properties": { "P29_001": "10202", "P29_002": "B110210002186", "P29_003": "16001", "P29_004": "高崎市立吉井西小学校", "P29_005": "群馬県高崎市吉井町長根1930-1", "P29_006": "3", "P29_007": "1", "P29_008": "00", "P29_009": null }, "geometry": { "type": "Point", "coordinates": [ 138.969032955590535, 36.25496224419021 ] } },
{ "type": "Feature", "properties": { "P29_001": "10202", "P29_002": "B110210002195", "P29_003": "16001", "P29_004": "高崎市立南陽台小学校", "P29_005": "群馬県高崎市吉井町南陽台3-16-1", "P29_006": "3", "P29_007": "1", "P29_008": "00", "P29_009": null }, "geometry": { "type": "Point", "coordinates": [ 139.000553000975771, 36.273573004847279 ] } },
{ "type": "Feature", "properties": { "P29_001": "10367", "P29_002": "B110210002202", "P29_003": "16001", "P29_004": "神流町立万場小学校", "P29_005": "群馬県多野郡神流町万場84-2", "P29_006": "3", "P29_007": "1", "P29_008": "00", "P29_009": null }, "geometry": { "type": "Point", "coordinates": [ 138.915879128085976, 36.116367828449775 ] } },
{ "type": "Feature", "properties": { "P29_001": "10366", "P29_002": "B110210002211", "P29_003": "16001", "P29_004": "上野村立上野小学校", "P29_005": "群馬県多野郡上野村新羽32", "P29_006": "3", "P29_007": "1", "P29_008": "00", "P29_009": null }, "geometry": { "type": "Point", "coordinates": [ 138.785643206207681, 36.085060853454848 ] } },
{ "type": "Feature", "properties": { "P29_001": "10210", "P29_002": "B110210002220", "P29_003": "16001", "P29_004": "富岡市立高田小学校", "P29_005": "群馬県富岡市妙義町下高田1552-1", "P29_006": "3", "P29_007": "1", "P29_008": "00", "P29_009": null }, "geometry": { "type": "Point", "coordinates": [ 138.827781904497016, 36.277691997864231 ] } },
{ "type": "Feature", "properties": { "P29_001": "10210", "P29_002": "B110210002239", "P29_003": "16001", "P29_004": "富岡市立妙義小学校", "P29_005": "群馬県富岡市妙義町諸戸150", "P29_006": "3", "P29_007": "1", "P29_008": "00", "P29_009": null }, "geometry": { "type": "Point", "coordinates": [ 138.778864750541061, 36.289720899971236 ] } },
{ "type": "Feature", "properties": { "P29_001": "10382", "P29_002": "B110210002248", "P29_003": "16001", "P29_004": "下仁田町立下仁田小学校", "P29_005": "群馬県甘楽郡下仁田町下仁田73", "P29_006": "3", "P29_007": "1", "P29_008": "00", "P29_009": null }, "geometry": { "type": "Point", "coordinates": [ 138.780458921771924, 36.212457105196464 ] } },
{ "type": "Feature", "properties": { "P29_001": "10383", "P29_002": "B110210002257", "P29_003": "16001", "P29_004": "南牧村立南牧小学校", "P29_005": "群馬県甘楽郡南牧村大字千原419-1", "P29_006": "3", "P29_007": "1", "P29_008": "00", "P29_009": null }, "geometry": { "type": "Point", "coordinates": [ 138.735798128436812, 36.174793857205884 ] } },
{ "type": "Feature", "properties": { "P29_001": "10384", "P29_002": "B110210002266", "P29_003": "16001", "P29_004": "甘楽町立小幡小学校", "P29_005": "群馬県甘楽郡甘楽町小幡846", "P29_006": "3", "P29_007": "1", "P29_008": "00", "P29_009": null }, "geometry": { "type": "Point", "coordinates": [ 138.917714146230537, 36.231679960332684 ] } },
{ "type": "Feature", "properties": { "P29_001": "10384", "P29_002": "B110210002275", "P29_003": "16001", "P29_004": "甘楽町立福島小学校", "P29_005": "群馬県甘楽郡甘楽町福島939-1", "P29_006": "3", "P29_007": "1", "P29_008": "00", "P29_009": null }, "geometry": { "type": "Point", "coordinates": [ 138.922916760960163, 36.25624298365036 ] } },
{ "type": "Feature", "properties": { "P29_001": "10384", "P29_002": "B110210002284", "P29_003": "16001", "P29_004": "甘楽町立新屋小学校", "P29_005": "群馬県甘楽郡甘楽町大字天引38-1", "P29_006": "3", "P29_007": "1", "P29_008": "00", "P29_009": null }, "geometry": { "type": "Point", "coordinates": [ 138.950115137622703, 36.249259941645413 ] } },
{ "type": "Feature", "properties": { "P29_001": "10211", "P29_002": "B110210002319", "P29_003": "16001", "P29_004": "安中市立西横野小学校", "P29_005": "群馬県安中市松井田町二軒在家887", "P29_006": "3", "P29_007": "1", "P29_008": "00", "P29_009": null }, "geometry": { "type": "Point", "coordinates": [ 138.812795025890807, 36.299788897749153 ] } },
{ "type": "Feature", "properties": { "P29_001": "10211", "P29_002": "B110210002337", "P29_003": "16001", "P29_004": "安中市立細野小学校", "P29_005": "群馬県安中市松井田町新井365", "P29_006": "3", "P29_007": "1", "P29_008": "00", "P29_009": null }, "geometry": { "type": "Point", "coordinates": [ 138.778502476247183, 36.347149827170306 ] } },
{ "type": "Feature", "properties": { "P29_001": "10421", "P29_002": "B110210002346", "P29_003": "16001", "P29_004": "中之条町立中之条小学校", "P29_005": "群馬県吾妻郡中之条町大字伊勢町1035-1", "P29_006": "3", "P29_007": "1", "P29_008": "00", "P29_009": null }, "geometry": { "type": "Point", "coordinates": [ 138.851080993810172, 36.589031699829874 ] } },
{ "type": "Feature", "properties": { "P29_001": "10429", "P29_002": "B110210002355", "P29_003": "16001", "P29_004": "東吾妻町立東小学校", "P29_005": "群馬県吾妻郡東吾妻町箱島1596-1", "P29_006": "3", "P29_007": "1", "P29_008": "00", "P29_009": null }, "geometry": { "type": "Point", "coordinates": [ 138.921047294057757, 36.545889722809584 ] } },
{ "type": "Feature", "properties": { "P29_001": "10429", "P29_002": "B110210002364", "P29_003": "16001", "P29_004": "東吾妻町立原町小学校", "P29_005": "群馬県吾妻郡東吾妻町大字原町5228", "P29_006": "3", "P29_007": "1", "P29_008": "00", "P29_009": null }, "geometry": { "type": "Point", "coordinates": [ 138.82653224430419, 36.576154055917144 ] } },
{ "type": "Feature", "properties": { "P29_001": "10429", "P29_002": "B110210002373", "P29_003": "16001", "P29_004": "東吾妻町立太田小学校", "P29_005": "群馬県吾妻郡東吾妻町植栗1104", "P29_006": "3", "P29_007": "1", "P29_008": "00", "P29_009": null }, "geometry": { "type": "Point", "coordinates": [ 138.864348322297872, 36.574785468360602 ] } },
{ "type": "Feature", "properties": { "P29_001": "10429", "P29_002": "B110210002382", "P29_003": "16001", "P29_004": "東吾妻町立坂上小学校", "P29_005": "群馬県吾妻郡東吾妻町本宿389", "P29_006": "3", "P29_007": "1", "P29_008": "00", "P29_009": null }, "geometry": { "type": "Point", "coordinates": [ 138.753752518205346, 36.510654829154149 ] } },
{ "type": "Feature", "properties": { "P29_001": "10429", "P29_002": "B110210002391", "P29_003": "16001", "P29_004": "東吾妻町立岩島小学校", "P29_005": "群馬県吾妻郡東吾妻町岩下46", "P29_006": "3", "P29_007": "1", "P29_008": "00", "P29_009": null }, "geometry": { "type": "Point", "coordinates": [ 138.771543143154503, 36.554622761004794 ] } },
{ "type": "Feature", "properties": { "P29_001": "10424", "P29_002": "B110210002408", "P29_003": "16001", "P29_004": "長野原町立中央小学校", "P29_005": "群馬県吾妻郡長野原町大津4", "P29_006": "3", "P29_007": "1", "P29_008": "00", "P29_009": null }, "geometry": { "type": "Point", "coordinates": [ 138.626370938131998, 36.554134487306243 ] } },
{ "type": "Feature", "properties": { "P29_001": "10424", "P29_002": "B110210002426", "P29_003": "16001", "P29_004": "長野原町立応桑小学校", "P29_005": "群馬県吾妻郡長野原町大字応桑20-2", "P29_006": "3", "P29_007": "1", "P29_008": "00", "P29_009": null }, "geometry": { "type": "Point", "coordinates": [ 138.595868535688226, 36.51110142980729 ] } },
{ "type": "Feature", "properties": { "P29_001": "10424", "P29_002": "B110210002435", "P29_003": "16001", "P29_004": "長野原町立北軽井沢小学校", "P29_005": "群馬県吾妻郡長野原町大字北軽井沢1924", "P29_006": "3", "P29_007": "1", "P29_008": "00", "P29_009": null }, "geometry": { "type": "Point", "coordinates": [ 138.593547958547504, 36.46182792416225 ] } },
{ "type": "Feature", "properties": { "P29_001": "10425", "P29_002": "B110210002444", "P29_003": "16001", "P29_004": "嬬恋村立西部小学校", "P29_005": "群馬県吾妻郡嬬恋村大字大前805-1", "P29_006": "3", "P29_007": "1", "P29_008": "00", "P29_009": null }, "geometry": { "type": "Point", "coordinates": [ 138.515390531421957, 36.511837239608212 ] } },
{ "type": "Feature", "properties": { "P29_001": "10425", "P29_002": "B110210002453", "P29_003": "16001", "P29_004": "嬬恋村立東部小学校", "P29_005": "群馬県吾妻郡嬬恋村三原679-3", "P29_006": "3", "P29_007": "1", "P29_008": "00", "P29_009": null }, "geometry": { "type": "Point", "coordinates": [ 138.552095969704055, 36.536779620935903 ] } },
{ "type": "Feature", "properties": { "P29_001": "10426", "P29_002": "B110210002462", "P29_003": "16001", "P29_004": "草津町立草津小学校", "P29_005": "群馬県吾妻郡草津町大字草津3-1", "P29_006": "3", "P29_007": "1", "P29_008": "00", "P29_009": null }, "geometry": { "type": "Point", "coordinates": [ 138.590234174761264, 36.616849367391993 ] } },
{ "type": "Feature", "properties": { "P29_001": "10421", "P29_002": "B110210002471", "P29_003": "16001", "P29_004": "中之条町立六合小学校", "P29_005": "群馬県吾妻郡中之条町大字小雨599-1", "P29_006": "3", "P29_007": "1", "P29_008": "00", "P29_009": null }, "geometry": { "type": "Point", "coordinates": [ 138.626952996361581, 36.597275952460059 ] } },
{ "type": "Feature", "properties": { "P29_001": "10428", "P29_002": "B110210002480", "P29_003": "16001", "P29_004": "高山村立高山小学校", "P29_005": "群馬県吾妻郡高山村大字中山2792-1", "P29_006": "3", "P29_007": "1", "P29_008": "00", "P29_009": null }, "geometry": { "type": "Point", "coordinates": [ 138.947057004023179, 36.621731997517436 ] } },
{ "type": "Feature", "properties": { "P29_001": "10206", "P29_002": "B110210002499", "P29_003": "16001", "P29_004": "沼田市立白沢小学校", "P29_005": "群馬県沼田市白沢町高平94-1", "P29_006": "3", "P29_007": "1", "P29_008": "00", "P29_009": null }, "geometry": { "type": "Point", "coordinates": [ 139.134974249409055, 36.663635349283027 ] } },
{ "type": "Feature", "properties": { "P29_001": "10206", "P29_002": "B110210002505", "P29_003": "16001", "P29_004": "沼田市立多那小学校", "P29_005": "群馬県沼田市利根町多那732", "P29_006": "3", "P29_007": "1", "P29_008": "00", "P29_009": null }, "geometry": { "type": "Point", "coordinates": [ 139.146128595433083, 36.637971978518507 ] } },
{ "type": "Feature", "properties": { "P29_001": "10206", "P29_002": "B110210002514", "P29_003": "16001", "P29_004": "沼田市立利根小学校", "P29_005": "群馬県沼田市利根町追貝93", "P29_006": "3", "P29_007": "1", "P29_008": "00", "P29_009": null }, "geometry": { "type": "Point", "coordinates": [ 139.209218808858765, 36.7003068818643 ] } },
{ "type": "Feature", "properties": { "P29_001": "10443", "P29_002": "B110210002523", "P29_003": "16001", "P29_004": "片品村立片品小学校", "P29_005": "群馬県利根郡片品村鎌田3952", "P29_006": "3", "P29_007": "1", "P29_008": "00", "P29_009": null }, "geometry": { "type": "Point", "coordinates": [ 139.227533362617748, 36.772596930756286 ] } },
{ "type": "Feature", "properties": { "P29_001": "10444", "P29_002": "B110210002532", "P29_003": "16001", "P29_004": "川場村立川場小学校", "P29_005": "群馬県利根郡川場村谷地2402", "P29_006": "3", "P29_007": "1", "P29_008": "00", "P29_009": null }, "geometry": { "type": "Point", "coordinates": [ 139.106646034975199, 36.695576930406403 ] } },
{ "type": "Feature", "properties": { "P29_001": "10449", "P29_002": "B110210002541", "P29_003": "16001", "P29_004": "みなかみ町立古馬牧小学校", "P29_005": "群馬県利根郡みなかみ町後閑1064", "P29_006": "3", "P29_007": "1", "P29_008": "00", "P29_009": null }, "geometry": { "type": "Point", "coordinates": [ 139.000280187761746, 36.683137917455248 ] } },
{ "type": "Feature", "properties": { "P29_001": "10449", "P29_002": "B110210002550", "P29_003": "16001", "P29_004": "みなかみ町立桃野小学校", "P29_005": "群馬県利根郡みなかみ町月夜野583", "P29_006": "3", "P29_007": "1", "P29_008": "00", "P29_009": null }, "geometry": { "type": "Point", "coordinates": [ 138.987308641159103, 36.684622198585856 ] } },
{ "type": "Feature", "properties": { "P29_001": "10449", "P29_002": "B110210002569", "P29_003": "16001", "P29_004": "みなかみ町立月夜野北小学校", "P29_005": "群馬県利根郡みなかみ町上牧880", "P29_006": "3", "P29_007": "1", "P29_008": "00", "P29_009": null }, "geometry": { "type": "Point", "coordinates": [ 138.981386004874764, 36.728429998689634 ] } },
{ "type": "Feature", "properties": { "P29_001": "10449", "P29_002": "B110210002578", "P29_003": "16001", "P29_004": "みなかみ町立藤原小学校", "P29_005": "群馬県利根郡みなかみ町藤原3491", "P29_006": "3", "P29_007": "1", "P29_008": "00", "P29_009": null }, "geometry": { "type": "Point", "coordinates": [ 139.060449900869287, 36.837222032721449 ] } },
{ "type": "Feature", "properties": { "P29_001": "10449", "P29_002": "B110210002587", "P29_003": "16001", "P29_004": "みなかみ町立新治小学校", "P29_005": "群馬県利根郡みなかみ町新巻208", "P29_006": "3", "P29_007": "1", "P29_008": "00", "P29_009": null }, "geometry": { "type": "Point", "coordinates": [ 138.935698683210461, 36.684080197748166 ] } },
{ "type": "Feature", "properties": { "P29_001": "10449", "P29_002": "B110210002596", "P29_003": "16001", "P29_004": "みなかみ町立水上小学校", "P29_005": "群馬県利根郡みなかみ町湯原222", "P29_006": "3", "P29_007": "1", "P29_008": "00", "P29_009": null }, "geometry": { "type": "Point", "coordinates": [ 138.964780563973648, 36.776172759399515 ] } },
{ "type": "Feature", "properties": { "P29_001": "10448", "P29_002": "B110210002603", "P29_003": "16001", "P29_004": "昭和村立南小学校", "P29_005": "群馬県利根郡昭和村大字川額123", "P29_006": "3", "P29_007": "1", "P29_008": "00", "P29_009": null }, "geometry": { "type": "Point", "coordinates": [ 139.046612894267184, 36.615656819058024 ] } },
{ "type": "Feature", "properties": { "P29_001": "10448", "P29_002": "B110210002612", "P29_003": "16001", "P29_004": "昭和村立東小学校", "P29_005": "群馬県利根郡昭和村大字糸井1287", "P29_006": "3", "P29_007": "1", "P29_008": "00", "P29_009": null }, "geometry": { "type": "Point", "coordinates": [ 139.075516166821103, 36.643665810865009 ] } },
{ "type": "Feature", "properties": { "P29_001": "10448", "P29_002": "B110210002621", "P29_003": "16001", "P29_004": "昭和村立大河原小学校", "P29_005": "群馬県利根郡昭和村大字糸井5455-354", "P29_006": "3", "P29_007": "1", "P29_008": "00", "P29_009": null }, "geometry": { "type": "Point", "coordinates": [ 139.115099675613322, 36.619733947428806 ] } },
{ "type": "Feature", "properties": { "P29_001": "10204", "P29_002": "B110210002630", "P29_003": "16001", "P29_004": "伊勢崎市立赤堀小学校", "P29_005": "群馬県伊勢崎市西久保町1-72", "P29_006": "3", "P29_007": "1", "P29_008": "00", "P29_009": null }, "geometry": { "type": "Point", "coordinates": [ 139.228431227114527, 36.379452819664763 ] } },
{ "type": "Feature", "properties": { "P29_001": "10204", "P29_002": "B110210002649", "P29_003": "16001", "P29_004": "伊勢崎市立赤堀南小学校", "P29_005": "群馬県伊勢崎市堀下町264-1", "P29_006": "3", "P29_007": "1", "P29_008": "00", "P29_009": null }, "geometry": { "type": "Point", "coordinates": [ 139.21354658788249, 36.366957928684386 ] } },
{ "type": "Feature", "properties": { "P29_001": "10204", "P29_002": "B110210002658", "P29_003": "16001", "P29_004": "伊勢崎市立赤堀東小学校", "P29_005": "群馬県伊勢崎市香林町1-260-2", "P29_006": "3", "P29_007": "1", "P29_008": "00", "P29_009": null }, "geometry": { "type": "Point", "coordinates": [ 139.246324004801636, 36.385581429080176 ] } },
{ "type": "Feature", "properties": { "P29_001": "10204", "P29_002": "B110210002667", "P29_003": "16001", "P29_004": "伊勢崎市立あずま小学校", "P29_005": "群馬県伊勢崎市東町2770", "P29_006": "3", "P29_007": "1", "P29_008": "00", "P29_009": null }, "geometry": { "type": "Point", "coordinates": [ 139.241912638285328, 36.345076721344306 ] } },
{ "type": "Feature", "properties": { "P29_001": "10204", "P29_002": "B110210002676", "P29_003": "16001", "P29_004": "伊勢崎市立あずま南小学校", "P29_005": "群馬県伊勢崎市三室町4290", "P29_006": "3", "P29_007": "1", "P29_008": "00", "P29_009": null }, "geometry": { "type": "Point", "coordinates": [ 139.243700895573994, 36.32898859803344 ] } },
{ "type": "Feature", "properties": { "P29_001": "10204", "P29_002": "B110210002685", "P29_003": "16001", "P29_004": "伊勢崎市立あずま北小学校", "P29_005": "群馬県伊勢崎市国定町2-1627", "P29_006": "3", "P29_007": "1", "P29_008": "00", "P29_009": null }, "geometry": { "type": "Point", "coordinates": [ 139.245987931757611, 36.35999018583761 ] } },
{ "type": "Feature", "properties": { "P29_001": "10204", "P29_002": "B110210002694", "P29_003": "16001", "P29_004": "伊勢崎市立境采女小学校", "P29_005": "群馬県伊勢崎市境下渕名2020", "P29_006": "3", "P29_007": "1", "P29_008": "00", "P29_009": null }, "geometry": { "type": "Point", "coordinates": [ 139.238817457114351, 36.300563683711978 ] } },
{ "type": "Feature", "properties": { "P29_001": "10204", "P29_002": "B110210002701", "P29_003": "16001", "P29_004": "伊勢崎市立境剛志小学校", "P29_005": "群馬県伊勢崎市境下武士831", "P29_006": "3", "P29_007": "1", "P29_008": "00", "P29_009": null }, "geometry": { "type": "Point", "coordinates": [ 139.236521531900848, 36.2756388411781 ] } },
{ "type": "Feature", "properties": { "P29_001": "10204", "P29_002": "B110210002710", "P29_003": "16001", "P29_004": "伊勢崎市立境小学校", "P29_005": "群馬県伊勢崎市境515", "P29_006": "3", "P29_007": "1", "P29_008": "00", "P29_009": null }, "geometry": { "type": "Point", "coordinates": [ 139.252320454417486, 36.272673148382154 ] } },
{ "type": "Feature", "properties": { "P29_001": "10204", "P29_002": "B110210002729", "P29_003": "16001", "P29_004": "伊勢崎市立境東小学校", "P29_005": "群馬県伊勢崎市境米岡253-2", "P29_006": "3", "P29_007": "1", "P29_008": "00", "P29_009": null }, "geometry": { "type": "Point", "coordinates": [ 139.261532468734401, 36.267827678606949 ] } },
{ "type": "Feature", "properties": { "P29_001": "10464", "P29_002": "B110210002738", "P29_003": "16001", "P29_004": "玉村町立玉村小学校", "P29_005": "群馬県佐波郡玉村町下新田99-1", "P29_006": "3", "P29_007": "1", "P29_008": "00", "P29_009": null }, "geometry": { "type": "Point", "coordinates": [ 139.110666003430026, 36.304673996284713 ] } },
{ "type": "Feature", "properties": { "P29_001": "10464", "P29_002": "B110210002747", "P29_003": "16001", "P29_004": "玉村町立上陽小学校", "P29_005": "群馬県佐波郡玉村町大字樋越921-1", "P29_006": "3", "P29_007": "1", "P29_008": "00", "P29_009": null }, "geometry": { "type": "Point", "coordinates": [ 139.124587665038007, 36.322151779633806 ] } },
{ "type": "Feature", "properties": { "P29_001": "10464", "P29_002": "B110210002756", "P29_003": "16001", "P29_004": "玉村町立芝根小学校", "P29_005": "群馬県佐波郡玉村町飯倉39", "P29_006": "3", "P29_007": "1", "P29_008": "00", "P29_009": null }, "geometry": { "type": "Point", "coordinates": [ 139.152835316056212, 36.292445979681176 ] } },
{ "type": "Feature", "properties": { "P29_001": "10464", "P29_002": "B110210002765", "P29_003": "16001", "P29_004": "玉村町立中央小学校", "P29_005": "群馬県佐波郡玉村町福島401", "P29_006": "3", "P29_007": "1", "P29_008": "00", "P29_009": null }, "geometry": { "type": "Point", "coordinates": [ 139.124553887716218, 36.305417972010638 ] } },
{ "type": "Feature", "properties": { "P29_001": "10464", "P29_002": "B110210002774", "P29_003": "16001", "P29_004": "玉村町立南小学校", "P29_005": "群馬県佐波郡玉村町角渕5011", "P29_006": "3", "P29_007": "1", "P29_008": "00", "P29_009": null }, "geometry": { "type": "Point", "coordinates": [ 139.115238779457798, 36.29273998921154 ] } },
{ "type": "Feature", "properties": { "P29_001": "10205", "P29_002": "B110210002783", "P29_003": "16001", "P29_004": "太田市立尾島小学校", "P29_005": "群馬県太田市亀岡町甲61-2", "P29_006": "3", "P29_007": "1", "P29_008": "00", "P29_009": null }, "geometry": { "type": "Point", "coordinates": [ 139.319384840271312, 36.257467759742042 ] } },
{ "type": "Feature", "properties": { "P29_001": "10205", "P29_002": "B110210002792", "P29_003": "16001", "P29_004": "太田市立世良田小学校", "P29_005": "群馬県太田市世良田町3113-7", "P29_006": "3", "P29_007": "1", "P29_008": "00", "P29_009": null }, "geometry": { "type": "Point", "coordinates": [ 139.276669252977172, 36.26171765199642 ] } },
{ "type": "Feature", "properties": { "P29_001": "10205", "P29_002": "B110210002809", "P29_003": "16001", "P29_004": "太田市立木崎小学校", "P29_005": "群馬県太田市新田木崎町1121", "P29_006": "3", "P29_007": "1", "P29_008": "00", "P29_009": null }, "geometry": { "type": "Point", "coordinates": [ 139.304987724502979, 36.280793222773788 ] } },
{ "type": "Feature", "properties": { "P29_001": "10205", "P29_002": "B110210002818", "P29_003": "16001", "P29_004": "太田市立生品小学校", "P29_005": "群馬県太田市新田村田町1365", "P29_006": "3", "P29_007": "1", "P29_008": "00", "P29_009": null }, "geometry": { "type": "Point", "coordinates": [ 139.314155350871232, 36.315453808908067 ] } },
{ "type": "Feature", "properties": { "P29_001": "10205", "P29_002": "B110210002827", "P29_003": "16001", "P29_004": "太田市立綿打小学校", "P29_005": "群馬県太田市新田上田中町795-3", "P29_006": "3", "P29_007": "1", "P29_008": "00", "P29_009": null }, "geometry": { "type": "Point", "coordinates": [ 139.27812202595635, 36.308624947544189 ] } },
{ "type": "Feature", "properties": { "P29_001": "10205", "P29_002": "B110210002836", "P29_003": "16001", "P29_004": "太田市立藪塚本町小学校", "P29_005": "群馬県太田市藪塚町1741", "P29_006": "3", "P29_007": "1", "P29_008": "00", "P29_009": null }, "geometry": { "type": "Point", "coordinates": [ 139.298778806640826, 36.35937885621027 ] } },
{ "type": "Feature", "properties": { "P29_001": "10205", "P29_002": "B110210002845", "P29_003": "16001", "P29_004": "太田市立藪塚本町南小学校", "P29_005": "群馬県太田市大原町2201-1", "P29_006": "3", "P29_007": "1", "P29_008": "00", "P29_009": null }, "geometry": { "type": "Point", "coordinates": [ 139.282405650570922, 36.344134242414107 ] } },
{ "type": "Feature", "properties": { "P29_001": "10212", "P29_002": "B110210002854", "P29_003": "16001", "P29_004": "みどり市立笠懸小学校", "P29_005": "群馬県みどり市笠懸町鹿346", "P29_006": "3", "P29_007": "1", "P29_008": "00", "P29_009": null }, "geometry": { "type": "Point", "coordinates": [ 139.281345334038008, 36.392983292810719 ] } },
{ "type": "Feature", "properties": { "P29_001": "10212", "P29_002": "B110210002863", "P29_003": "16001", "P29_004": "みどり市立笠懸東小学校", "P29_005": "群馬県みどり市笠懸町阿左美1010", "P29_006": "3", "P29_007": "1", "P29_008": "00", "P29_009": null }, "geometry": { "type": "Point", "coordinates": [ 139.308411616149215, 36.384802424782166 ] } },
{ "type": "Feature", "properties": { "P29_001": "10212", "P29_002": "B110210002872", "P29_003": "16001", "P29_004": "みどり市立笠懸北小学校", "P29_005": "群馬県みどり市笠懸町阿左美3730", "P29_006": "3", "P29_007": "1", "P29_008": "00", "P29_009": null }, "geometry": { "type": "Point", "coordinates": [ 139.291008881555854, 36.404863469196435 ] } },
{ "type": "Feature", "properties": { "P29_001": "10212", "P29_002": "B110210002881", "P29_003": "16001", "P29_004": "みどり市立大間々南小学校", "P29_005": "群馬県みどり市大間々町大間々884", "P29_006": "3", "P29_007": "1", "P29_008": "00", "P29_009": null }, "geometry": { "type": "Point", "coordinates": [ 139.272604856975818, 36.428357513210884 ] } },
{ "type": "Feature", "properties": { "P29_001": "10212", "P29_002": "B110210002890", "P29_003": "16001", "P29_004": "みどり市立大間々北小学校", "P29_005": "群馬県みどり市大間々町桐原653", "P29_006": "3", "P29_007": "1", "P29_008": "00", "P29_009": null }, "geometry": { "type": "Point", "coordinates": [ 139.274701354783161, 36.441935505905796 ] } },
{ "type": "Feature", "properties": { "P29_001": "10212", "P29_002": "B110210002907", "P29_003": "16001", "P29_004": "みどり市立大間々東小学校", "P29_005": "群馬県みどり市大間々町大間々456-1", "P29_006": "3", "P29_007": "1", "P29_008": "00", "P29_009": null }, "geometry": { "type": "Point", "coordinates": [ 139.284602499090255, 36.419793299880219 ] } },
{ "type": "Feature", "properties": { "P29_001": "10521", "P29_002": "B110210002916", "P29_003": "16001", "P29_004": "板倉町立東小学校", "P29_005": "群馬県邑楽郡板倉町海老瀬4822", "P29_006": "3", "P29_007": "1", "P29_008": "00", "P29_009": null }, "geometry": { "type": "Point", "coordinates": [ 139.651976539243691, 36.224581968087413 ] } },
{ "type": "Feature", "properties": { "P29_001": "10521", "P29_002": "B110210002925", "P29_003": "16001", "P29_004": "板倉町立西小学校", "P29_005": "群馬県邑楽郡板倉町岩田971", "P29_006": "3", "P29_007": "1", "P29_008": "00", "P29_009": null }, "geometry": { "type": "Point", "coordinates": [ 139.598464437106458, 36.224776930737697 ] } },
{ "type": "Feature", "properties": { "P29_001": "10522", "P29_002": "B110210002934", "P29_003": "16001", "P29_004": "明和町立明和東小学校", "P29_005": "群馬県邑楽郡明和町千津井293", "P29_006": "3", "P29_007": "1", "P29_008": "00", "P29_009": null }, "geometry": { "type": "Point", "coordinates": [ 139.561680996106503, 36.211138998068826 ] } },
{ "type": "Feature", "properties": { "P29_001": "10522", "P29_002": "B110210002943", "P29_003": "16001", "P29_004": "明和町立明和西小学校", "P29_005": "群馬県邑楽郡明和町川俣26", "P29_006": "3", "P29_007": "1", "P29_008": "00", "P29_009": null }, "geometry": { "type": "Point", "coordinates": [ 139.51319599998078, 36.200813024565136 ] } },
{ "type": "Feature", "properties": { "P29_001": "10523", "P29_002": "B110210002952", "P29_003": "16001", "P29_004": "千代田町立東小学校", "P29_005": "群馬県邑楽郡千代田町上五箇316", "P29_006": "3", "P29_007": "1", "P29_008": "00", "P29_009": null }, "geometry": { "type": "Point", "coordinates": [ 139.465495995592818, 36.199414003567355 ] } },
{ "type": "Feature", "properties": { "P29_001": "10523", "P29_002": "B110210002961", "P29_003": "16001", "P29_004": "千代田町立西小学校", "P29_005": "群馬県邑楽郡千代田町赤岩1755", "P29_006": "3", "P29_007": "1", "P29_008": "00", "P29_009": null }, "geometry": { "type": "Point", "coordinates": [ 139.439356855473221, 36.216317978633285 ] } },
{ "type": "Feature", "properties": { "P29_001": "10524", "P29_002": "B110210002970", "P29_003": "16001", "P29_004": "大泉町立南小学校", "P29_005": "群馬県邑楽郡大泉町仙石2-1-1", "P29_006": "3", "P29_007": "1", "P29_008": "00", "P29_009": null }, "geometry": { "type": "Point", "coordinates": [ 139.400846123807952, 36.243042936851559 ] } },
{ "type": "Feature", "properties": { "P29_001": "10524", "P29_002": "B110210002989", "P29_003": "16001", "P29_004": "大泉町立北小学校", "P29_005": "群馬県邑楽郡大泉町城之内1-21-1", "P29_006": "3", "P29_007": "1", "P29_008": "00", "P29_009": null }, "geometry": { "type": "Point", "coordinates": [ 139.413491942311822, 36.258849125708707 ] } },
{ "type": "Feature", "properties": { "P29_001": "10524", "P29_002": "B110210002998", "P29_003": "16001", "P29_004": "大泉町立西小学校", "P29_005": "群馬県邑楽郡大泉町古氷106-1", "P29_006": "3", "P29_007": "1", "P29_008": "00", "P29_009": null }, "geometry": { "type": "Point", "coordinates": [ 139.395988065761003, 36.259822104535495 ] } },
{ "type": "Feature", "properties": { "P29_001": "10524", "P29_002": "B110210003005", "P29_003": "16001", "P29_004": "大泉町立東小学校", "P29_005": "群馬県邑楽郡大泉町朝日3-7-1", "P29_006": "3", "P29_007": "1", "P29_008": "00", "P29_009": null }, "geometry": { "type": "Point", "coordinates": [ 139.424537572001668, 36.255345933601156 ] } },
{ "type": "Feature", "properties": { "P29_001": "10525", "P29_002": "B110210003014", "P29_003": "16001", "P29_004": "邑楽町立中野小学校", "P29_005": "群馬県邑楽郡邑楽町中野3021", "P29_006": "3", "P29_007": "1", "P29_008": "00", "P29_009": null }, "geometry": { "type": "Point", "coordinates": [ 139.466886498088314, 36.264331094284096 ] } },
{ "type": "Feature", "properties": { "P29_001": "10525", "P29_002": "B110210003023", "P29_003": "16001", "P29_004": "邑楽町立高島小学校", "P29_005": "群馬県邑楽郡邑楽町大字藤川379", "P29_006": "3", "P29_007": "1", "P29_008": "00", "P29_009": null }, "geometry": { "type": "Point", "coordinates": [ 139.453990430160303, 36.27366516720987 ] } },
{ "type": "Feature", "properties": { "P29_001": "10525", "P29_002": "B110210003032", "P29_003": "16001", "P29_004": "邑楽町立長柄小学校", "P29_005": "群馬県邑楽郡邑楽町篠塚1278", "P29_006": "3", "P29_007": "1", "P29_008": "00", "P29_009": null }, "geometry": { "type": "Point", "coordinates": [ 139.4586690359084, 36.240084556377994 ] } },
{ "type": "Feature", "properties": { "P29_001": "10525", "P29_002": "B110210003041", "P29_003": "16001", "P29_004": "邑楽町立中野東小学校", "P29_005": "群馬県邑楽郡邑楽町明野51", "P29_006": "3", "P29_007": "1", "P29_008": "00", "P29_009": null }, "geometry": { "type": "Point", "coordinates": [ 139.477481088927362, 36.258835192961833 ] } },
{ "type": "Feature", "properties": { "P29_001": "10201", "P29_002": "B110210003050", "P29_003": "16001", "P29_004": "前橋市立荒牧小学校みやま分校", "P29_005": "群馬県前橋市川原町826", "P29_006": "3", "P29_007": "1", "P29_008": "00", "P29_009": null }, "geometry": { "type": "Point", "coordinates": [ 139.038459182150575, 36.432874404379554 ] } },
{ "type": "Feature", "properties": { "P29_001": "10212", "P29_002": "B110210003069", "P29_003": "16001", "P29_004": "みどり市立笠懸西小学校", "P29_005": "群馬県みどり市笠懸町鹿3060-1", "P29_006": "3", "P29_007": "1", "P29_008": "00", "P29_009": null }, "geometry": { "type": "Point", "coordinates": [ 139.273823586286937, 36.3963498956347 ] } },
{ "type": "Feature", "properties": { "P29_001": "10211", "P29_002": "B110210003078", "P29_003": "16001", "P29_004": "安中市立松井田小学校", "P29_005": "群馬県安中市松井田町松井田953", "P29_006": "3", "P29_007": "1", "P29_008": "00", "P29_009": null }, "geometry": { "type": "Point", "coordinates": [ 138.798903408820166, 36.316223321997576 ] } },
{ "type": "Feature", "properties": { "P29_001": "10205", "P29_002": "B110310000015", "P29_003": "16001", "P29_004": "ぐんま国際アカデミー初等部", "P29_005": "群馬県太田市西本町69-1", "P29_006": "4", "P29_007": "1", "P29_008": "00", "P29_009": null }, "geometry": { "type": "Point", "coordinates": [ 139.36031172875272, 36.292220031001506 ] } },
{ "type": "Feature", "properties": { "P29_001": "10464", "P29_002": "B110310000024", "P29_003": "16001", "P29_004": "フェリーチェ玉村国際小学校", "P29_005": "群馬県佐波郡玉村町飯塚328", "P29_006": "4", "P29_007": "1", "P29_008": "00", "P29_009": null }, "geometry": { "type": "Point", "coordinates": [ 139.134566691919161, 36.327238011763804 ] } },
{ "type": "Feature", "properties": { "P29_001": "10201", "P29_002": "B110310000033", "P29_003": "16001", "P29_004": "共愛学園小学校", "P29_005": "群馬県前橋市小屋原町1097-2", "P29_006": "4", "P29_007": "1", "P29_008": "00", "P29_009": null }, "geometry": { "type": "Point", "coordinates": [ 139.142135529719553, 36.354108569660234 ] } }
]
}
