{
"type": "FeatureCollection",
"name": "geo_10_介護老人福祉施設",
"crs": { "type": "name", "properties": { "name": "urn:ogc:def:crs:OGC:1.3:CRS84" } },
"features": [
{ "type": "Feature", "properties": { "内容": "特別養護老人ホーム桜桃園　多床室【介護老人福祉施設】群馬県前橋市房丸町48番地1", "url2": "https://www.kaigokensaku.mhlw.go.jp/10/index.php?action_kouhyou_detail_004_kani=true&JigyosyoCd=1070108970-00&ServiceCd=510&Type=search" }, "geometry": { "type": "Point", "coordinates": [ 139.1119524, 36.3388176 ] } },
{ "type": "Feature", "properties": { "内容": "特別養護老人ホーム　せきね園【介護老人福祉施設】群馬県前橋市関根町　６６８番地", "url2": "https://www.kaigokensaku.mhlw.go.jp/10/index.php?action_kouhyou_detail_004_kani=true&JigyosyoCd=1070100555-00&ServiceCd=510&Type=search" }, "geometry": { "type": "Point", "coordinates": [ 139.0462688, 36.438154800000014 ] } },
{ "type": "Feature", "properties": { "内容": "特別養護老人ホーム　ルネス前橋【介護老人福祉施設】群馬県前橋市岩神町二丁目３－２７", "url2": "https://www.kaigokensaku.mhlw.go.jp/10/index.php?action_kouhyou_detail_004_kani=true&JigyosyoCd=1070106024-00&ServiceCd=510&Type=search" }, "geometry": { "type": "Point", "coordinates": [ 139.059335555819672, 36.40157615289295 ] } },
{ "type": "Feature", "properties": { "内容": "特別養護老人ホーム明風園【介護老人福祉施設】群馬県前橋市亀泉町1-26", "url2": "https://www.kaigokensaku.mhlw.go.jp/10/index.php?action_kouhyou_detail_004_kani=true&JigyosyoCd=1070103526-00&ServiceCd=510&Type=search" }, "geometry": { "type": "Point", "coordinates": [ 139.126747499999965, 36.404798 ] } },
{ "type": "Feature", "properties": { "内容": "ほのぼの荘【介護老人福祉施設】群馬県前橋市金丸町252番地1", "url2": "https://www.kaigokensaku.mhlw.go.jp/10/index.php?action_kouhyou_detail_004_kani=true&JigyosyoCd=1070100027-00&ServiceCd=510&Type=search" }, "geometry": { "type": "Point", "coordinates": [ 139.125477300000057, 36.4684755 ] } },
{ "type": "Feature", "properties": { "内容": "特別養護老人ホームやすらぎ園【介護老人福祉施設】群馬県前橋市江木町1225-1", "url2": "https://www.kaigokensaku.mhlw.go.jp/10/index.php?action_kouhyou_detail_004_kani=true&JigyosyoCd=1070100530-00&ServiceCd=510&Type=search" }, "geometry": { "type": "Point", "coordinates": [ 139.133257599999979, 36.4064396 ] } },
{ "type": "Feature", "properties": { "内容": "特別養護老人ホーム春日の里【介護老人福祉施設】群馬県前橋市上佐鳥町７７４番地", "url2": "https://www.kaigokensaku.mhlw.go.jp/10/index.php?action_kouhyou_detail_004_kani=true&JigyosyoCd=1070100563-00&ServiceCd=510&Type=search" }, "geometry": { "type": "Point", "coordinates": [ 139.083955, 36.3557527 ] } },
{ "type": "Feature", "properties": { "内容": "特別養護老人ホーム春日の里ユニット型【介護老人福祉施設】群馬県前橋市上佐鳥町７７４番地", "url2": "https://www.kaigokensaku.mhlw.go.jp/10/index.php?action_kouhyou_detail_004_kani=true&JigyosyoCd=1070105661-00&ServiceCd=510&Type=search" }, "geometry": { "type": "Point", "coordinates": [ 139.083955, 36.3557527 ] } },
{ "type": "Feature", "properties": { "内容": "特別養護老人ホームかまくら【介護老人福祉施設】群馬県前橋市上細井町2050-7", "url2": "https://www.kaigokensaku.mhlw.go.jp/10/index.php?action_kouhyou_detail_004_kani=true&JigyosyoCd=1070102403-00&ServiceCd=510&Type=search" }, "geometry": { "type": "Point", "coordinates": [ 139.079944899999987, 36.4149756 ] } },
{ "type": "Feature", "properties": { "内容": "特別養護老人ホーム上毛の里【介護老人福祉施設】群馬県前橋市上増田町６００番地", "url2": "https://www.kaigokensaku.mhlw.go.jp/10/index.php?action_kouhyou_detail_004_kani=true&JigyosyoCd=1070100548-00&ServiceCd=510&Type=search" }, "geometry": { "type": "Point", "coordinates": [ 139.149270900000033, 36.3525874 ] } },
{ "type": "Feature", "properties": { "内容": "特別養護老人ホーム上毛の里ユニット型【介護老人福祉施設】群馬県前橋市上増田町６００", "url2": "https://www.kaigokensaku.mhlw.go.jp/10/index.php?action_kouhyou_detail_004_kani=true&JigyosyoCd=1070105612-00&ServiceCd=510&Type=search" }, "geometry": { "type": "Point", "coordinates": [ 139.149270900000033, 36.3525874 ] } },
{ "type": "Feature", "properties": { "内容": "特別養護老人ホーム　生糸（いと）の街【介護老人福祉施設】群馬県前橋市西片貝町三丁目２８５番地", "url2": "https://www.kaigokensaku.mhlw.go.jp/10/index.php?action_kouhyou_detail_004_kani=true&JigyosyoCd=1070108400-00&ServiceCd=510&Type=search" }, "geometry": { "type": "Point", "coordinates": [ 139.098573082278449, 36.387706096007477 ] } },
{ "type": "Feature", "properties": { "内容": "特別養護老人ホーム清里荘【介護老人福祉施設】群馬県前橋市青梨子町５０３", "url2": "https://www.kaigokensaku.mhlw.go.jp/10/index.php?action_kouhyou_detail_004_kani=true&JigyosyoCd=1070100936-00&ServiceCd=510&Type=search" }, "geometry": { "type": "Point", "coordinates": [ 139.016675699999951, 36.4134354 ] } },
{ "type": "Feature", "properties": { "内容": "あじさい園【介護老人福祉施設】群馬県前橋市川曲町536番地", "url2": "https://www.kaigokensaku.mhlw.go.jp/10/index.php?action_kouhyou_detail_004_kani=true&JigyosyoCd=1070100316-00&ServiceCd=510&Type=search" }, "geometry": { "type": "Point", "coordinates": [ 139.052335800000037, 36.3517471 ] } },
{ "type": "Feature", "properties": { "内容": "特別養護老人ホームサンライフアネックス【介護老人福祉施設】群馬県前橋市総社町総社３０５１番地４", "url2": "https://www.kaigokensaku.mhlw.go.jp/10/index.php?action_kouhyou_detail_004_kani=true&JigyosyoCd=1070107162-00&ServiceCd=510&Type=search" }, "geometry": { "type": "Point", "coordinates": [ 139.036257054631079, 36.394578026641888 ] } },
{ "type": "Feature", "properties": { "内容": "特別養護老人ホームこうふく園【介護老人福祉施設】群馬県前橋市大胡町３５１－１", "url2": "https://www.kaigokensaku.mhlw.go.jp/10/index.php?action_kouhyou_detail_004_kani=true&JigyosyoCd=1070102429-00&ServiceCd=510&Type=search" }, "geometry": { "type": "Point", "coordinates": [ 139.1607232, 36.4093621 ] } },
{ "type": "Feature", "properties": { "内容": "特別養護老人ホームほなみ【介護老人福祉施設】群馬県前橋市朝倉町842-1", "url2": "https://www.kaigokensaku.mhlw.go.jp/10/index.php?action_kouhyou_detail_004_kani=true&JigyosyoCd=1070107386-00&ServiceCd=510&Type=search" }, "geometry": { "type": "Point", "coordinates": [ 139.09269519999998, 36.3710705 ] } },
{ "type": "Feature", "properties": { "内容": "特別養護老人ホーム　ほなみ　ユニット型【介護老人福祉施設】群馬県前橋市朝倉町842-1", "url2": "https://www.kaigokensaku.mhlw.go.jp/10/index.php?action_kouhyou_detail_004_kani=true&JigyosyoCd=1070107394-00&ServiceCd=510&Type=search" }, "geometry": { "type": "Point", "coordinates": [ 139.09269519999998, 36.3710705 ] } },
{ "type": "Feature", "properties": { "内容": "特別養護老人ホーム　えいめい【介護老人福祉施設】群馬県前橋市天川大島町三丁目７０５番地", "url2": "https://www.kaigokensaku.mhlw.go.jp/10/index.php?action_kouhyou_detail_004_kani=true&JigyosyoCd=1070101280-00&ServiceCd=510&Type=search" }, "geometry": { "type": "Point", "coordinates": [ 139.108023300000013, 36.3770536 ] } },
{ "type": "Feature", "properties": { "内容": "鐘の鳴る丘愛誠園【介護老人福祉施設】群馬県前橋市東金丸町95", "url2": "https://www.kaigokensaku.mhlw.go.jp/10/index.php?action_kouhyou_detail_004_kani=true&JigyosyoCd=1072000225-00&ServiceCd=510&Type=search" }, "geometry": { "type": "Point", "coordinates": [ 139.137292300000013, 36.4748917 ] } },
{ "type": "Feature", "properties": { "内容": "特別養護老人ホ－ム　恵風園【介護老人福祉施設】群馬県前橋市日吉町２－２０－１４", "url2": "https://www.kaigokensaku.mhlw.go.jp/10/index.php?action_kouhyou_detail_004_kani=true&JigyosyoCd=1070100506-00&ServiceCd=510&Type=search" }, "geometry": { "type": "Point", "coordinates": [ 139.079490399999941, 36.3951617 ] } },
{ "type": "Feature", "properties": { "内容": "特別養護老人ホームあゆみの里【介護老人福祉施設】群馬県前橋市柏倉町2189-223", "url2": "https://www.kaigokensaku.mhlw.go.jp/10/index.php?action_kouhyou_detail_004_kani=true&JigyosyoCd=1072000589-00&ServiceCd=510&Type=search" }, "geometry": { "type": "Point", "coordinates": [ 139.171544400000016, 36.4608611 ] } },
{ "type": "Feature", "properties": { "内容": "特別養護老人ホーム　元気の郷【介護老人福祉施設】群馬県前橋市粕川町月田４００", "url2": "https://www.kaigokensaku.mhlw.go.jp/10/index.php?action_kouhyou_detail_004_kani=true&JigyosyoCd=1072000811-00&ServiceCd=510&Type=search" }, "geometry": { "type": "Point", "coordinates": [ 139.205698899999987, 36.4314573 ] } },
{ "type": "Feature", "properties": { "内容": "特別養護老人ホーム　第二明光園【介護老人福祉施設】群馬県前橋市樋越町１９－１", "url2": "https://www.kaigokensaku.mhlw.go.jp/10/index.php?action_kouhyou_detail_004_kani=true&JigyosyoCd=1072000142-00&ServiceCd=510&Type=search" }, "geometry": { "type": "Point", "coordinates": [ 139.181451700000025, 36.4130423 ] } },
{ "type": "Feature", "properties": { "内容": "特別養護老人ホーム　シャリティエまえばし【介護老人福祉施設】群馬県前橋市表町二丁目18-8", "url2": "https://www.kaigokensaku.mhlw.go.jp/10/index.php?action_kouhyou_detail_004_kani=true&JigyosyoCd=1070101819-00&ServiceCd=510&Type=search" }, "geometry": { "type": "Point", "coordinates": [ 139.0731551, 36.3857878 ] } },
{ "type": "Feature", "properties": { "内容": "特別養護老人ホーム　サンホームふじみ【介護老人福祉施設】群馬県前橋市富士見町小沢２０７番地１", "url2": "https://www.kaigokensaku.mhlw.go.jp/10/index.php?action_kouhyou_detail_004_kani=true&JigyosyoCd=1072000241-00&ServiceCd=510&Type=search" }, "geometry": { "type": "Point", "coordinates": [ 139.085445400000026, 36.4535677 ] } },
{ "type": "Feature", "properties": { "内容": "特別養護老人ホームみのりの丘【介護老人福祉施設】群馬県前橋市富士見町小沢534番地9", "url2": "https://www.kaigokensaku.mhlw.go.jp/10/index.php?action_kouhyou_detail_004_kani=true&JigyosyoCd=1070105398-00&ServiceCd=510&Type=search" }, "geometry": { "type": "Point", "coordinates": [ 139.076254426319906, 36.443241830772877 ] } },
{ "type": "Feature", "properties": { "内容": "特別養護老人ホーム　すみれ荘【介護老人福祉施設】群馬県前橋市富田町1180-1", "url2": "https://www.kaigokensaku.mhlw.go.jp/10/index.php?action_kouhyou_detail_004_kani=true&JigyosyoCd=1070100266-00&ServiceCd=510&Type=search" }, "geometry": { "type": "Point", "coordinates": [ 139.146308699999963, 36.3926945 ] } },
{ "type": "Feature", "properties": { "内容": "特別養護老人ホーム桜桃園【介護老人福祉施設】群馬県前橋市房丸町４８番地1", "url2": "https://www.kaigokensaku.mhlw.go.jp/10/index.php?action_kouhyou_detail_004_kani=true&JigyosyoCd=1070103237-00&ServiceCd=510&Type=search" }, "geometry": { "type": "Point", "coordinates": [ 139.111950900000011, 36.3388076 ] } },
{ "type": "Feature", "properties": { "内容": "特別養護老人ホームサンライフ問屋町【介護老人福祉施設】群馬県前橋市問屋町一丁目５番地４", "url2": "https://www.kaigokensaku.mhlw.go.jp/10/index.php?action_kouhyou_detail_004_kani=true&JigyosyoCd=1070104300-00&ServiceCd=510&Type=search" }, "geometry": { "type": "Point", "coordinates": [ 139.039635699999963, 36.3939359 ] } },
{ "type": "Feature", "properties": { "内容": "特別養護老人ホームサンライフ南町【介護老人福祉施設】群馬県前橋市南町二丁目６７番地５", "url2": "https://www.kaigokensaku.mhlw.go.jp/10/index.php?action_kouhyou_detail_004_kani=true&JigyosyoCd=1070108731-00&ServiceCd=510&Type=search" }, "geometry": { "type": "Point", "coordinates": [ 139.0672413, 36.3732243 ] } },
{ "type": "Feature", "properties": { "内容": "特別養護老人ホーム長寿荘【介護老人福祉施設】群馬県高崎市井野町355-1特別養護老人ホーム長寿荘", "url2": "https://www.kaigokensaku.mhlw.go.jp/10/index.php?action_kouhyou_detail_004_kani=true&JigyosyoCd=1070200405-00&ServiceCd=510&Type=search" }, "geometry": { "type": "Point", "coordinates": [ 139.021278102446786, 36.360657100144678 ] } },
{ "type": "Feature", "properties": { "内容": "特別養護老人ホーム長寿荘ユニット型【介護老人福祉施設】群馬県高崎市井野町355-1特別養護老人ホーム長寿荘", "url2": "https://www.kaigokensaku.mhlw.go.jp/10/index.php?action_kouhyou_detail_004_kani=true&JigyosyoCd=1070206048-00&ServiceCd=510&Type=search" }, "geometry": { "type": "Point", "coordinates": [ 139.02126880000003, 36.360867600000034 ] } },
{ "type": "Feature", "properties": { "内容": "特別養護老人ホームシンフォニー【介護老人福祉施設】群馬県高崎市井野町915-2社会福祉法人苗場福祉会　特別養護老人ホームシンフォニー", "url2": "https://www.kaigokensaku.mhlw.go.jp/10/index.php?action_kouhyou_detail_004_kani=true&JigyosyoCd=1070207228-00&ServiceCd=510&Type=search" }, "geometry": { "type": "Point", "coordinates": [ 139.024907500000012, 36.3556077 ] } },
{ "type": "Feature", "properties": { "内容": "特別養護老人ホーム天界園【介護老人福祉施設】群馬県高崎市下佐野町553番地", "url2": "https://www.kaigokensaku.mhlw.go.jp/10/index.php?action_kouhyou_detail_004_kani=true&JigyosyoCd=1070200355-00&ServiceCd=510&Type=search" }, "geometry": { "type": "Point", "coordinates": [ 139.029003399999965, 36.2965049 ] } },
{ "type": "Feature", "properties": { "内容": "特別養護老人ホーム天界園【介護老人福祉施設】群馬県高崎市下佐野町553番地", "url2": "https://www.kaigokensaku.mhlw.go.jp/10/index.php?action_kouhyou_detail_004_kani=true&JigyosyoCd=1070204977-00&ServiceCd=510&Type=search" }, "geometry": { "type": "Point", "coordinates": [ 139.029003399999965, 36.2965049 ] } },
{ "type": "Feature", "properties": { "内容": "特別養護老人ホーム　菊地の園【介護老人福祉施設】群馬県高崎市菊地町４３４番地", "url2": "https://www.kaigokensaku.mhlw.go.jp/10/index.php?action_kouhyou_detail_004_kani=true&JigyosyoCd=1070204571-00&ServiceCd=510&Type=search" }, "geometry": { "type": "Point", "coordinates": [ 138.963806266270439, 36.361199320535576 ] } },
{ "type": "Feature", "properties": { "内容": "特別養護老人ホーム　菊地の園【介護老人福祉施設】群馬県高崎市菊地町434番地", "url2": "https://www.kaigokensaku.mhlw.go.jp/10/index.php?action_kouhyou_detail_004_kani=true&JigyosyoCd=1070206816-00&ServiceCd=510&Type=search" }, "geometry": { "type": "Point", "coordinates": [ 138.963691700000027, 36.3611529 ] } },
{ "type": "Feature", "properties": { "内容": "特別養護老人ホーム　吉井セピア【介護老人福祉施設】群馬県高崎市吉井町塩1147", "url2": "https://www.kaigokensaku.mhlw.go.jp/10/index.php?action_kouhyou_detail_004_kani=true&JigyosyoCd=1072300021-00&ServiceCd=510&Type=search" }, "geometry": { "type": "Point", "coordinates": [ 138.97206140000003, 36.2341664 ] } },
{ "type": "Feature", "properties": { "内容": "特別養護老人ホーム吉井の丘【介護老人福祉施設】群馬県高崎市吉井町岩崎字二子2224－1吉井の丘", "url2": "https://www.kaigokensaku.mhlw.go.jp/10/index.php?action_kouhyou_detail_004_kani=true&JigyosyoCd=1070206501-00&ServiceCd=510&Type=search" }, "geometry": { "type": "Point", "coordinates": [ 138.990145, 36.2702566 ] } },
{ "type": "Feature", "properties": { "内容": "恵峰園【介護老人福祉施設】群馬県高崎市京目町1632番地1", "url2": "https://www.kaigokensaku.mhlw.go.jp/10/index.php?action_kouhyou_detail_004_kani=true&JigyosyoCd=1070200215-00&ServiceCd=510&Type=search" }, "geometry": { "type": "Point", "coordinates": [ 139.053299700000025, 36.3482974 ] } },
{ "type": "Feature", "properties": { "内容": "特別養護老人ホーム　希望館【介護老人福祉施設】群馬県高崎市江木町１０９３－１", "url2": "https://www.kaigokensaku.mhlw.go.jp/10/index.php?action_kouhyou_detail_004_kani=true&JigyosyoCd=1070200413-00&ServiceCd=510&Type=search" }, "geometry": { "type": "Point", "coordinates": [ 139.020414100000039, 36.3367392 ] } },
{ "type": "Feature", "properties": { "内容": "特別養護老人ホーム　キートス南八幡【介護老人福祉施設】群馬県高崎市山名町836-1", "url2": "https://www.kaigokensaku.mhlw.go.jp/10/index.php?action_kouhyou_detail_004_kani=true&JigyosyoCd=1070207020-00&ServiceCd=510&Type=search" }, "geometry": { "type": "Point", "coordinates": [ 139.040825886705989, 36.272208686348144 ] } },
{ "type": "Feature", "properties": { "内容": "特別養護老人ホーム高風園【介護老人福祉施設】群馬県高崎市寺尾町２４１２", "url2": "https://www.kaigokensaku.mhlw.go.jp/10/index.php?action_kouhyou_detail_004_kani=true&JigyosyoCd=1070202112-00&ServiceCd=510&Type=search" }, "geometry": { "type": "Point", "coordinates": [ 138.99149280000006, 36.3019653 ] } },
{ "type": "Feature", "properties": { "内容": "ホピ園【介護老人福祉施設】群馬県高崎市寺尾町６２１番地１", "url2": "https://www.kaigokensaku.mhlw.go.jp/10/index.php?action_kouhyou_detail_004_kani=true&JigyosyoCd=1070200264-00&ServiceCd=510&Type=search" }, "geometry": { "type": "Point", "coordinates": [ 139.012493800000016, 36.296738 ] } },
{ "type": "Feature", "properties": { "内容": "特別養護老人ホームシェステさとの花【介護老人福祉施設】群馬県高崎市乗附町208", "url2": "https://www.kaigokensaku.mhlw.go.jp/10/index.php?action_kouhyou_detail_004_kani=true&JigyosyoCd=1070201031-00&ServiceCd=510&Type=search" }, "geometry": { "type": "Point", "coordinates": [ 138.98107559999994, 36.326811 ] } },
{ "type": "Feature", "properties": { "内容": "特別養護老人ホーム待望館【介護老人福祉施設】群馬県高崎市新町1435-3", "url2": "https://www.kaigokensaku.mhlw.go.jp/10/index.php?action_kouhyou_detail_004_kani=true&JigyosyoCd=1070207640-00&ServiceCd=510&Type=search" }, "geometry": { "type": "Point", "coordinates": [ 139.106048363125211, 36.261729523631566 ] } },
{ "type": "Feature", "properties": { "内容": "特別養護老人ホーム　花みづき寮【介護老人福祉施設】群馬県高崎市新町１８６３", "url2": "https://www.kaigokensaku.mhlw.go.jp/10/index.php?action_kouhyou_detail_004_kani=true&JigyosyoCd=1072300302-00&ServiceCd=510&Type=search" }, "geometry": { "type": "Point", "coordinates": [ 139.104151699999989, 36.2644017 ] } },
{ "type": "Feature", "properties": { "内容": "特別養護老人ホーム高風園「そめやの里」【介護老人福祉施設】群馬県高崎市新保町９９３", "url2": "https://www.kaigokensaku.mhlw.go.jp/10/index.php?action_kouhyou_detail_004_kani=true&JigyosyoCd=1070203029-00&ServiceCd=510&Type=search" }, "geometry": { "type": "Point", "coordinates": [ 139.042689500000051, 36.3490276 ] } },
{ "type": "Feature", "properties": { "内容": "特別養護老人ホームシリウス【介護老人福祉施設】群馬県高崎市倉渕町三ノ倉533番地１", "url2": "https://www.kaigokensaku.mhlw.go.jp/10/index.php?action_kouhyou_detail_004_kani=true&JigyosyoCd=1070202427-00&ServiceCd=510&Type=search" }, "geometry": { "type": "Point", "coordinates": [ 138.798117100000013, 36.4198253 ] } },
{ "type": "Feature", "properties": { "内容": "ユニット型特別養護老人ホームルネス二之沢【介護老人福祉施設】群馬県高崎市足門町166-1", "url2": "https://www.kaigokensaku.mhlw.go.jp/10/index.php?action_kouhyou_detail_004_kani=true&JigyosyoCd=1070204944-00&ServiceCd=510&Type=search" }, "geometry": { "type": "Point", "coordinates": [ 138.979554399999984, 36.4023856 ] } },
{ "type": "Feature", "properties": { "内容": "特別養護老人ホームルネス二之沢【介護老人福祉施設】群馬県高崎市足門町166番地1", "url2": "https://www.kaigokensaku.mhlw.go.jp/10/index.php?action_kouhyou_detail_004_kani=true&JigyosyoCd=1072100512-00&ServiceCd=510&Type=search" }, "geometry": { "type": "Point", "coordinates": [ 138.979554399999984, 36.4023856 ] } },
{ "type": "Feature", "properties": { "内容": "特別養護老人ホーム誠の園【介護老人福祉施設】群馬県高崎市中室田町２１０９番地", "url2": "https://www.kaigokensaku.mhlw.go.jp/10/index.php?action_kouhyou_detail_004_kani=true&JigyosyoCd=1072100165-00&ServiceCd=510&Type=search" }, "geometry": { "type": "Point", "coordinates": [ 138.859775799999937, 36.3947126 ] } },
{ "type": "Feature", "properties": { "内容": "特別養護老人ホーム　エンジェルホーム【介護老人福祉施設】群馬県高崎市中室田町２２５４番地", "url2": "https://www.kaigokensaku.mhlw.go.jp/10/index.php?action_kouhyou_detail_004_kani=true&JigyosyoCd=1072100371-00&ServiceCd=510&Type=search" }, "geometry": { "type": "Point", "coordinates": [ 138.861200599999961, 36.3974094 ] } },
{ "type": "Feature", "properties": { "内容": "特別養護老人ホームはなぞの【介護老人福祉施設】群馬県高崎市塚田町21-1", "url2": "https://www.kaigokensaku.mhlw.go.jp/10/index.php?action_kouhyou_detail_004_kani=true&JigyosyoCd=1070204993-00&ServiceCd=510&Type=search" }, "geometry": { "type": "Point", "coordinates": [ 139.01743620000002, 36.389618 ] } },
{ "type": "Feature", "properties": { "内容": "特別養護老人ホーム悠ゆう【介護老人福祉施設】群馬県高崎市南大類町１２１０", "url2": "https://www.kaigokensaku.mhlw.go.jp/10/index.php?action_kouhyou_detail_004_kani=true&JigyosyoCd=1070201775-00&ServiceCd=510&Type=search" }, "geometry": { "type": "Point", "coordinates": [ 139.035179699999958, 36.3273038 ] } },
{ "type": "Feature", "properties": { "内容": "特別養護老人ホーム森の小径【介護老人福祉施設】群馬県高崎市浜川町836-2", "url2": "https://www.kaigokensaku.mhlw.go.jp/10/index.php?action_kouhyou_detail_004_kani=true&JigyosyoCd=1070200256-00&ServiceCd=510&Type=search" }, "geometry": { "type": "Point", "coordinates": [ 138.9826405, 36.3741816 ] } },
{ "type": "Feature", "properties": { "内容": "特別養護老人ホーム泉の園ユニット【介護老人福祉施設】群馬県高崎市箕郷町矢原12番地1", "url2": "https://www.kaigokensaku.mhlw.go.jp/10/index.php?action_kouhyou_detail_004_kani=true&JigyosyoCd=1070204902-00&ServiceCd=510&Type=search" }, "geometry": { "type": "Point", "coordinates": [ 138.962777800000026, 36.3972831 ] } },
{ "type": "Feature", "properties": { "内容": "特別養護老人ホーム泉の園【介護老人福祉施設】群馬県高崎市箕郷町矢原12番地1", "url2": "https://www.kaigokensaku.mhlw.go.jp/10/index.php?action_kouhyou_detail_004_kani=true&JigyosyoCd=1072100132-00&ServiceCd=510&Type=search" }, "geometry": { "type": "Point", "coordinates": [ 138.962777800000026, 36.3972831 ] } },
{ "type": "Feature", "properties": { "内容": "特別養護老人ホーム　ふるさと【介護老人福祉施設】群馬県高崎市綿貫町１３６９番地", "url2": "https://www.kaigokensaku.mhlw.go.jp/10/index.php?action_kouhyou_detail_004_kani=true&JigyosyoCd=1070200777-00&ServiceCd=510&Type=search" }, "geometry": { "type": "Point", "coordinates": [ 139.081381800000031, 36.3053142 ] } },
{ "type": "Feature", "properties": { "内容": "特別養護老人ホーム　明生苑【介護老人福祉施設】群馬県高崎市矢中町1105-4", "url2": "https://www.kaigokensaku.mhlw.go.jp/10/index.php?action_kouhyou_detail_004_kani=true&JigyosyoCd=1070200421-00&ServiceCd=510&Type=search" }, "geometry": { "type": "Point", "coordinates": [ 139.0515428, 36.3052188 ] } },
{ "type": "Feature", "properties": { "内容": "特別養護老人ホーム榛名憩の園【介護老人福祉施設】群馬県高崎市中室田町２２５２番地", "url2": "https://www.kaigokensaku.mhlw.go.jp/10/index.php?action_kouhyou_detail_004_kani=true&JigyosyoCd=1072100157-00&ServiceCd=510&Type=search" }, "geometry": { "type": "Point", "coordinates": [ 138.859909099999982, 36.3967623 ] } },
{ "type": "Feature", "properties": { "内容": "特別養護老人ホーム　シルクの里【介護老人福祉施設】群馬県桐生市宮本町一丁目12番34号", "url2": "https://www.kaigokensaku.mhlw.go.jp/10/index.php?action_kouhyou_detail_004_kani=true&JigyosyoCd=1070302870-00&ServiceCd=510&Type=search" }, "geometry": { "type": "Point", "coordinates": [ 139.339030425131227, 36.414316228112384 ] } },
{ "type": "Feature", "properties": { "内容": "特別養護老人ホーム　サンライズさかいの【介護老人福祉施設】群馬県桐生市境野町７丁目1788番地1", "url2": "https://www.kaigokensaku.mhlw.go.jp/10/index.php?action_kouhyou_detail_004_kani=true&JigyosyoCd=1070300742-00&ServiceCd=510&Type=search" }, "geometry": { "type": "Point", "coordinates": [ 139.362514199999964, 36.3777905 ] } },
{ "type": "Feature", "properties": { "内容": "特別養護老人ホーム双葉苑【介護老人福祉施設】群馬県桐生市広沢町１丁目２６４３番地の１", "url2": "https://www.kaigokensaku.mhlw.go.jp/10/index.php?action_kouhyou_detail_004_kani=true&JigyosyoCd=1070300189-00&ServiceCd=510&Type=search" }, "geometry": { "type": "Point", "coordinates": [ 139.333065499999947, 36.3919753 ] } },
{ "type": "Feature", "properties": { "内容": "ユニット型特別養護老人ホーム双葉苑【介護老人福祉施設】群馬県桐生市広沢町1丁目2643番地の1", "url2": "https://www.kaigokensaku.mhlw.go.jp/10/index.php?action_kouhyou_detail_004_kani=true&JigyosyoCd=1070302730-00&ServiceCd=510&Type=search" }, "geometry": { "type": "Point", "coordinates": [ 139.333254741803017, 36.391824274791638 ] } },
{ "type": "Feature", "properties": { "内容": "社会福祉法人　邦知会　ユートピア広沢【介護老人福祉施設】群馬県桐生市広沢町6-307-3", "url2": "https://www.kaigokensaku.mhlw.go.jp/10/index.php?action_kouhyou_detail_004_kani=true&JigyosyoCd=1070300106-00&ServiceCd=510&Type=search" }, "geometry": { "type": "Point", "coordinates": [ 139.359239800000068, 36.3713938 ] } },
{ "type": "Feature", "properties": { "内容": "社会福祉法人　邦知会　ハーモニー広沢【介護老人福祉施設】群馬県桐生市広沢町6-332-1", "url2": "https://www.kaigokensaku.mhlw.go.jp/10/index.php?action_kouhyou_detail_004_kani=true&JigyosyoCd=1070300833-00&ServiceCd=510&Type=search" }, "geometry": { "type": "Point", "coordinates": [ 139.361092500000041, 36.3702662 ] } },
{ "type": "Feature", "properties": { "内容": "社会福祉法人　泰和会　しみずの里【介護老人福祉施設】群馬県桐生市黒保根町下田沢２５６５－１", "url2": "https://www.kaigokensaku.mhlw.go.jp/10/index.php?action_kouhyou_detail_004_kani=true&JigyosyoCd=1072000050-00&ServiceCd=510&Type=search" }, "geometry": { "type": "Point", "coordinates": [ 139.276081799999929, 36.5101374 ] } },
{ "type": "Feature", "properties": { "内容": "特別養護老人ホームげんき・倶楽部【介護老人福祉施設】群馬県桐生市新里町新川1312", "url2": "https://www.kaigokensaku.mhlw.go.jp/10/index.php?action_kouhyou_detail_004_kani=true&JigyosyoCd=1070301237-00&ServiceCd=510&Type=search" }, "geometry": { "type": "Point", "coordinates": [ 139.257483699999966, 36.4123917 ] } },
{ "type": "Feature", "properties": { "内容": "特別養護老人ホーム　思いやり【介護老人福祉施設】群馬県桐生市川内町1丁目361-2", "url2": "https://www.kaigokensaku.mhlw.go.jp/10/index.php?action_kouhyou_detail_004_kani=true&JigyosyoCd=1070301732-00&ServiceCd=510&Type=search" }, "geometry": { "type": "Point", "coordinates": [ 139.322888199999966, 36.4341317 ] } },
{ "type": "Feature", "properties": { "内容": "特別養護老人ホーム山笑【介護老人福祉施設】群馬県桐生市相生町1-610-1", "url2": "https://www.kaigokensaku.mhlw.go.jp/10/index.php?action_kouhyou_detail_004_kani=true&JigyosyoCd=1070302292-00&ServiceCd=510&Type=search" }, "geometry": { "type": "Point", "coordinates": [ 139.309325899999976, 36.4025907 ] } },
{ "type": "Feature", "properties": { "内容": "特別養護老人ホームのぞみの苑【介護老人福祉施設】群馬県桐生市相生町５－４９３", "url2": "https://www.kaigokensaku.mhlw.go.jp/10/index.php?action_kouhyou_detail_004_kani=true&JigyosyoCd=1070302748-00&ServiceCd=510&Type=search" }, "geometry": { "type": "Point", "coordinates": [ 139.2855561, 36.4146192 ] } },
{ "type": "Feature", "properties": { "内容": "特別養護老人ホームのぞみの苑【介護老人福祉施設】群馬県桐生市相生町５－４９３", "url2": "https://www.kaigokensaku.mhlw.go.jp/10/index.php?action_kouhyou_detail_004_kani=true&JigyosyoCd=1070300478-00&ServiceCd=510&Type=search" }, "geometry": { "type": "Point", "coordinates": [ 139.2855561, 36.4146192 ] } },
{ "type": "Feature", "properties": { "内容": "特別養護老人ホーム　瀬々らぎの里【介護老人福祉施設】群馬県桐生市梅田町１丁目724番地1", "url2": "https://www.kaigokensaku.mhlw.go.jp/10/index.php?action_kouhyou_detail_004_kani=true&JigyosyoCd=1070301617-00&ServiceCd=510&Type=search" }, "geometry": { "type": "Point", "coordinates": [ 139.36613598709414, 36.447424589125745 ] } },
{ "type": "Feature", "properties": { "内容": "特別養護老人ホーム梅の郷【介護老人福祉施設】群馬県桐生市梅田町４丁目１７７４－４", "url2": "https://www.kaigokensaku.mhlw.go.jp/10/index.php?action_kouhyou_detail_004_kani=true&JigyosyoCd=1070300239-00&ServiceCd=510&Type=search" }, "geometry": { "type": "Point", "coordinates": [ 139.40640570000005, 36.4741719 ] } },
{ "type": "Feature", "properties": { "内容": "特別養護老人ホーム菱風園【介護老人福祉施設】群馬県桐生市菱町１－３０１６－１", "url2": "https://www.kaigokensaku.mhlw.go.jp/10/index.php?action_kouhyou_detail_004_kani=true&JigyosyoCd=1070301153-00&ServiceCd=510&Type=search" }, "geometry": { "type": "Point", "coordinates": [ 139.362649499999947, 36.3914337 ] } },
{ "type": "Feature", "properties": { "内容": "特別養護老人ホームGreen　Rose【介護老人福祉施設】群馬県伊勢崎市安堀町789-3", "url2": "https://www.kaigokensaku.mhlw.go.jp/10/index.php?action_kouhyou_detail_004_kani=true&JigyosyoCd=1070404148-00&ServiceCd=510&Type=search" }, "geometry": { "type": "Point", "coordinates": [ 139.183317799999941, 36.3364412 ] } },
{ "type": "Feature", "properties": { "内容": "特別養護老人ホームアミーキ【介護老人福祉施設】群馬県伊勢崎市磯町435番地1", "url2": "https://www.kaigokensaku.mhlw.go.jp/10/index.php?action_kouhyou_detail_004_kani=true&JigyosyoCd=1072800509-00&ServiceCd=510&Type=search" }, "geometry": { "type": "Point", "coordinates": [ 139.230736400000069, 36.399534 ] } },
{ "type": "Feature", "properties": { "内容": "特別養護老人ホーム　ぶどうの郷【介護老人福祉施設】群馬県伊勢崎市宮古町１２８－１", "url2": "https://www.kaigokensaku.mhlw.go.jp/10/index.php?action_kouhyou_detail_004_kani=true&JigyosyoCd=1070402050-00&ServiceCd=510&Type=search" }, "geometry": { "type": "Point", "coordinates": [ 139.15248889999998, 36.3238729 ] } },
{ "type": "Feature", "properties": { "内容": "特別養護老人ホームいこいの里【介護老人福祉施設】群馬県伊勢崎市境上武士1017-1特別養護老人ホームいこいの里", "url2": "https://www.kaigokensaku.mhlw.go.jp/10/index.php?action_kouhyou_detail_004_kani=true&JigyosyoCd=1072800095-00&ServiceCd=510&Type=search" }, "geometry": { "type": "Point", "coordinates": [ 139.229617800000028, 36.2780298 ] } },
{ "type": "Feature", "properties": { "内容": "特別養護老人ホーム銀杏の丘【介護老人福祉施設】群馬県伊勢崎市境上渕名1010-1", "url2": "https://www.kaigokensaku.mhlw.go.jp/10/index.php?action_kouhyou_detail_004_kani=true&JigyosyoCd=1070402027-00&ServiceCd=510&Type=search" }, "geometry": { "type": "Point", "coordinates": [ 139.254455499999949, 36.3102908 ] } },
{ "type": "Feature", "properties": { "内容": "特別養護老人ホームサルビア荘【介護老人福祉施設】群馬県伊勢崎市国定町二丁目２３４５番地", "url2": "https://www.kaigokensaku.mhlw.go.jp/10/index.php?action_kouhyou_detail_004_kani=true&JigyosyoCd=1072800020-00&ServiceCd=510&Type=search" }, "geometry": { "type": "Point", "coordinates": [ 139.235369499999933, 36.3630455 ] } },
{ "type": "Feature", "properties": { "内容": "特別養護老人ホーム愛老園【介護老人福祉施設】群馬県伊勢崎市太田町686", "url2": "https://www.kaigokensaku.mhlw.go.jp/10/index.php?action_kouhyou_detail_004_kani=true&JigyosyoCd=1070400047-00&ServiceCd=510&Type=search" }, "geometry": { "type": "Point", "coordinates": [ 139.187642899999986, 36.3257425 ] } },
{ "type": "Feature", "properties": { "内容": "特別養護老人ホーム　あいの詩【介護老人福祉施設】群馬県伊勢崎市田中島町1169", "url2": "https://www.kaigokensaku.mhlw.go.jp/10/index.php?action_kouhyou_detail_004_kani=true&JigyosyoCd=1070401672-00&ServiceCd=510&Type=search" }, "geometry": { "type": "Point", "coordinates": [ 139.161018600000034, 36.3214704 ] } },
{ "type": "Feature", "properties": { "内容": "特別養護老人ホーム　小泉の杜【介護老人福祉施設】群馬県伊勢崎市田部井町3丁目2017-2", "url2": "https://www.kaigokensaku.mhlw.go.jp/10/index.php?action_kouhyou_detail_004_kani=true&JigyosyoCd=1070403413-00&ServiceCd=510&Type=search" }, "geometry": { "type": "Point", "coordinates": [ 139.261109199999964, 36.3503724 ] } },
{ "type": "Feature", "properties": { "内容": "特別養護老人ホーム恵風荘【介護老人福祉施設】群馬県伊勢崎市韮塚町８４８－１", "url2": "https://www.kaigokensaku.mhlw.go.jp/10/index.php?action_kouhyou_detail_004_kani=true&JigyosyoCd=1070400203-00&ServiceCd=510&Type=search" }, "geometry": { "type": "Point", "coordinates": [ 139.166957700000012, 36.3060165 ] } },
{ "type": "Feature", "properties": { "内容": "ことぶきの郷【介護老人福祉施設】群馬県伊勢崎市波志江町１９７６番地５", "url2": "https://www.kaigokensaku.mhlw.go.jp/10/index.php?action_kouhyou_detail_004_kani=true&JigyosyoCd=1070400039-00&ServiceCd=510&Type=search" }, "geometry": { "type": "Point", "coordinates": [ 139.187667, 36.3473486 ] } },
{ "type": "Feature", "properties": { "内容": "ゆたか【介護老人福祉施設】群馬県伊勢崎市馬見塚町1196-1", "url2": "https://www.kaigokensaku.mhlw.go.jp/10/index.php?action_kouhyou_detail_004_kani=true&JigyosyoCd=1070400054-00&ServiceCd=510&Type=search" }, "geometry": { "type": "Point", "coordinates": [ 139.211992199999941, 36.2727246 ] } },
{ "type": "Feature", "properties": { "内容": "特別養護老人ホーム　ロータスヴィレッジ【介護老人福祉施設】群馬県伊勢崎市豊城町2780-2", "url2": "https://www.kaigokensaku.mhlw.go.jp/10/index.php?action_kouhyou_detail_004_kani=true&JigyosyoCd=1070400211-00&ServiceCd=510&Type=search" }, "geometry": { "type": "Point", "coordinates": [ 139.222293600000057, 36.3400197 ] } },
{ "type": "Feature", "properties": { "内容": "特別養護老人ホーム　ローズヒル（ユニット型）【介護老人福祉施設】群馬県伊勢崎市北千木町1126", "url2": "https://www.kaigokensaku.mhlw.go.jp/10/index.php?action_kouhyou_detail_004_kani=true&JigyosyoCd=1070403371-00&ServiceCd=510&Type=search" }, "geometry": { "type": "Point", "coordinates": [ 139.219742200000042, 36.306779 ] } },
{ "type": "Feature", "properties": { "内容": "特別養護老人ホーム　ローズヒル【介護老人福祉施設】群馬県伊勢崎市北千木町１１２６", "url2": "https://www.kaigokensaku.mhlw.go.jp/10/index.php?action_kouhyou_detail_004_kani=true&JigyosyoCd=1070400583-00&ServiceCd=510&Type=search" }, "geometry": { "type": "Point", "coordinates": [ 139.219742200000042, 36.306779 ] } },
{ "type": "Feature", "properties": { "内容": "特別養護老人ホームなごみ【介護老人福祉施設】群馬県伊勢崎市本関町1216-1", "url2": "https://www.kaigokensaku.mhlw.go.jp/10/index.php?action_kouhyou_detail_004_kani=true&JigyosyoCd=1070402456-00&ServiceCd=510&Type=search" }, "geometry": { "type": "Point", "coordinates": [ 139.211733500000037, 36.3494269 ] } },
{ "type": "Feature", "properties": { "内容": "特別養護老人ホーム　清和荘(ユニット型)【介護老人福祉施設】群馬県太田市亀岡町280", "url2": "https://www.kaigokensaku.mhlw.go.jp/10/index.php?action_kouhyou_detail_004_kani=true&JigyosyoCd=1070502818-00&ServiceCd=510&Type=search" }, "geometry": { "type": "Point", "coordinates": [ 139.318168600000035, 36.2552251 ] } },
{ "type": "Feature", "properties": { "内容": "特別養護老人ホーム　清和荘【介護老人福祉施設】群馬県太田市亀岡町280番地", "url2": "https://www.kaigokensaku.mhlw.go.jp/10/index.php?action_kouhyou_detail_004_kani=true&JigyosyoCd=1072900127-00&ServiceCd=510&Type=search" }, "geometry": { "type": "Point", "coordinates": [ 139.318168600000035, 36.2552251 ] } },
{ "type": "Feature", "properties": { "内容": "特別養護老人ホーム　みづほの里【介護老人福祉施設】群馬県太田市牛沢町156-1", "url2": "https://www.kaigokensaku.mhlw.go.jp/10/index.php?action_kouhyou_detail_004_kani=true&JigyosyoCd=1070500291-00&ServiceCd=510&Type=search" }, "geometry": { "type": "Point", "coordinates": [ 139.358120399999962, 36.2620196 ] } },
{ "type": "Feature", "properties": { "内容": "社会福祉法人至誠会特別養護老人ホーム清風園【介護老人福祉施設】群馬県太田市熊野町38-81", "url2": "https://www.kaigokensaku.mhlw.go.jp/10/index.php?action_kouhyou_detail_004_kani=true&JigyosyoCd=1070500051-00&ServiceCd=510&Type=search" }, "geometry": { "type": "Point", "coordinates": [ 139.384645142466752, 36.307543305779411 ] } },
{ "type": "Feature", "properties": { "内容": "特別養護老人ホーム八瀬川の里【介護老人福祉施設】群馬県太田市高林北町1185", "url2": "https://www.kaigokensaku.mhlw.go.jp/10/index.php?action_kouhyou_detail_004_kani=true&JigyosyoCd=1070500184-00&ServiceCd=510&Type=search" }, "geometry": { "type": "Point", "coordinates": [ 139.37136380000004, 36.2630417 ] } },
{ "type": "Feature", "properties": { "内容": "特別養護老人ホーム　ユニットにらがわの里【介護老人福祉施設】群馬県太田市上小林町1465-1", "url2": "https://www.kaigokensaku.mhlw.go.jp/10/index.php?action_kouhyou_detail_004_kani=true&JigyosyoCd=1070502354-00&ServiceCd=510&Type=search" }, "geometry": { "type": "Point", "coordinates": [ 139.398549, 36.3152394 ] } },
{ "type": "Feature", "properties": { "内容": "特別養護老人ホーム　にらがわの里【介護老人福祉施設】群馬県太田市上小林町1465-1", "url2": "https://www.kaigokensaku.mhlw.go.jp/10/index.php?action_kouhyou_detail_004_kani=true&JigyosyoCd=1070500283-00&ServiceCd=510&Type=search" }, "geometry": { "type": "Point", "coordinates": [ 139.398549, 36.3152394 ] } },
{ "type": "Feature", "properties": { "内容": "特別養護老人ホーム　さくらの里【介護老人福祉施設】群馬県太田市上田島町185番地1", "url2": "https://www.kaigokensaku.mhlw.go.jp/10/index.php?action_kouhyou_detail_004_kani=true&JigyosyoCd=1070502750-00&ServiceCd=510&Type=search" }, "geometry": { "type": "Point", "coordinates": [ 139.32752765872192, 36.276597727045761 ] } },
{ "type": "Feature", "properties": { "内容": "特別養護老人ホーム　愛の里にった(ユニット型）【介護老人福祉施設】群馬県太田市新田市野井町145-1", "url2": "https://www.kaigokensaku.mhlw.go.jp/10/index.php?action_kouhyou_detail_004_kani=true&JigyosyoCd=1070502172-00&ServiceCd=510&Type=search" }, "geometry": { "type": "Point", "coordinates": [ 139.310830900000042, 36.317388 ] } },
{ "type": "Feature", "properties": { "内容": "特別養護老人ホーム　愛の里にった【介護老人福祉施設】群馬県太田市新田市野井町145-1", "url2": "https://www.kaigokensaku.mhlw.go.jp/10/index.php?action_kouhyou_detail_004_kani=true&JigyosyoCd=1070501679-00&ServiceCd=510&Type=search" }, "geometry": { "type": "Point", "coordinates": [ 139.310830900000042, 36.317388 ] } },
{ "type": "Feature", "properties": { "内容": "特別養護老人ホーム　愛光園【介護老人福祉施設】群馬県太田市新田上江田町1513-1", "url2": "https://www.kaigokensaku.mhlw.go.jp/10/index.php?action_kouhyou_detail_004_kani=true&JigyosyoCd=1072900143-00&ServiceCd=510&Type=search" }, "geometry": { "type": "Point", "coordinates": [ 139.285048299999971, 36.3016918 ] } },
{ "type": "Feature", "properties": { "内容": "特別養護老人ホームささら子の里【介護老人福祉施設】群馬県太田市新田赤堀町128-1", "url2": "https://www.kaigokensaku.mhlw.go.jp/10/index.php?action_kouhyou_detail_004_kani=true&JigyosyoCd=1070503311-00&ServiceCd=510&Type=search" }, "geometry": { "type": "Point", "coordinates": [ 139.300921799999969, 36.2978287 ] } },
{ "type": "Feature", "properties": { "内容": "特別養護老人ホーム　きざきの郷令和荘【介護老人福祉施設】群馬県太田市新田中江田町58-1", "url2": "https://www.kaigokensaku.mhlw.go.jp/10/index.php?action_kouhyou_detail_004_kani=true&JigyosyoCd=1070503683-00&ServiceCd=510&Type=search" }, "geometry": { "type": "Point", "coordinates": [ 139.300790799999987, 36.2741223 ] } },
{ "type": "Feature", "properties": { "内容": "特別養護老人ホーム　きざきの郷【介護老人福祉施設】群馬県太田市新田中江田町58－1", "url2": "https://www.kaigokensaku.mhlw.go.jp/10/index.php?action_kouhyou_detail_004_kani=true&JigyosyoCd=1070502719-00&ServiceCd=510&Type=search" }, "geometry": { "type": "Point", "coordinates": [ 139.299808699999971, 36.2742479 ] } },
{ "type": "Feature", "properties": { "内容": "特別養護老人ホーム　鶴生田園【介護老人福祉施設】群馬県太田市鶴生田町　1970-53", "url2": "https://www.kaigokensaku.mhlw.go.jp/10/index.php?action_kouhyou_detail_004_kani=true&JigyosyoCd=1070500275-00&ServiceCd=510&Type=search" }, "geometry": { "type": "Point", "coordinates": [ 139.364390500000013, 36.32306 ] } },
{ "type": "Feature", "properties": { "内容": "特別養護老人ホームこまくさ【介護老人福祉施設】群馬県太田市藤阿久町３６０－１", "url2": "https://www.kaigokensaku.mhlw.go.jp/10/index.php?action_kouhyou_detail_004_kani=true&JigyosyoCd=1070501109-00&ServiceCd=510&Type=search" }, "geometry": { "type": "Point", "coordinates": [ 139.360502399999973, 36.2863836 ] } },
{ "type": "Feature", "properties": { "内容": "特別養護老人ホーム　ゆらの里にこにこホーム【介護老人福祉施設】群馬県太田市由良町104-1", "url2": "https://www.kaigokensaku.mhlw.go.jp/10/index.php?action_kouhyou_detail_004_kani=true&JigyosyoCd=1070503675-00&ServiceCd=510&Type=search" }, "geometry": { "type": "Point", "coordinates": [ 139.350437859422527, 36.286220633714002 ] } },
{ "type": "Feature", "properties": { "内容": "特別養護老人ホーム高原園【介護老人福祉施設】群馬県太田市龍舞町410番地2", "url2": "https://www.kaigokensaku.mhlw.go.jp/10/index.php?action_kouhyou_detail_004_kani=true&JigyosyoCd=1070503352-00&ServiceCd=510&Type=search" }, "geometry": { "type": "Point", "coordinates": [ 139.424576142860786, 36.274963066498543 ] } },
{ "type": "Feature", "properties": { "内容": "特別養護老人ホーム　親孝行の里【介護老人福祉施設】群馬県太田市藪塚町３９２２", "url2": "https://www.kaigokensaku.mhlw.go.jp/10/index.php?action_kouhyou_detail_004_kani=true&JigyosyoCd=1072900549-00&ServiceCd=510&Type=search" }, "geometry": { "type": "Point", "coordinates": [ 139.3120401, 36.3764183 ] } },
{ "type": "Feature", "properties": { "内容": "特別養護老人ホームききょうの里【介護老人福祉施設】群馬県沼田市横塚町９５７番地２", "url2": "https://www.kaigokensaku.mhlw.go.jp/10/index.php?action_kouhyou_detail_004_kani=true&JigyosyoCd=1070600083-00&ServiceCd=510&Type=search" }, "geometry": { "type": "Point", "coordinates": [ 139.100255, 36.6712937 ] } },
{ "type": "Feature", "properties": { "内容": "特別養護老人ホームくやはら【介護老人福祉施設】群馬県沼田市久屋原町４１４番地１", "url2": "https://www.kaigokensaku.mhlw.go.jp/10/index.php?action_kouhyou_detail_004_kani=true&JigyosyoCd=1070600729-00&ServiceCd=510&Type=search" }, "geometry": { "type": "Point", "coordinates": [ 139.107598899999971, 36.666211 ] } },
{ "type": "Feature", "properties": { "内容": "特別養護老人ホームまごころ【介護老人福祉施設】群馬県沼田市戸鹿野町375‐1", "url2": "https://www.kaigokensaku.mhlw.go.jp/10/index.php?action_kouhyou_detail_004_kani=true&JigyosyoCd=1070601149-00&ServiceCd=510&Type=search" }, "geometry": { "type": "Point", "coordinates": [ 139.03697379999997, 36.6337666 ] } },
{ "type": "Feature", "properties": { "内容": "特別養護老人ホームとね虹の里【介護老人福祉施設】群馬県沼田市東原新町1855番地1", "url2": "https://www.kaigokensaku.mhlw.go.jp/10/index.php?action_kouhyou_detail_004_kani=true&JigyosyoCd=1070601065-00&ServiceCd=510&Type=search" }, "geometry": { "type": "Point", "coordinates": [ 139.053717099999972, 36.6481397 ] } },
{ "type": "Feature", "properties": { "内容": "特別養護老人ホーム　ヴィレージュ【介護老人福祉施設】群馬県館林市岡野町３３５－１", "url2": "https://www.kaigokensaku.mhlw.go.jp/10/index.php?action_kouhyou_detail_004_kani=true&JigyosyoCd=1070700123-00&ServiceCd=510&Type=search" }, "geometry": { "type": "Point", "coordinates": [ 139.520583, 36.2616008 ] } },
{ "type": "Feature", "properties": { "内容": "特別養護老人ホーム東毛光生園【介護老人福祉施設】群馬県館林市成島町862-4", "url2": "https://www.kaigokensaku.mhlw.go.jp/10/index.php?action_kouhyou_detail_004_kani=true&JigyosyoCd=1070700032-00&ServiceCd=510&Type=search" }, "geometry": { "type": "Point", "coordinates": [ 139.498860400000012, 36.2478574 ] } },
{ "type": "Feature", "properties": { "内容": "特別養護老人ホーム　赤羽の郷【介護老人福祉施設】群馬県館林市赤生田町648-9", "url2": "https://www.kaigokensaku.mhlw.go.jp/10/index.php?action_kouhyou_detail_004_kani=true&JigyosyoCd=1070700602-00&ServiceCd=510&Type=search" }, "geometry": { "type": "Point", "coordinates": [ 139.564967946032681, 36.227604903433409 ] } },
{ "type": "Feature", "properties": { "内容": "特別養護老人ホームあざみ荘【介護老人福祉施設】群馬県館林市大手町8-25", "url2": "https://www.kaigokensaku.mhlw.go.jp/10/index.php?action_kouhyou_detail_004_kani=true&JigyosyoCd=1070701287-00&ServiceCd=510&Type=search" }, "geometry": { "type": "Point", "coordinates": [ 139.537487599999963, 36.2478867 ] } },
{ "type": "Feature", "properties": { "内容": "クローバー荘【介護老人福祉施設】群馬県館林市田谷町１１８７－１", "url2": "https://www.kaigokensaku.mhlw.go.jp/10/index.php?action_kouhyou_detail_004_kani=true&JigyosyoCd=1070700016-00&ServiceCd=510&Type=search" }, "geometry": { "type": "Point", "coordinates": [ 139.5785899, 36.2579698 ] } },
{ "type": "Feature", "properties": { "内容": "特別養護老人ホームふれあす【介護老人福祉施設】群馬県館林市苗木町2578番地の3", "url2": "https://www.kaigokensaku.mhlw.go.jp/10/index.php?action_kouhyou_detail_004_kani=true&JigyosyoCd=1070701436-00&ServiceCd=510&Type=search" }, "geometry": { "type": "Point", "coordinates": [ 139.496865441525273, 36.231166192317673 ] } },
{ "type": "Feature", "properties": { "内容": "特別養護老人ホームかない苑【介護老人福祉施設】群馬県渋川市金井２２１２番地１", "url2": "https://www.kaigokensaku.mhlw.go.jp/10/index.php?action_kouhyou_detail_004_kani=true&JigyosyoCd=1070800154-00&ServiceCd=510&Type=search" }, "geometry": { "type": "Point", "coordinates": [ 138.9867097, 36.5163648 ] } },
{ "type": "Feature", "properties": { "内容": "特別養護老人ホーム　ひかりの里【介護老人福祉施設】群馬県渋川市渋川２２１６－１", "url2": "https://www.kaigokensaku.mhlw.go.jp/10/index.php?action_kouhyou_detail_004_kani=true&JigyosyoCd=1070800568-00&ServiceCd=510&Type=search" }, "geometry": { "type": "Point", "coordinates": [ 138.998798099999931, 36.4975809 ] } },
{ "type": "Feature", "properties": { "内容": "特別養護老人ホーム　カナン【介護老人福祉施設】群馬県渋川市渋川3653-1", "url2": "https://www.kaigokensaku.mhlw.go.jp/10/index.php?action_kouhyou_detail_004_kani=true&JigyosyoCd=1070801277-00&ServiceCd=510&Type=search" }, "geometry": { "type": "Point", "coordinates": [ 138.951678984130922, 36.493062361519534 ] } },
{ "type": "Feature", "properties": { "内容": "小野子ヒルズ【介護老人福祉施設】群馬県渋川市小野子３６１５－１", "url2": "https://www.kaigokensaku.mhlw.go.jp/10/index.php?action_kouhyou_detail_004_kani=true&JigyosyoCd=1070801178-00&ServiceCd=510&Type=search" }, "geometry": { "type": "Point", "coordinates": [ 138.972233808195483, 36.573570273394466 ] } },
{ "type": "Feature", "properties": { "内容": "特別養護老人ホーム清流の郷【介護老人福祉施設】群馬県渋川市赤城町敷島４４－１", "url2": "https://www.kaigokensaku.mhlw.go.jp/10/index.php?action_kouhyou_detail_004_kani=true&JigyosyoCd=1070800543-00&ServiceCd=510&Type=search" }, "geometry": { "type": "Point", "coordinates": [ 139.029870956483506, 36.535111120536577 ] } },
{ "type": "Feature", "properties": { "内容": "特別養護老人ホーム　春日園【介護老人福祉施設】群馬県渋川市中郷２３９９－７", "url2": "https://www.kaigokensaku.mhlw.go.jp/10/index.php?action_kouhyou_detail_004_kani=true&JigyosyoCd=1072200031-00&ServiceCd=510&Type=search" }, "geometry": { "type": "Point", "coordinates": [ 139.009404300000028, 36.5378574 ] } },
{ "type": "Feature", "properties": { "内容": "特別養護老人ホーム永光荘【介護老人福祉施設】群馬県渋川市半田７８５－５", "url2": "https://www.kaigokensaku.mhlw.go.jp/10/index.php?action_kouhyou_detail_004_kani=true&JigyosyoCd=1070800055-00&ServiceCd=510&Type=search" }, "geometry": { "type": "Point", "coordinates": [ 139.0204893, 36.4590134 ] } },
{ "type": "Feature", "properties": { "内容": "特別養護老人ホーム　ねむの丘【介護老人福祉施設】群馬県渋川市北橘町八崎２３６５番地１", "url2": "https://www.kaigokensaku.mhlw.go.jp/10/index.php?action_kouhyou_detail_004_kani=true&JigyosyoCd=1072000258-00&ServiceCd=510&Type=search" }, "geometry": { "type": "Point", "coordinates": [ 139.040105600000061, 36.4945318 ] } },
{ "type": "Feature", "properties": { "内容": "特別養護老人ホームねむの丘（ユニット型）【介護老人福祉施設】群馬県渋川市北橘町八崎２３６５番地1", "url2": "https://www.kaigokensaku.mhlw.go.jp/10/index.php?action_kouhyou_detail_004_kani=true&JigyosyoCd=1070801111-00&ServiceCd=510&Type=search" }, "geometry": { "type": "Point", "coordinates": [ 139.040105600000061, 36.4945318 ] } },
{ "type": "Feature", "properties": { "内容": "特別養護老人ホーム　つどい（ユニット型）【介護老人福祉施設】群馬県藤岡市岡之郷8番地1", "url2": "https://www.kaigokensaku.mhlw.go.jp/10/index.php?action_kouhyou_detail_004_kani=true&JigyosyoCd=1070901150-00&ServiceCd=510&Type=search" }, "geometry": { "type": "Point", "coordinates": [ 139.08786740000005, 36.2746475 ] } },
{ "type": "Feature", "properties": { "内容": "社会福祉法人伸和会つどい（岡の郷）【介護老人福祉施設】群馬県藤岡市岡之郷１２番地４", "url2": "https://www.kaigokensaku.mhlw.go.jp/10/index.php?action_kouhyou_detail_004_kani=true&JigyosyoCd=1070900053-00&ServiceCd=510&Type=search" }, "geometry": { "type": "Point", "coordinates": [ 139.088325700000041, 36.2743531 ] } },
{ "type": "Feature", "properties": { "内容": "特別養護老人ホーム　ライフゆうかり【介護老人福祉施設】群馬県藤岡市小林975-1", "url2": "https://www.kaigokensaku.mhlw.go.jp/10/index.php?action_kouhyou_detail_004_kani=true&JigyosyoCd=1070901192-00&ServiceCd=510&Type=search" }, "geometry": { "type": "Point", "coordinates": [ 139.091249488430577, 36.237325918903593 ] } },
{ "type": "Feature", "properties": { "内容": "御嶽特別養護老人ホーム【介護老人福祉施設】群馬県藤岡市浄法寺１８８１－６", "url2": "https://www.kaigokensaku.mhlw.go.jp/10/index.php?action_kouhyou_detail_004_kani=true&JigyosyoCd=1072300088-00&ServiceCd=510&Type=search" }, "geometry": { "type": "Point", "coordinates": [ 139.049604, 36.1879566 ] } },
{ "type": "Feature", "properties": { "内容": "特別養護老人ホーム　ふじの里【介護老人福祉施設】群馬県藤岡市中大塚880番地特別養護老人ホーム　ふじの里", "url2": "https://www.kaigokensaku.mhlw.go.jp/10/index.php?action_kouhyou_detail_004_kani=true&JigyosyoCd=1070900046-00&ServiceCd=510&Type=search" }, "geometry": { "type": "Point", "coordinates": [ 139.051988299999948, 36.246808 ] } },
{ "type": "Feature", "properties": { "内容": "特別養護老人ホーム　真ほろば【介護老人福祉施設】群馬県藤岡市藤岡1019-2", "url2": "https://www.kaigokensaku.mhlw.go.jp/10/index.php?action_kouhyou_detail_004_kani=true&JigyosyoCd=1070900509-00&ServiceCd=510&Type=search" }, "geometry": { "type": "Point", "coordinates": [ 139.068281, 36.2550684 ] } },
{ "type": "Feature", "properties": { "内容": "特別養護老人ホーム音和の園【介護老人福祉施設】群馬県藤岡市藤岡２８７４-２", "url2": "https://www.kaigokensaku.mhlw.go.jp/10/index.php?action_kouhyou_detail_004_kani=true&JigyosyoCd=1070900061-00&ServiceCd=510&Type=search" }, "geometry": { "type": "Point", "coordinates": [ 139.058679699999971, 36.2236164 ] } },
{ "type": "Feature", "properties": { "内容": "特別養護老人ホーム　鏑泉苑【介護老人福祉施設】群馬県富岡市下高瀬724番地", "url2": "https://www.kaigokensaku.mhlw.go.jp/10/index.php?action_kouhyou_detail_004_kani=true&JigyosyoCd=1071000077-00&ServiceCd=510&Type=search" }, "geometry": { "type": "Point", "coordinates": [ 138.886503, 36.2421844 ] } },
{ "type": "Feature", "properties": { "内容": "特別養護老人ホームふれあいホーム【介護老人福祉施設】群馬県富岡市黒川1380", "url2": "https://www.kaigokensaku.mhlw.go.jp/10/index.php?action_kouhyou_detail_004_kani=true&JigyosyoCd=1071000192-00&ServiceCd=510&Type=search" }, "geometry": { "type": "Point", "coordinates": [ 138.879610400000047, 36.2682868 ] } },
{ "type": "Feature", "properties": { "内容": "社会福祉法人　大桐会　天の間園【介護老人福祉施設】群馬県富岡市上高瀬1390", "url2": "https://www.kaigokensaku.mhlw.go.jp/10/index.php?action_kouhyou_detail_004_kani=true&JigyosyoCd=1071000101-00&ServiceCd=510&Type=search" }, "geometry": { "type": "Point", "coordinates": [ 138.873402344336, 36.246876236579681 ] } },
{ "type": "Feature", "properties": { "内容": "特別養護老人ホーム　あまてらす（従来型）【介護老人福祉施設】群馬県富岡市相野田660番地1", "url2": "https://www.kaigokensaku.mhlw.go.jp/10/index.php?action_kouhyou_detail_004_kani=true&JigyosyoCd=1071000952-00&ServiceCd=510&Type=search" }, "geometry": { "type": "Point", "coordinates": [ 138.92246974365537, 36.288006372003792 ] } },
{ "type": "Feature", "properties": { "内容": "特別養護老人ホーム　あまてらす（ユニット型）【介護老人福祉施設】群馬県富岡市相野田660番地1", "url2": "https://www.kaigokensaku.mhlw.go.jp/10/index.php?action_kouhyou_detail_004_kani=true&JigyosyoCd=1071000960-00&ServiceCd=510&Type=search" }, "geometry": { "type": "Point", "coordinates": [ 138.921858199999974, 36.2879934 ] } },
{ "type": "Feature", "properties": { "内容": "特別養護老人ホーム妙義するすみ【介護老人福祉施設】群馬県富岡市妙義町下高田1887番地1特別養護老人ホーム妙義するすみ", "url2": "https://www.kaigokensaku.mhlw.go.jp/10/index.php?action_kouhyou_detail_004_kani=true&JigyosyoCd=1071000911-00&ServiceCd=510&Type=search" }, "geometry": { "type": "Point", "coordinates": [ 138.825403797719218, 36.282017427522391 ] } },
{ "type": "Feature", "properties": { "内容": "特別養護老人ホーム妙義【介護老人福祉施設】群馬県富岡市妙義町下高田1888-1", "url2": "https://www.kaigokensaku.mhlw.go.jp/10/index.php?action_kouhyou_detail_004_kani=true&JigyosyoCd=1071000846-00&ServiceCd=510&Type=search" }, "geometry": { "type": "Point", "coordinates": [ 138.8259703, 36.2816769 ] } },
{ "type": "Feature", "properties": { "内容": "特別養護老人ホーム　なゆた【介護老人福祉施設】群馬県安中市鷺宮北上平３８９", "url2": "https://www.kaigokensaku.mhlw.go.jp/10/index.php?action_kouhyou_detail_004_kani=true&JigyosyoCd=1071100240-00&ServiceCd=510&Type=search" }, "geometry": { "type": "Point", "coordinates": [ 138.894021599999974, 36.3053529 ] } },
{ "type": "Feature", "properties": { "内容": "特別養護老人ホームうすいの里【介護老人福祉施設】群馬県安中市松井田町高梨子1491-1", "url2": "https://www.kaigokensaku.mhlw.go.jp/10/index.php?action_kouhyou_detail_004_kani=true&JigyosyoCd=1072500067-00&ServiceCd=510&Type=search" }, "geometry": { "type": "Point", "coordinates": [ 138.795482, 36.3298489 ] } },
{ "type": "Feature", "properties": { "内容": "特別養護老人ホーム「楽聚」【介護老人福祉施設】群馬県安中市松井田町二軒在家776番地1", "url2": "https://www.kaigokensaku.mhlw.go.jp/10/index.php?action_kouhyou_detail_004_kani=true&JigyosyoCd=1071100786-00&ServiceCd=510&Type=search" }, "geometry": { "type": "Point", "coordinates": [ 138.814654920679857, 36.302347665788737 ] } },
{ "type": "Feature", "properties": { "内容": "特別養護老人ホーム「楽聚」ユニット型【介護老人福祉施設】安中市松井田町二軒在家776番地1", "url2": "https://www.kaigokensaku.mhlw.go.jp/10/index.php?action_kouhyou_detail_004_kani=true&JigyosyoCd=1071100794-00&ServiceCd=510&Type=search" }, "geometry": { "type": "Point", "coordinates": [ 138.814652379762265, 36.302359716030047 ] } },
{ "type": "Feature", "properties": { "内容": "特別養護老人ホームセラヴィ【介護老人福祉施設】群馬県安中市板鼻一丁目5番15号", "url2": "https://www.kaigokensaku.mhlw.go.jp/10/index.php?action_kouhyou_detail_004_kani=true&JigyosyoCd=1071100596-00&ServiceCd=510&Type=search" }, "geometry": { "type": "Point", "coordinates": [ 138.930705200000034, 36.3368708 ] } },
{ "type": "Feature", "properties": { "内容": "特別養護老人ホームのどの荘【介護老人福祉施設】群馬県安中市野殿1599-1", "url2": "https://www.kaigokensaku.mhlw.go.jp/10/index.php?action_kouhyou_detail_004_kani=true&JigyosyoCd=1071100075-00&ServiceCd=510&Type=search" }, "geometry": { "type": "Point", "coordinates": [ 138.91476590000002, 36.3190715 ] } },
{ "type": "Feature", "properties": { "内容": "特別養護老人ホーム明嶺荘【介護老人福祉施設】群馬県安中市嶺２４０", "url2": "https://www.kaigokensaku.mhlw.go.jp/10/index.php?action_kouhyou_detail_004_kani=true&JigyosyoCd=1071100042-00&ServiceCd=510&Type=search" }, "geometry": { "type": "Point", "coordinates": [ 138.849919, 36.3188618 ] } },
{ "type": "Feature", "properties": { "内容": "特別養護老人ホームかさかけの里(ユニット型）【介護老人福祉施設】群馬県みどり市笠懸町鹿３０３３番１かさかけの里(ユニット棟）", "url2": "https://www.kaigokensaku.mhlw.go.jp/10/index.php?action_kouhyou_detail_004_kani=true&JigyosyoCd=1071200701-00&ServiceCd=510&Type=search" }, "geometry": { "type": "Point", "coordinates": [ 139.277927885983217, 36.397481331126897 ] } },
{ "type": "Feature", "properties": { "内容": "かさかけの里【介護老人福祉施設】群馬県みどり市笠懸町鹿３０３３－１", "url2": "https://www.kaigokensaku.mhlw.go.jp/10/index.php?action_kouhyou_detail_004_kani=true&JigyosyoCd=1072900077-00&ServiceCd=510&Type=search" }, "geometry": { "type": "Point", "coordinates": [ 139.277337799999941, 36.397546100000014 ] } },
{ "type": "Feature", "properties": { "内容": "特別養護老人ホームサニーヒル【介護老人福祉施設】群馬県みどり市大間々町桐原１４７６－１", "url2": "https://www.kaigokensaku.mhlw.go.jp/10/index.php?action_kouhyou_detail_004_kani=true&JigyosyoCd=1073000075-00&ServiceCd=510&Type=search" }, "geometry": { "type": "Point", "coordinates": [ 139.2636824, 36.437633 ] } },
{ "type": "Feature", "properties": { "内容": "特別養護老人ホームながめの郷（従来型養護老人ホームながめの郷）【介護老人福祉施設】群馬県みどり市大間々町桐原1511番地1", "url2": "https://www.kaigokensaku.mhlw.go.jp/10/index.php?action_kouhyou_detail_004_kani=true&JigyosyoCd=1071200719-00&ServiceCd=510&Type=search" }, "geometry": { "type": "Point", "coordinates": [ 139.274672968956025, 36.445900992281501 ] } },
{ "type": "Feature", "properties": { "内容": "特別養護老人ホームながめの郷（ユニット型特別養護老人ホームながめの郷）【介護老人福祉施設】群馬県みどり市大間々町桐原1511番地1", "url2": "https://www.kaigokensaku.mhlw.go.jp/10/index.php?action_kouhyou_detail_004_kani=true&JigyosyoCd=1071200727-00&ServiceCd=510&Type=search" }, "geometry": { "type": "Point", "coordinates": [ 139.274624689193757, 36.445836263726754 ] } },
{ "type": "Feature", "properties": { "内容": "特別養護老人ホームしんとう苑【介護老人福祉施設】群馬県北群馬郡榛東村広馬場1797-1", "url2": "https://www.kaigokensaku.mhlw.go.jp/10/index.php?action_kouhyou_detail_004_kani=true&JigyosyoCd=1072200288-00&ServiceCd=510&Type=search" }, "geometry": { "type": "Point", "coordinates": [ 138.966096200000038, 36.4200497 ] } },
{ "type": "Feature", "properties": { "内容": "特別養護老人ホーム　船尾苑【介護老人福祉施設】群馬県北群馬郡吉岡町大字上野田２１３５番地", "url2": "https://www.kaigokensaku.mhlw.go.jp/10/index.php?action_kouhyou_detail_004_kani=true&JigyosyoCd=1072200106-00&ServiceCd=510&Type=search" }, "geometry": { "type": "Point", "coordinates": [ 138.9669053, 36.4687384 ] } },
{ "type": "Feature", "properties": { "内容": "特別養護老人ホームシェステやまの花【介護老人福祉施設】群馬県多野郡神流町大字万場２０７", "url2": "https://www.kaigokensaku.mhlw.go.jp/10/index.php?action_kouhyou_detail_004_kani=true&JigyosyoCd=1072300112-00&ServiceCd=510&Type=search" }, "geometry": { "type": "Point", "coordinates": [ 138.915208300000018, 36.1181303 ] } },
{ "type": "Feature", "properties": { "内容": "特別養護老人ホーム　かぶらの里（ユニット型）【介護老人福祉施設】群馬県甘楽郡下仁田町大字下小坂８７７", "url2": "https://www.kaigokensaku.mhlw.go.jp/10/index.php?action_kouhyou_detail_004_kani=true&JigyosyoCd=1072400532-00&ServiceCd=510&Type=search" }, "geometry": { "type": "Point", "coordinates": [ 138.759340400000042, 36.2286876 ] } },
{ "type": "Feature", "properties": { "内容": "特別養護老人ホーム　かぶらの里【介護老人福祉施設】群馬県甘楽郡下仁田町大字下小坂８７７", "url2": "https://www.kaigokensaku.mhlw.go.jp/10/index.php?action_kouhyou_detail_004_kani=true&JigyosyoCd=1072400201-00&ServiceCd=510&Type=search" }, "geometry": { "type": "Point", "coordinates": [ 138.759340400000042, 36.2286876 ] } },
{ "type": "Feature", "properties": { "内容": "さわやかホーム【介護老人福祉施設】群馬県甘楽郡南牧村大字大日向９２６", "url2": "https://www.kaigokensaku.mhlw.go.jp/10/index.php?action_kouhyou_detail_004_kani=true&JigyosyoCd=1072400060-00&ServiceCd=510&Type=search" }, "geometry": { "type": "Point", "coordinates": [ 138.70374860000004, 36.1576448 ] } },
{ "type": "Feature", "properties": { "内容": "特別養護老人ホーム　シルク・おばた【介護老人福祉施設】群馬県甘楽郡甘楽町大字善慶寺１３５１", "url2": "https://www.kaigokensaku.mhlw.go.jp/10/index.php?action_kouhyou_detail_004_kani=true&JigyosyoCd=1072400441-00&ServiceCd=510&Type=search" }, "geometry": { "type": "Point", "coordinates": [ 138.90802020000001, 36.2380016 ] } },
{ "type": "Feature", "properties": { "内容": "特別養護老人ホーム・シルク【介護老人福祉施設】群馬県甘楽郡甘楽町大字白倉１３８４－１", "url2": "https://www.kaigokensaku.mhlw.go.jp/10/index.php?action_kouhyou_detail_004_kani=true&JigyosyoCd=1072400110-00&ServiceCd=510&Type=search" }, "geometry": { "type": "Point", "coordinates": [ 138.934550700000045, 36.2426761 ] } },
{ "type": "Feature", "properties": { "内容": "特別養護老人ホームやまゆり荘【介護老人福祉施設】群馬県吾妻郡中之条町大字折田２５１５", "url2": "https://www.kaigokensaku.mhlw.go.jp/10/index.php?action_kouhyou_detail_004_kani=true&JigyosyoCd=1072600156-00&ServiceCd=510&Type=search" }, "geometry": { "type": "Point", "coordinates": [ 138.814107799999988, 36.6021819 ] } },
{ "type": "Feature", "properties": { "内容": "特別養護老人ホーム　サザン小川【介護老人福祉施設】群馬県吾妻郡中之条町大字中之条町714-1", "url2": "https://www.kaigokensaku.mhlw.go.jp/10/index.php?action_kouhyou_detail_004_kani=true&JigyosyoCd=1072600735-00&ServiceCd=510&Type=search" }, "geometry": { "type": "Point", "coordinates": [ 138.832481700000017, 36.5837013 ] } },
{ "type": "Feature", "properties": { "内容": "からまつ荘【介護老人福祉施設】群馬県吾妻郡長野原町大字与喜屋1624", "url2": "https://www.kaigokensaku.mhlw.go.jp/10/index.php?action_kouhyou_detail_004_kani=true&JigyosyoCd=1072600081-00&ServiceCd=510&Type=search" }, "geometry": { "type": "Point", "coordinates": [ 138.618579100000034, 36.546954 ] } },
{ "type": "Feature", "properties": { "内容": "特別養護老人ホーム　ひだまりの森白樺荘【介護老人福祉施設】群馬県　吾妻郡　嬬恋村　大字　田代　９３８－８", "url2": "https://www.kaigokensaku.mhlw.go.jp/10/index.php?action_kouhyou_detail_004_kani=true&JigyosyoCd=1072600412-00&ServiceCd=510&Type=search" }, "geometry": { "type": "Point", "coordinates": [ 138.461639099999957, 36.4843484 ] } },
{ "type": "Feature", "properties": { "内容": "東吾妻町立特別養護老人ホームいわびつ荘【介護老人福祉施設】群馬県吾妻郡東吾妻町大字原町5015番地", "url2": "https://www.kaigokensaku.mhlw.go.jp/10/index.php?action_kouhyou_detail_004_kani=true&JigyosyoCd=1072600644-00&ServiceCd=510&Type=search" }, "geometry": { "type": "Point", "coordinates": [ 138.82463, 36.5709998 ] } },
{ "type": "Feature", "properties": { "内容": "特別養護老人ホーム桜花苑【介護老人福祉施設】群馬県利根郡片品村大字摺渕340番地", "url2": "https://www.kaigokensaku.mhlw.go.jp/10/index.php?action_kouhyou_detail_004_kani=true&JigyosyoCd=1072700170-00&ServiceCd=510&Type=search" }, "geometry": { "type": "Point", "coordinates": [ 139.221508500000027, 36.7375758 ] } },
{ "type": "Feature", "properties": { "内容": "特別養護老人ホーム　川場春光園【介護老人福祉施設】群馬県利根郡川場村大字生品１８６１番地", "url2": "https://www.kaigokensaku.mhlw.go.jp/10/index.php?action_kouhyou_detail_004_kani=true&JigyosyoCd=1072700097-00&ServiceCd=510&Type=search" }, "geometry": { "type": "Point", "coordinates": [ 139.077479331877157, 36.667853095594396 ] } },
{ "type": "Feature", "properties": { "内容": "特別養護老人ホーム菜の花館【介護老人福祉施設】群馬県利根郡昭和村大字糸井１７５７－３１１", "url2": "https://www.kaigokensaku.mhlw.go.jp/10/index.php?action_kouhyou_detail_004_kani=true&JigyosyoCd=1072700568-00&ServiceCd=510&Type=search" }, "geometry": { "type": "Point", "coordinates": [ 139.077869, 36.640789 ] } },
{ "type": "Feature", "properties": { "内容": "特別養護老人ホーム　西嶺の郷【介護老人福祉施設】群馬県利根郡みなかみ町西峰須川４７２－１", "url2": "https://www.kaigokensaku.mhlw.go.jp/10/index.php?action_kouhyou_detail_004_kani=true&JigyosyoCd=1072700428-00&ServiceCd=510&Type=search" }, "geometry": { "type": "Point", "coordinates": [ 138.909780700000027, 36.6870728 ] } },
{ "type": "Feature", "properties": { "内容": "やまぶきの苑【介護老人福祉施設】群馬県利根郡みなかみ町石倉１５０－１", "url2": "https://www.kaigokensaku.mhlw.go.jp/10/index.php?action_kouhyou_detail_004_kani=true&JigyosyoCd=1072700055-00&ServiceCd=510&Type=search" }, "geometry": { "type": "Point", "coordinates": [ 138.982860800000026, 36.7410602 ] } },
{ "type": "Feature", "properties": { "内容": "特別養護老人ホームタマビレッジ【介護老人福祉施設】群馬県佐波郡玉村町上新田640-１", "url2": "https://www.kaigokensaku.mhlw.go.jp/10/index.php?action_kouhyou_detail_004_kani=true&JigyosyoCd=1072800657-00&ServiceCd=510&Type=search" }, "geometry": { "type": "Point", "coordinates": [ 139.098285, 36.3093481 ] } },
{ "type": "Feature", "properties": { "内容": "特別養護老人ホーム　にしきの園【介護老人福祉施設】群馬県佐波郡玉村町大字飯倉５９", "url2": "https://www.kaigokensaku.mhlw.go.jp/10/index.php?action_kouhyou_detail_004_kani=true&JigyosyoCd=1072800160-00&ServiceCd=510&Type=search" }, "geometry": { "type": "Point", "coordinates": [ 139.151282300000048, 36.2891288 ] } },
{ "type": "Feature", "properties": { "内容": "ミモザ荘【介護老人福祉施設】群馬県邑楽郡板倉町細谷２１７", "url2": "https://www.kaigokensaku.mhlw.go.jp/10/index.php?action_kouhyou_detail_004_kani=true&JigyosyoCd=1073100016-00&ServiceCd=510&Type=search" }, "geometry": { "type": "Point", "coordinates": [ 139.625201800000013, 36.2480335 ] } },
{ "type": "Feature", "properties": { "内容": "特別養護老人ホーム和の郷【介護老人福祉施設】群馬県邑楽郡明和町南大島２５３－１", "url2": "https://www.kaigokensaku.mhlw.go.jp/10/index.php?action_kouhyou_detail_004_kani=true&JigyosyoCd=1073100271-00&ServiceCd=510&Type=search" }, "geometry": { "type": "Point", "coordinates": [ 139.5300919, 36.2145075 ] } },
{ "type": "Feature", "properties": { "内容": "特別養護老人ホーム　みどりの風【介護老人福祉施設】群馬県邑楽郡千代田町大字瀬戸井３８６", "url2": "https://www.kaigokensaku.mhlw.go.jp/10/index.php?action_kouhyou_detail_004_kani=true&JigyosyoCd=1073100669-00&ServiceCd=510&Type=search" }, "geometry": { "type": "Point", "coordinates": [ 139.45559, 36.1991867 ] } },
{ "type": "Feature", "properties": { "内容": "ちよだＣＯＭハウス【介護老人福祉施設】群馬県邑楽郡千代田町赤岩２１１４－２", "url2": "https://www.kaigokensaku.mhlw.go.jp/10/index.php?action_kouhyou_detail_004_kani=true&JigyosyoCd=1073100040-00&ServiceCd=510&Type=search" }, "geometry": { "type": "Point", "coordinates": [ 139.448475700000017, 36.2182814 ] } },
{ "type": "Feature", "properties": { "内容": "特別養護老人ホームあいの花【介護老人福祉施設】群馬県邑楽郡大泉町吉田2392-3", "url2": "https://www.kaigokensaku.mhlw.go.jp/10/index.php?action_kouhyou_detail_004_kani=true&JigyosyoCd=1073101287-00&ServiceCd=510&Type=search" }, "geometry": { "type": "Point", "coordinates": [ 139.410615046696392, 36.244151591707833 ] } },
{ "type": "Feature", "properties": { "内容": "特別養護老人ホーム　大泉園【介護老人福祉施設】群馬県邑楽郡大泉町古海２００１", "url2": "https://www.kaigokensaku.mhlw.go.jp/10/index.php?action_kouhyou_detail_004_kani=true&JigyosyoCd=1073100115-00&ServiceCd=510&Type=search" }, "geometry": { "type": "Point", "coordinates": [ 139.414314399999967, 36.2290569 ] } },
{ "type": "Feature", "properties": { "内容": "特別養護老人ホームまがたまの里【介護老人福祉施設】群馬県邑楽郡邑楽町大字狸塚１０４０番地１", "url2": "https://www.kaigokensaku.mhlw.go.jp/10/index.php?action_kouhyou_detail_004_kani=true&JigyosyoCd=1073101204-00&ServiceCd=510&Type=search" }, "geometry": { "type": "Point", "coordinates": [ 139.46189678346704, 36.235063159693922 ] } },
{ "type": "Feature", "properties": { "内容": "特別養護老人ホーム　やまつつじ【介護老人福祉施設】群馬県邑楽郡邑楽町中野２１８－１", "url2": "https://www.kaigokensaku.mhlw.go.jp/10/index.php?action_kouhyou_detail_004_kani=true&JigyosyoCd=1073100198-00&ServiceCd=510&Type=search" }, "geometry": { "type": "Point", "coordinates": [ 139.449209, 36.2664036 ] } }
]
}
