{
"type": "FeatureCollection",
"name": "geo_10_幼稚園",
"crs": { "type": "name", "properties": { "name": "urn:ogc:def:crs:EPSG::6668" } },
"features": [
{ "type": "Feature", "properties": { "P29_001": "10201", "P29_002": "A110110000011", "P29_003": "16011", "P29_004": "群馬大学共同教育学部附属幼稚園", "P29_005": "群馬県前橋市若宮町2-5-3", "P29_006": "1", "P29_007": "0", "P29_008": "00", "P29_009": null }, "geometry": { "type": "Point", "coordinates": [ 139.073404739091274, 36.40006473477716 ] } },
{ "type": "Feature", "properties": { "P29_001": "10201", "P29_002": "A110210000019", "P29_003": "16011", "P29_004": "前橋市立まえばし幼稚園", "P29_005": "群馬県前橋市若宮町4-32-4", "P29_006": "3", "P29_007": "0", "P29_008": "00", "P29_009": null }, "geometry": { "type": "Point", "coordinates": [ 139.069851000274269, 36.407557003560328 ] } },
{ "type": "Feature", "properties": { "P29_001": "10202", "P29_002": "A110210000028", "P29_003": "16011", "P29_004": "高崎市立高崎幼稚園", "P29_005": "群馬県高崎市末広町88-1", "P29_006": "3", "P29_007": "0", "P29_008": "00", "P29_009": null }, "geometry": { "type": "Point", "coordinates": [ 139.007282002570463, 36.336382997345595 ] } },
{ "type": "Feature", "properties": { "P29_001": "10202", "P29_002": "A110210000037", "P29_003": "16011", "P29_004": "高崎市立南八幡幼稚園", "P29_005": "群馬県高崎市山名町140-1", "P29_006": "3", "P29_007": "0", "P29_008": "00", "P29_009": null }, "geometry": { "type": "Point", "coordinates": [ 139.039858208879906, 36.280963378355921 ] } },
{ "type": "Feature", "properties": { "P29_001": "10202", "P29_002": "A110210000046", "P29_003": "16011", "P29_004": "高崎市立倉賀野幼稚園", "P29_005": "群馬県高崎市倉賀野町4293-5", "P29_006": "3", "P29_007": "0", "P29_008": "00", "P29_009": null }, "geometry": { "type": "Point", "coordinates": [ 139.04366799588206, 36.301843001590569 ] } },
{ "type": "Feature", "properties": { "P29_001": "10202", "P29_002": "A110210000055", "P29_003": "16011", "P29_004": "高崎市立塚沢幼稚園", "P29_005": "群馬県高崎市飯塚町1721", "P29_006": "3", "P29_007": "0", "P29_008": "00", "P29_009": null }, "geometry": { "type": "Point", "coordinates": [ 139.012481978616421, 36.338681000905908 ] } },
{ "type": "Feature", "properties": { "P29_001": "10203", "P29_002": "A110210000064", "P29_003": "16011", "P29_004": "桐生市立西幼稚園", "P29_005": "群馬県桐生市小曽根町6-1", "P29_006": "3", "P29_007": "0", "P29_008": "00", "P29_009": null }, "geometry": { "type": "Point", "coordinates": [ 139.333643636139158, 36.415229349193169 ] } },
{ "type": "Feature", "properties": { "P29_001": "10203", "P29_002": "A110210000073", "P29_003": "16011", "P29_004": "桐生市立境野幼稚園", "P29_005": "群馬県桐生市境野町6-1616-1", "P29_006": "3", "P29_007": "0", "P29_008": "00", "P29_009": null }, "geometry": { "type": "Point", "coordinates": [ 139.35330860791305, 36.385348637821025 ] } },
{ "type": "Feature", "properties": { "P29_001": "10203", "P29_002": "A110210000082", "P29_003": "16011", "P29_004": "桐生市立広沢幼稚園", "P29_005": "群馬県桐生市広沢町4-2099", "P29_006": "3", "P29_007": "0", "P29_008": "00", "P29_009": null }, "geometry": { "type": "Point", "coordinates": [ 139.338517997412623, 36.382144998465911 ] } },
{ "type": "Feature", "properties": { "P29_001": "10203", "P29_002": "A110210000117", "P29_003": "16011", "P29_004": "桐生市立相生幼稚園", "P29_005": "群馬県桐生市相生町2-408-9", "P29_006": "3", "P29_007": "0", "P29_008": "00", "P29_009": null }, "geometry": { "type": "Point", "coordinates": [ 139.311050495464428, 36.4127886990576 ] } },
{ "type": "Feature", "properties": { "P29_001": "10203", "P29_002": "A110210000126", "P29_003": "16011", "P29_004": "桐生市立桜木幼稚園", "P29_005": "群馬県桐生市相生町1-乙394", "P29_006": "3", "P29_007": "0", "P29_008": "00", "P29_009": null }, "geometry": { "type": "Point", "coordinates": [ 139.319503995752939, 36.39776499617021 ] } },
{ "type": "Feature", "properties": { "P29_001": "10204", "P29_002": "A110210000135", "P29_003": "16011", "P29_004": "伊勢崎市立第一幼稚園", "P29_005": "群馬県伊勢崎市曲輪町24-26", "P29_006": "3", "P29_007": "0", "P29_008": "00", "P29_009": null }, "geometry": { "type": "Point", "coordinates": [ 139.191891671370541, 36.323639882294977 ] } },
{ "type": "Feature", "properties": { "P29_001": "10204", "P29_002": "A110210000144", "P29_003": "16011", "P29_004": "伊勢崎市立南幼稚園", "P29_005": "群馬県伊勢崎市上泉町116", "P29_006": "3", "P29_007": "0", "P29_008": "00", "P29_009": null }, "geometry": { "type": "Point", "coordinates": [ 139.190228003546537, 36.313779995495167 ] } },
{ "type": "Feature", "properties": { "P29_001": "10204", "P29_002": "A110210000153", "P29_003": "16011", "P29_004": "伊勢崎市立殖蓮幼稚園", "P29_005": "群馬県伊勢崎市上植木本町2740-2", "P29_006": "3", "P29_007": "0", "P29_008": "00", "P29_009": null }, "geometry": { "type": "Point", "coordinates": [ 139.210594995236249, 36.334340997386768 ] } },
{ "type": "Feature", "properties": { "P29_001": "10204", "P29_002": "A110210000162", "P29_003": "16011", "P29_004": "伊勢崎市立茂呂幼稚園", "P29_005": "群馬県伊勢崎市茂呂町2-2139-1", "P29_006": "3", "P29_007": "0", "P29_008": "00", "P29_009": null }, "geometry": { "type": "Point", "coordinates": [ 139.209640996442062, 36.304216997055335 ] } },
{ "type": "Feature", "properties": { "P29_001": "10204", "P29_002": "A110210000171", "P29_003": "16011", "P29_004": "伊勢崎市立三郷幼稚園", "P29_005": "群馬県伊勢崎市波志江町1067", "P29_006": "3", "P29_007": "0", "P29_008": "00", "P29_009": null }, "geometry": { "type": "Point", "coordinates": [ 139.183019996214341, 36.343820000860063 ] } },
{ "type": "Feature", "properties": { "P29_001": "10204", "P29_002": "A110210000180", "P29_003": "16011", "P29_004": "伊勢崎市立宮郷幼稚園", "P29_005": "群馬県伊勢崎市田中島町1486-8", "P29_006": "3", "P29_007": "0", "P29_008": "00", "P29_009": null }, "geometry": { "type": "Point", "coordinates": [ 139.163375004060725, 36.321867001479816 ] } },
{ "type": "Feature", "properties": { "P29_001": "10204", "P29_002": "A110210000199", "P29_003": "16011", "P29_004": "伊勢崎市立名和幼稚園", "P29_005": "群馬県伊勢崎市堀口町260", "P29_006": "3", "P29_007": "0", "P29_008": "00", "P29_009": null }, "geometry": { "type": "Point", "coordinates": [ 139.185025002613685, 36.29148800274325 ] } },
{ "type": "Feature", "properties": { "P29_001": "10206", "P29_002": "A110210000206", "P29_003": "16011", "P29_004": "沼田市立薄根幼稚園", "P29_005": "群馬県沼田市善桂寺町78", "P29_006": "3", "P29_007": "0", "P29_008": "00", "P29_009": null }, "geometry": { "type": "Point", "coordinates": [ 139.036796995487549, 36.665099000377204 ] } },
{ "type": "Feature", "properties": { "P29_001": "10206", "P29_002": "A110210000215", "P29_003": "16011", "P29_004": "沼田市立利南幼稚園", "P29_005": "群馬県沼田市栄町141", "P29_006": "3", "P29_007": "0", "P29_008": "00", "P29_009": null }, "geometry": { "type": "Point", "coordinates": [ 139.048665490399173, 36.633442009503206 ] } },
{ "type": "Feature", "properties": { "P29_001": "10207", "P29_002": "A110210000224", "P29_003": "16011", "P29_004": "館林市立北幼稚園", "P29_005": "群馬県館林市台宿町9-1", "P29_006": "3", "P29_007": "0", "P29_008": "00", "P29_009": null }, "geometry": { "type": "Point", "coordinates": [ 139.532270206892861, 36.254564445273999 ] } },
{ "type": "Feature", "properties": { "P29_001": "10207", "P29_002": "A110210000233", "P29_003": "16011", "P29_004": "館林市立南幼稚園", "P29_005": "群馬県館林市本町3-6-1", "P29_006": "3", "P29_007": "0", "P29_008": "00", "P29_009": null }, "geometry": { "type": "Point", "coordinates": [ 139.536791034907708, 36.244295143671948 ] } },
{ "type": "Feature", "properties": { "P29_001": "10207", "P29_002": "A110210000242", "P29_003": "16011", "P29_004": "館林市立東幼稚園", "P29_005": "群馬県館林市大島町4364-1", "P29_006": "3", "P29_007": "0", "P29_008": "00", "P29_009": null }, "geometry": { "type": "Point", "coordinates": [ 139.580964249358857, 36.262359972293218 ] } },
{ "type": "Feature", "properties": { "P29_001": "10207", "P29_002": "A110210000251", "P29_003": "16011", "P29_004": "館林市立杉並幼稚園", "P29_005": "群馬県館林市新宿2-14-18", "P29_006": "3", "P29_007": "0", "P29_008": "00", "P29_009": null }, "geometry": { "type": "Point", "coordinates": [ 139.526095154192404, 36.237507469759052 ] } },
{ "type": "Feature", "properties": { "P29_001": "10207", "P29_002": "A110210000260", "P29_003": "16011", "P29_004": "館林市立西幼稚園", "P29_005": "群馬県館林市近藤町178-273", "P29_006": "3", "P29_007": "0", "P29_008": "00", "P29_009": null }, "geometry": { "type": "Point", "coordinates": [ 139.507935389057678, 36.240396464760806 ] } },
{ "type": "Feature", "properties": { "P29_001": "10208", "P29_002": "A110210000279", "P29_003": "16011", "P29_004": "渋川市立渋川幼稚園", "P29_005": "群馬県渋川市渋川1773-1", "P29_006": "3", "P29_007": "0", "P29_008": "00", "P29_009": null }, "geometry": { "type": "Point", "coordinates": [ 139.001965598136252, 36.493196071888995 ] } },
{ "type": "Feature", "properties": { "P29_001": "10208", "P29_002": "A110210000288", "P29_003": "16011", "P29_004": "渋川市立赤城幼稚園", "P29_005": "群馬県渋川市赤城町勝保沢110-6", "P29_006": "3", "P29_007": "0", "P29_008": "00", "P29_009": null }, "geometry": { "type": "Point", "coordinates": [ 139.043850110474551, 36.520431894781318 ] } },
{ "type": "Feature", "properties": { "P29_001": "10208", "P29_002": "A110210000297", "P29_003": "16011", "P29_004": "渋川市立こもち幼稚園", "P29_005": "群馬県渋川市吹屋658-30", "P29_006": "3", "P29_007": "0", "P29_008": "00", "P29_009": null }, "geometry": { "type": "Point", "coordinates": [ 139.014412943994358, 36.515223974496784 ] } },
{ "type": "Feature", "properties": { "P29_001": "10208", "P29_002": "A110210000304", "P29_003": "16011", "P29_004": "渋川市立北橘幼稚園", "P29_005": "群馬県渋川市北橘町真壁2376-4", "P29_006": "3", "P29_007": "0", "P29_008": "00", "P29_009": null }, "geometry": { "type": "Point", "coordinates": [ 139.044996130213292, 36.480302423901158 ] } },
{ "type": "Feature", "properties": { "P29_001": "10201", "P29_002": "A110210000313", "P29_003": "16011", "P29_004": "前橋市立おおご幼稚園", "P29_005": "群馬県前橋市河原浜町491-1", "P29_006": "3", "P29_007": "0", "P29_008": "00", "P29_009": null }, "geometry": { "type": "Point", "coordinates": [ 139.163558624689472, 36.422387576718855 ] } },
{ "type": "Feature", "properties": { "P29_001": "10201", "P29_002": "A110210000322", "P29_003": "16011", "P29_004": "前橋市立宮城幼稚園", "P29_005": "群馬県前橋市鼻毛石町1503-1", "P29_006": "3", "P29_007": "0", "P29_008": "00", "P29_009": null }, "geometry": { "type": "Point", "coordinates": [ 139.178486527783292, 36.43977902565647 ] } },
{ "type": "Feature", "properties": { "P29_001": "10202", "P29_002": "A110210000331", "P29_003": "16011", "P29_004": "高崎市立くらぶちこども園", "P29_005": "群馬県高崎市倉渕町岩氷724-2", "P29_006": "3", "P29_007": "0", "P29_008": "00", "P29_009": null }, "geometry": { "type": "Point", "coordinates": [ 138.774600997585821, 36.438867004735215 ] } },
{ "type": "Feature", "properties": { "P29_001": "10208", "P29_002": "A110210000340", "P29_003": "16011", "P29_004": "渋川市立かに石こども園", "P29_005": "群馬県渋川市村上3751-1", "P29_006": "3", "P29_007": "0", "P29_008": "00", "P29_009": null }, "geometry": { "type": "Point", "coordinates": [ 138.93604076472991, 36.54776047610094 ] } },
{ "type": "Feature", "properties": { "P29_001": "10344", "P29_002": "A110210000359", "P29_003": "16011", "P29_004": "榛東村立北幼稚園", "P29_005": "群馬県北群馬郡榛東村山子田1322-1", "P29_006": "3", "P29_007": "0", "P29_008": "00", "P29_009": null }, "geometry": { "type": "Point", "coordinates": [ 138.980321517118597, 36.441579721952216 ] } },
{ "type": "Feature", "properties": { "P29_001": "10344", "P29_002": "A110210000368", "P29_003": "16011", "P29_004": "榛東村立南幼稚園", "P29_005": "群馬県北群馬郡榛東村広馬場1143-1", "P29_006": "3", "P29_007": "0", "P29_008": "00", "P29_009": null }, "geometry": { "type": "Point", "coordinates": [ 138.97468408110052, 36.427163023846575 ] } },
{ "type": "Feature", "properties": { "P29_001": "10202", "P29_002": "A110210000377", "P29_003": "16011", "P29_004": "高崎市立かぶら幼稚園", "P29_005": "群馬県高崎市吉井町小串119-1", "P29_006": "3", "P29_007": "0", "P29_008": "00", "P29_009": null }, "geometry": { "type": "Point", "coordinates": [ 139.013797809019991, 36.25654475804118 ] } },
{ "type": "Feature", "properties": { "P29_001": "10202", "P29_002": "A110210000386", "P29_003": "16011", "P29_004": "高崎市立吉井幼稚園", "P29_005": "群馬県高崎市吉井町吉井338-1", "P29_006": "3", "P29_007": "0", "P29_008": "00", "P29_009": null }, "geometry": { "type": "Point", "coordinates": [ 138.980053017959136, 36.254961240715126 ] } },
{ "type": "Feature", "properties": { "P29_001": "10202", "P29_002": "A110210000395", "P29_003": "16011", "P29_004": "高崎市立吉井西幼稚園", "P29_005": "群馬県高崎市吉井町長根1923-1", "P29_006": "3", "P29_007": "0", "P29_008": "00", "P29_009": null }, "geometry": { "type": "Point", "coordinates": [ 138.967963996516602, 36.254586000843283 ] } },
{ "type": "Feature", "properties": { "P29_001": "10421", "P29_002": "A110210000439", "P29_003": "16011", "P29_004": "中之条町立中之条幼稚園", "P29_005": "群馬県吾妻郡中之条町大字伊勢町1005-1", "P29_006": "3", "P29_007": "0", "P29_008": "00", "P29_009": null }, "geometry": { "type": "Point", "coordinates": [ 138.850243993988983, 36.589118995269999 ] } },
{ "type": "Feature", "properties": { "P29_001": "10421", "P29_002": "A110210000448", "P29_003": "16011", "P29_004": "中之条町立沢田幼稚園", "P29_005": "群馬県吾妻郡中之条町大字下沢渡38-2", "P29_006": "3", "P29_007": "0", "P29_008": "00", "P29_009": null }, "geometry": { "type": "Point", "coordinates": [ 138.795859866298713, 36.610201789288851 ] } },
{ "type": "Feature", "properties": { "P29_001": "10429", "P29_002": "A110210000457", "P29_003": "16011", "P29_004": "東吾妻町立あづまこども園", "P29_005": "群馬県吾妻郡東吾妻町大字箱島1270-11", "P29_006": "3", "P29_007": "0", "P29_008": "00", "P29_009": null }, "geometry": { "type": "Point", "coordinates": [ 138.925448419878023, 36.546414839718146 ] } },
{ "type": "Feature", "properties": { "P29_001": "10429", "P29_002": "A110210000466", "P29_003": "16011", "P29_004": "東吾妻町立おおたこども園", "P29_005": "群馬県吾妻郡東吾妻町大字植栗3333", "P29_006": "3", "P29_007": "0", "P29_008": "00", "P29_009": null }, "geometry": { "type": "Point", "coordinates": [ 138.86572433683807, 36.575638934888772 ] } },
{ "type": "Feature", "properties": { "P29_001": "10429", "P29_002": "A110210000475", "P29_003": "16011", "P29_004": "東吾妻町立はらまちこども園", "P29_005": "群馬県吾妻郡東吾妻町大字原町5160", "P29_006": "3", "P29_007": "0", "P29_008": "00", "P29_009": null }, "geometry": { "type": "Point", "coordinates": [ 138.827281998920398, 36.575806996272561 ] } },
{ "type": "Feature", "properties": { "P29_001": "10429", "P29_002": "A110210000484", "P29_003": "16011", "P29_004": "東吾妻町立さかうえこども園", "P29_005": "群馬県吾妻郡東吾妻町大字本宿407-1", "P29_006": "3", "P29_007": "0", "P29_008": "00", "P29_009": null }, "geometry": { "type": "Point", "coordinates": [ 138.752738997968891, 36.509482999170814 ] } },
{ "type": "Feature", "properties": { "P29_001": "10429", "P29_002": "A110210000493", "P29_003": "16011", "P29_004": "東吾妻町立いわしまこども園", "P29_005": "群馬県吾妻郡東吾妻町大字岩下45", "P29_006": "3", "P29_007": "0", "P29_008": "00", "P29_009": null }, "geometry": { "type": "Point", "coordinates": [ 138.77240119405468, 36.554577272875214 ] } },
{ "type": "Feature", "properties": { "P29_001": "10424", "P29_002": "A110210000509", "P29_003": "16011", "P29_004": "長野原町立応桑こども園", "P29_005": "群馬県吾妻郡長野原町応桑19-1", "P29_006": "3", "P29_007": "0", "P29_008": "00", "P29_009": null }, "geometry": { "type": "Point", "coordinates": [ 138.595055990072638, 36.510769809181866 ] } },
{ "type": "Feature", "properties": { "P29_001": "10424", "P29_002": "A110210000518", "P29_003": "16011", "P29_004": "長野原町立中央こども園", "P29_005": "群馬県吾妻郡長野原町大字大津4", "P29_006": "3", "P29_007": "0", "P29_008": "00", "P29_009": null }, "geometry": { "type": "Point", "coordinates": [ 138.627751594005218, 36.554400290722349 ] } },
{ "type": "Feature", "properties": { "P29_001": "10425", "P29_002": "A110210000527", "P29_003": "16011", "P29_004": "嬬恋村立東部こども園", "P29_005": "群馬県吾妻郡嬬恋村鎌原1339", "P29_006": "3", "P29_007": "0", "P29_008": "00", "P29_009": null }, "geometry": { "type": "Point", "coordinates": [ 138.552038821370616, 36.508286481317015 ] } },
{ "type": "Feature", "properties": { "P29_001": "10425", "P29_002": "A110210000536", "P29_003": "16011", "P29_004": "嬬恋村立西部幼稚園", "P29_005": "群馬県吾妻郡嬬恋村大字大笹176-1", "P29_006": "3", "P29_007": "0", "P29_008": "00", "P29_009": null }, "geometry": { "type": "Point", "coordinates": [ 138.511051099370036, 36.505780137036922 ] } },
{ "type": "Feature", "properties": { "P29_001": "10421", "P29_002": "A110210000545", "P29_003": "16011", "P29_004": "中之条町立六合こども園", "P29_005": "群馬県吾妻郡中之条町大字生須528-3", "P29_006": "3", "P29_007": "0", "P29_008": "00", "P29_009": null }, "geometry": { "type": "Point", "coordinates": [ 138.637810258550473, 36.604585705764613 ] } },
{ "type": "Feature", "properties": { "P29_001": "10428", "P29_002": "A110210000554", "P29_003": "16011", "P29_004": "高山村立高山幼稚園", "P29_005": "群馬県吾妻郡高山村大字中山3406-2", "P29_006": "3", "P29_007": "0", "P29_008": "00", "P29_009": null }, "geometry": { "type": "Point", "coordinates": [ 138.943806995091904, 36.624990995757493 ] } },
{ "type": "Feature", "properties": { "P29_001": "10204", "P29_002": "A110210000563", "P29_003": "16011", "P29_004": "伊勢崎市立あかぼり幼稚園", "P29_005": "群馬県伊勢崎市西久保町2-100", "P29_006": "3", "P29_007": "0", "P29_008": "00", "P29_009": null }, "geometry": { "type": "Point", "coordinates": [ 139.231560995977873, 36.380848996525692 ] } },
{ "type": "Feature", "properties": { "P29_001": "10204", "P29_002": "A110210000572", "P29_003": "16011", "P29_004": "伊勢崎市立あずま幼稚園", "P29_005": "群馬県伊勢崎市東町2672-1", "P29_006": "3", "P29_007": "0", "P29_008": "00", "P29_009": null }, "geometry": { "type": "Point", "coordinates": [ 139.24585789624831, 36.345012966408532 ] } },
{ "type": "Feature", "properties": { "P29_001": "10464", "P29_002": "A110210000581", "P29_003": "16011", "P29_004": "玉村町立玉村幼稚園", "P29_005": "群馬県佐波郡玉村町板井53-2", "P29_006": "3", "P29_007": "0", "P29_008": "00", "P29_009": null }, "geometry": { "type": "Point", "coordinates": [ 139.105135076259216, 36.311206133795146 ] } },
{ "type": "Feature", "properties": { "P29_001": "10205", "P29_002": "A110210000616", "P29_003": "16011", "P29_004": "太田市立藪塚本町南幼稚園", "P29_005": "群馬県太田市大原町2201-1", "P29_006": "3", "P29_007": "0", "P29_008": "00", "P29_009": null }, "geometry": { "type": "Point", "coordinates": [ 139.283239654910716, 36.344455623353987 ] } },
{ "type": "Feature", "properties": { "P29_001": "10212", "P29_002": "A110210000625", "P29_003": "16011", "P29_004": "みどり市立笠懸幼稚園", "P29_005": "群馬県みどり市笠懸町鹿4590-2", "P29_006": "3", "P29_007": "0", "P29_008": "00", "P29_009": null }, "geometry": { "type": "Point", "coordinates": [ 139.279600999024979, 36.388813999026702 ] } },
{ "type": "Feature", "properties": { "P29_001": "10525", "P29_002": "A110210000634", "P29_003": "16011", "P29_004": "邑楽町立長柄幼稚園", "P29_005": "群馬県邑楽郡邑楽町狸塚1256", "P29_006": "3", "P29_007": "0", "P29_008": "00", "P29_009": null }, "geometry": { "type": "Point", "coordinates": [ 139.459469994793238, 36.240894995269862 ] } },
{ "type": "Feature", "properties": { "P29_001": "10525", "P29_002": "A110210000643", "P29_003": "16011", "P29_004": "邑楽町立中野幼稚園", "P29_005": "群馬県邑楽郡邑楽町中野3176", "P29_006": "3", "P29_007": "0", "P29_008": "00", "P29_009": null }, "geometry": { "type": "Point", "coordinates": [ 139.465966949625766, 36.265823665520436 ] } },
{ "type": "Feature", "properties": { "P29_001": "10201", "P29_002": "A110310000017", "P29_003": "16011", "P29_004": "群馬医療福祉大学附属鈴蘭幼稚園", "P29_005": "群馬県前橋市元総社町152", "P29_006": "4", "P29_007": "0", "P29_008": "00", "P29_009": null }, "geometry": { "type": "Point", "coordinates": [ 139.047705889640582, 36.382502482268237 ] } },
{ "type": "Feature", "properties": { "P29_001": "10201", "P29_002": "A110310000026", "P29_003": "16011", "P29_004": "明星幼稚園", "P29_005": "群馬県前橋市南町1-21-28", "P29_006": "4", "P29_007": "0", "P29_008": "00", "P29_009": null }, "geometry": { "type": "Point", "coordinates": [ 139.064459570047148, 36.38029989012206 ] } },
{ "type": "Feature", "properties": { "P29_001": "10201", "P29_002": "A110310000035", "P29_003": "16011", "P29_004": "しょうび第一幼稚園", "P29_005": "群馬県前橋市城東町1-2-7", "P29_006": "4", "P29_007": "0", "P29_008": "00", "P29_009": null }, "geometry": { "type": "Point", "coordinates": [ 139.072877329311979, 36.394323730996966 ] } },
{ "type": "Feature", "properties": { "P29_001": "10201", "P29_002": "A110310000044", "P29_003": "16011", "P29_004": "江木幼稚園", "P29_005": "群馬県前橋市堤町537-11", "P29_006": "4", "P29_007": "0", "P29_008": "00", "P29_009": null }, "geometry": { "type": "Point", "coordinates": [ 139.131269646486317, 36.402470042579729 ] } },
{ "type": "Feature", "properties": { "P29_001": "10202", "P29_002": "A110310000062", "P29_003": "16011", "P29_004": "三山幼稚園", "P29_005": "群馬県高崎市並榎町99", "P29_006": "4", "P29_007": "0", "P29_008": "00", "P29_009": null }, "geometry": { "type": "Point", "coordinates": [ 138.995533983760168, 36.339642323567389 ] } },
{ "type": "Feature", "properties": { "P29_001": "10202", "P29_002": "A110310000071", "P29_003": "16011", "P29_004": "高崎天使幼稚園", "P29_005": "群馬県高崎市矢中町159-1", "P29_006": "4", "P29_007": "0", "P29_008": "00", "P29_009": null }, "geometry": { "type": "Point", "coordinates": [ 139.049855665882291, 36.310353732102442 ] } },
{ "type": "Feature", "properties": { "P29_001": "10202", "P29_002": "A110310000080", "P29_003": "16011", "P29_004": "城南幼稚園", "P29_005": "群馬県高崎市竜見町256", "P29_006": "4", "P29_007": "0", "P29_008": "00", "P29_009": null }, "geometry": { "type": "Point", "coordinates": [ 139.007020994070245, 36.315049002073799 ] } },
{ "type": "Feature", "properties": { "P29_001": "10203", "P29_002": "A110310000099", "P29_003": "16011", "P29_004": "桐生大学附属幼雅園", "P29_005": "群馬県桐生市新宿1-4-54", "P29_006": "4", "P29_007": "0", "P29_008": "00", "P29_009": null }, "geometry": { "type": "Point", "coordinates": [ 139.337969998457993, 36.40107399791502 ] } },
{ "type": "Feature", "properties": { "P29_001": "10203", "P29_002": "A110310000106", "P29_003": "16011", "P29_004": "樹徳幼稚園", "P29_005": "群馬県桐生市広沢町3-4475", "P29_006": "4", "P29_007": "0", "P29_008": "00", "P29_009": null }, "geometry": { "type": "Point", "coordinates": [ 139.322542418627506, 36.381629310950004 ] } },
{ "type": "Feature", "properties": { "P29_001": "10204", "P29_002": "A110310000115", "P29_003": "16011", "P29_004": "すみよし幼稚園", "P29_005": "群馬県伊勢崎市馬見塚町831-1", "P29_006": "4", "P29_007": "0", "P29_008": "00", "P29_009": null }, "geometry": { "type": "Point", "coordinates": [ 139.214382807339348, 36.281204484723105 ] } },
{ "type": "Feature", "properties": { "P29_001": "10205", "P29_002": "A110310000124", "P29_003": "16011", "P29_004": "三宝幼稚園", "P29_005": "群馬県太田市本町22-6", "P29_006": "4", "P29_007": "0", "P29_008": "00", "P29_009": null }, "geometry": { "type": "Point", "coordinates": [ 139.370625532296572, 36.296567241238321 ] } },
{ "type": "Feature", "properties": { "P29_001": "10205", "P29_002": "A110310000133", "P29_003": "16011", "P29_004": "大光院幼稚園", "P29_005": "群馬県太田市金山町37-8", "P29_006": "4", "P29_007": "0", "P29_008": "00", "P29_009": null }, "geometry": { "type": "Point", "coordinates": [ 139.369600331716555, 36.305225979676038 ] } },
{ "type": "Feature", "properties": { "P29_001": "10205", "P29_002": "A110310000142", "P29_003": "16011", "P29_004": "ひかり幼稚園", "P29_005": "群馬県太田市新井町556-1", "P29_006": "4", "P29_007": "0", "P29_008": "00", "P29_009": null }, "geometry": { "type": "Point", "coordinates": [ 139.36843042361312, 36.288142092204296 ] } },
{ "type": "Feature", "properties": { "P29_001": "10206", "P29_002": "A110310000151", "P29_003": "16011", "P29_004": "恵泉幼稚園", "P29_005": "群馬県沼田市西倉内町663-4", "P29_006": "4", "P29_007": "0", "P29_008": "00", "P29_009": null }, "geometry": { "type": "Point", "coordinates": [ 139.040421188251713, 36.645645713188593 ] } },
{ "type": "Feature", "properties": { "P29_001": "10207", "P29_002": "A110310000160", "P29_003": "16011", "P29_004": "常楽幼稚園", "P29_005": "群馬県館林市木戸町甲580", "P29_006": "4", "P29_007": "0", "P29_008": "00", "P29_009": null }, "geometry": { "type": "Point", "coordinates": [ 139.514243582813947, 36.277682265534715 ] } },
{ "type": "Feature", "properties": { "P29_001": "10211", "P29_002": "A110310000197", "P29_003": "16011", "P29_004": "赤心幼稚園", "P29_005": "群馬県安中市原市1-14-16", "P29_006": "4", "P29_007": "0", "P29_008": "00", "P29_009": null }, "geometry": { "type": "Point", "coordinates": [ 138.862455996547169, 36.315741997216961 ] } },
{ "type": "Feature", "properties": { "P29_001": "10211", "P29_002": "A110310000204", "P29_003": "16011", "P29_004": "安中二葉幼稚園", "P29_005": "群馬県安中市安中3-10-33", "P29_006": "4", "P29_007": "0", "P29_008": "00", "P29_009": null }, "geometry": { "type": "Point", "coordinates": [ 138.897375232504771, 36.329837645447405 ] } },
{ "type": "Feature", "properties": { "P29_001": "10202", "P29_002": "A110310000213", "P29_003": "16011", "P29_004": "高崎商科大学佐藤幼稚園", "P29_005": "群馬県高崎市大橋町18-1", "P29_006": "4", "P29_007": "0", "P29_008": "00", "P29_009": null }, "geometry": { "type": "Point", "coordinates": [ 139.00004689081851, 36.337575003452628 ] } },
{ "type": "Feature", "properties": { "P29_001": "10202", "P29_002": "A110310000231", "P29_003": "16011", "P29_004": "すみれ幼稚園", "P29_005": "群馬県高崎市江木町1056", "P29_006": "4", "P29_007": "0", "P29_008": "00", "P29_009": null }, "geometry": { "type": "Point", "coordinates": [ 139.021547997423852, 36.336021001195078 ] } },
{ "type": "Feature", "properties": { "P29_001": "10208", "P29_002": "A110310000240", "P29_003": "16011", "P29_004": "渋川大島幼稚園", "P29_005": "群馬県渋川市半田2410", "P29_006": "4", "P29_007": "0", "P29_008": "00", "P29_009": null }, "geometry": { "type": "Point", "coordinates": [ 139.022656001349674, 36.476205003811465 ] } },
{ "type": "Feature", "properties": { "P29_001": "10201", "P29_002": "A110310000268", "P29_003": "16011", "P29_004": "たから幼稚園", "P29_005": "群馬県前橋市田口町545-1", "P29_006": "4", "P29_007": "0", "P29_008": "00", "P29_009": null }, "geometry": { "type": "Point", "coordinates": [ 139.050939755171356, 36.446435652033237 ] } },
{ "type": "Feature", "properties": { "P29_001": "10209", "P29_002": "A110310000277", "P29_003": "16011", "P29_004": "やまて幼稚園", "P29_005": "群馬県藤岡市藤岡260-2", "P29_006": "4", "P29_007": "0", "P29_008": "00", "P29_009": null }, "geometry": { "type": "Point", "coordinates": [ 139.075383621277922, 36.249011648118646 ] } },
{ "type": "Feature", "properties": { "P29_001": "10202", "P29_002": "A110310000286", "P29_003": "16011", "P29_004": "高南幼稚園", "P29_005": "群馬県高崎市綿貫町346-2", "P29_006": "4", "P29_007": "0", "P29_008": "00", "P29_009": null }, "geometry": { "type": "Point", "coordinates": [ 139.071204996990133, 36.303950002933675 ] } },
{ "type": "Feature", "properties": { "P29_001": "10202", "P29_002": "A110310000295", "P29_003": "16011", "P29_004": "高崎健康福祉大学附属幼稚園", "P29_005": "群馬県高崎市中大類町506-1", "P29_006": "4", "P29_007": "0", "P29_008": "00", "P29_009": null }, "geometry": { "type": "Point", "coordinates": [ 139.059155821136727, 36.322232589235696 ] } },
{ "type": "Feature", "properties": { "P29_001": "10204", "P29_002": "A110310000302", "P29_003": "16011", "P29_004": "さくら幼稚園", "P29_005": "群馬県伊勢崎市富塚町246-4", "P29_006": "4", "P29_007": "0", "P29_008": "00", "P29_009": null }, "geometry": { "type": "Point", "coordinates": [ 139.194313510874565, 36.27545061828414 ] } },
{ "type": "Feature", "properties": { "P29_001": "10204", "P29_002": "A110310000311", "P29_003": "16011", "P29_004": "慈教幼稚園", "P29_005": "群馬県伊勢崎市波志江町681", "P29_006": "4", "P29_007": "0", "P29_008": "00", "P29_009": null }, "geometry": { "type": "Point", "coordinates": [ 139.183856508261698, 36.34787413511161 ] } },
{ "type": "Feature", "properties": { "P29_001": "10205", "P29_002": "A110310000320", "P29_003": "16011", "P29_004": "太田仁愛幼稚園", "P29_005": "群馬県太田市成塚町512-2", "P29_006": "4", "P29_007": "0", "P29_008": "00", "P29_009": null }, "geometry": { "type": "Point", "coordinates": [ 139.342235996581024, 36.341330000828926 ] } },
{ "type": "Feature", "properties": { "P29_001": "10201", "P29_002": "A110310000348", "P29_003": "16011", "P29_004": "富士見幼稚園", "P29_005": "群馬県前橋市富士見町時沢2120-8", "P29_006": "4", "P29_007": "0", "P29_008": "00", "P29_009": null }, "geometry": { "type": "Point", "coordinates": [ 139.084976996879476, 36.435531998493019 ] } },
{ "type": "Feature", "properties": { "P29_001": "10201", "P29_002": "A110310000357", "P29_003": "16011", "P29_004": "粕川幼稚園", "P29_005": "群馬県前橋市粕川町女渕446-4", "P29_006": "4", "P29_007": "0", "P29_008": "00", "P29_009": null }, "geometry": { "type": "Point", "coordinates": [ 139.205009877334476, 36.409461403544242 ] } },
{ "type": "Feature", "properties": { "P29_001": "10202", "P29_002": "A110310000384", "P29_003": "16011", "P29_004": "さわらび幼稚園", "P29_005": "群馬県高崎市下里見町468", "P29_006": "4", "P29_007": "0", "P29_008": "00", "P29_009": null }, "geometry": { "type": "Point", "coordinates": [ 138.917453760230302, 36.364436863348452 ] } },
{ "type": "Feature", "properties": { "P29_001": "10202", "P29_002": "A110310000393", "P29_003": "16011", "P29_004": "清風幼稚園", "P29_005": "群馬県高崎市足門町830-2", "P29_006": "4", "P29_007": "0", "P29_008": "00", "P29_009": null }, "geometry": { "type": "Point", "coordinates": [ 138.997570824422837, 36.397403054599927 ] } },
{ "type": "Feature", "properties": { "P29_001": "10202", "P29_002": "A110310000400", "P29_003": "16011", "P29_004": "上武大学附属幼稚園", "P29_005": "群馬県高崎市新町3133", "P29_006": "4", "P29_007": "0", "P29_008": "00", "P29_009": null }, "geometry": { "type": "Point", "coordinates": [ 139.114543291839482, 36.278350022523945 ] } },
{ "type": "Feature", "properties": { "P29_001": "10204", "P29_002": "A110310000419", "P29_003": "16011", "P29_004": "こひつじ幼稚園", "P29_005": "群馬県伊勢崎市境百々221-1", "P29_006": "4", "P29_007": "0", "P29_008": "00", "P29_009": null }, "geometry": { "type": "Point", "coordinates": [ 139.252582412412067, 36.28061947724899 ] } },
{ "type": "Feature", "properties": { "P29_001": "10212", "P29_002": "A110310000428", "P29_003": "16011", "P29_004": "阿左美幼稚園", "P29_005": "群馬県みどり市笠懸町阿左美967-2", "P29_006": "4", "P29_007": "0", "P29_008": "00", "P29_009": null }, "geometry": { "type": "Point", "coordinates": [ 139.303965149798756, 36.385208593944455 ] } },
{ "type": "Feature", "properties": { "P29_001": "10524", "P29_002": "A110310000437", "P29_003": "16011", "P29_004": "松原幼稚園", "P29_005": "群馬県邑楽郡大泉町西小泉3-6-22", "P29_006": "4", "P29_007": "0", "P29_008": "00", "P29_009": null }, "geometry": { "type": "Point", "coordinates": [ 139.408616773154336, 36.254844774261244 ] } },
{ "type": "Feature", "properties": { "P29_001": "10524", "P29_002": "A110310000446", "P29_003": "16011", "P29_004": "聖クララ幼稚園", "P29_005": "群馬県邑楽郡大泉町日の出56-1", "P29_006": "4", "P29_007": "0", "P29_008": "00", "P29_009": null }, "geometry": { "type": "Point", "coordinates": [ 139.404679962311491, 36.248940861610507 ] } },
{ "type": "Feature", "properties": { "P29_001": "10202", "P29_002": "A110310000455", "P29_003": "16011", "P29_004": "ぐんま幼稚園", "P29_005": "群馬県高崎市金古町1912-8", "P29_006": "4", "P29_007": "0", "P29_008": "00", "P29_009": null }, "geometry": { "type": "Point", "coordinates": [ 139.000945028706866, 36.410290459493034 ] } },
{ "type": "Feature", "properties": { "P29_001": "10202", "P29_002": "A110310000473", "P29_003": "16011", "P29_004": "八幡幼稚園", "P29_005": "群馬県高崎市剣崎町409-4", "P29_006": "4", "P29_007": "0", "P29_008": "00", "P29_009": null }, "geometry": { "type": "Point", "coordinates": [ 138.95349064815548, 36.34390794244247 ] } },
{ "type": "Feature", "properties": { "P29_001": "10205", "P29_002": "A110310000482", "P29_003": "16011", "P29_004": "南幼稚園", "P29_005": "群馬県太田市高林西町474-7", "P29_006": "4", "P29_007": "0", "P29_008": "00", "P29_009": null }, "geometry": { "type": "Point", "coordinates": [ 139.363484824723798, 36.255760282681898 ] } },
{ "type": "Feature", "properties": { "P29_001": "10205", "P29_002": "A110310000507", "P29_003": "16011", "P29_004": "第二ひかり幼稚園", "P29_005": "群馬県太田市宝町148", "P29_006": "4", "P29_007": "0", "P29_008": "00", "P29_009": null }, "geometry": { "type": "Point", "coordinates": [ 139.333845642472795, 36.291779864005704 ] } },
{ "type": "Feature", "properties": { "P29_001": "10524", "P29_002": "A110310000516", "P29_003": "16011", "P29_004": "みよし第二幼稚園", "P29_005": "群馬県邑楽郡大泉町寄木戸277-1", "P29_006": "4", "P29_007": "0", "P29_008": "00", "P29_009": null }, "geometry": { "type": "Point", "coordinates": [ 139.386013612956845, 36.247882625757377 ] } },
{ "type": "Feature", "properties": { "P29_001": "10202", "P29_002": "A110310000534", "P29_003": "16011", "P29_004": "長野幼稚園", "P29_005": "群馬県高崎市北新波町197-6", "P29_006": "4", "P29_007": "0", "P29_008": "00", "P29_009": null }, "geometry": { "type": "Point", "coordinates": [ 138.970581944512759, 36.364917212564599 ] } },
{ "type": "Feature", "properties": { "P29_001": "10204", "P29_002": "A110310000543", "P29_003": "16011", "P29_004": "田部井幼稚園", "P29_005": "群馬県伊勢崎市田部井町2-458", "P29_006": "4", "P29_007": "0", "P29_008": "00", "P29_009": null }, "geometry": { "type": "Point", "coordinates": [ 139.250282421195351, 36.348169511522457 ] } },
{ "type": "Feature", "properties": { "P29_001": "10202", "P29_002": "A110310000552", "P29_003": "16011", "P29_004": "こだま幼稚園", "P29_005": "群馬県高崎市下豊岡町242-2", "P29_006": "4", "P29_007": "0", "P29_008": "00", "P29_009": null }, "geometry": { "type": "Point", "coordinates": [ 138.984158001533558, 36.332941001379581 ] } },
{ "type": "Feature", "properties": { "P29_001": "10202", "P29_002": "A110310000561", "P29_003": "16011", "P29_004": "いちごばたけ幼稚園", "P29_005": "群馬県高崎市箕郷町西明屋67-2", "P29_006": "4", "P29_007": "0", "P29_008": "00", "P29_009": null }, "geometry": { "type": "Point", "coordinates": [ 138.960405865847974, 36.393950003596473 ] } },
{ "type": "Feature", "properties": { "P29_001": "10464", "P29_002": "A110310000570", "P29_003": "16011", "P29_004": "マーガレット幼稚園", "P29_005": "群馬県佐波郡玉村町南玉758", "P29_006": "4", "P29_007": "0", "P29_008": "00", "P29_009": null }, "geometry": { "type": "Point", "coordinates": [ 139.134376587848209, 36.303606731709706 ] } },
{ "type": "Feature", "properties": { "P29_001": "10202", "P29_002": "A110310000589", "P29_003": "16011", "P29_004": "東部文化幼稚園", "P29_005": "群馬県高崎市東貝沢町2-5-10", "P29_006": "4", "P29_007": "0", "P29_008": "00", "P29_009": null }, "geometry": { "type": "Point", "coordinates": [ 139.030885994820267, 36.344512673127447 ] } },
{ "type": "Feature", "properties": { "P29_001": "10212", "P29_002": "A110310000598", "P29_003": "16011", "P29_004": "大間々南幼稚園", "P29_005": "群馬県みどり市大間々町大間々895-1", "P29_006": "4", "P29_007": "0", "P29_008": "00", "P29_009": null }, "geometry": { "type": "Point", "coordinates": [ 139.273847995520072, 36.428619190972199 ] } },
{ "type": "Feature", "properties": { "P29_001": "10521", "P29_002": "A110310000605", "P29_003": "16011", "P29_004": "まきば幼稚園", "P29_005": "群馬県邑楽郡板倉町籾谷1344", "P29_006": "4", "P29_007": "0", "P29_008": "00", "P29_009": null }, "geometry": { "type": "Point", "coordinates": [ 139.585878671490605, 36.239142747619695 ] } },
{ "type": "Feature", "properties": { "P29_001": "10202", "P29_002": "A110310000614", "P29_003": "16011", "P29_004": "堤ケ岡幼稚園", "P29_005": "群馬県高崎市棟高町2227-2", "P29_006": "4", "P29_007": "0", "P29_008": "00", "P29_009": null }, "geometry": { "type": "Point", "coordinates": [ 139.003158993490132, 36.378836888792883 ] } },
{ "type": "Feature", "properties": { "P29_001": "10204", "P29_002": "A110310000623", "P29_003": "16011", "P29_004": "愛の光幼稚園", "P29_005": "群馬県伊勢崎市今井町367", "P29_006": "4", "P29_007": "0", "P29_008": "00", "P29_009": null }, "geometry": { "type": "Point", "coordinates": [ 139.181972169195376, 36.30501189333576 ] } },
{ "type": "Feature", "properties": { "P29_001": "10202", "P29_002": "A110310000632", "P29_003": "16011", "P29_004": "榛名愛育幼稚園", "P29_005": "群馬県高崎市下室田町1377-8", "P29_006": "4", "P29_007": "0", "P29_008": "00", "P29_009": null }, "geometry": { "type": "Point", "coordinates": [ 138.891127688283291, 36.383924692845795 ] } }
]
}
