{
"type": "FeatureCollection",
"name": "geo_10_大学",
"crs": { "type": "name", "properties": { "name": "urn:ogc:def:crs:EPSG::6668" } },
"features": [
{ "type": "Feature", "properties": { "P29_001": "10201", "P29_002": "F110110101713", "P29_003": "16007", "P29_004": "群馬大学", "P29_005": "群馬県前橋市荒牧町4-2", "P29_006": "1", "P29_007": "0", "P29_008": "01", "P29_009": "荒牧キャンパス" }, "geometry": { "type": "Point", "coordinates": [ 139.045258545097823, 36.430740129344429 ] } },
{ "type": "Feature", "properties": { "P29_001": "10202", "P29_002": "F110210101720", "P29_003": "16007", "P29_004": "高崎経済大学", "P29_005": "群馬県高崎市上並榎町1300", "P29_006": "3", "P29_007": "0", "P29_008": "00", "P29_009": null }, "geometry": { "type": "Point", "coordinates": [ 138.9768674648451, 36.345571187435041 ] } },
{ "type": "Feature", "properties": { "P29_001": "10201", "P29_002": "F110210101739", "P29_003": "16007", "P29_004": "前橋工科大学", "P29_005": "群馬県前橋市上佐鳥町460-1", "P29_006": "3", "P29_007": "0", "P29_008": "00", "P29_009": null }, "geometry": { "type": "Point", "coordinates": [ 139.081566220421649, 36.363620248213934 ] } },
{ "type": "Feature", "properties": { "P29_001": "10464", "P29_002": "F110210101748", "P29_003": "16007", "P29_004": "群馬県立女子大学", "P29_005": "群馬県佐波郡玉村町大字上之手1395-1", "P29_006": "2", "P29_007": "0", "P29_008": "00", "P29_009": null }, "geometry": { "type": "Point", "coordinates": [ 139.113029365400138, 36.29715000744887 ] } },
{ "type": "Feature", "properties": { "P29_001": "10201", "P29_002": "F110210101757", "P29_003": "16007", "P29_004": "群馬県立県民健康科学大学", "P29_005": "群馬県前橋市上沖町323-1", "P29_006": "2", "P29_007": "0", "P29_008": "00", "P29_009": null }, "geometry": { "type": "Point", "coordinates": [ 139.094950914054323, 36.403605881839169 ] } },
{ "type": "Feature", "properties": { "P29_001": "10202", "P29_002": "F110310101764", "P29_003": "16007", "P29_004": "育英大学", "P29_005": "群馬県高崎市京目町1656-1", "P29_006": "4", "P29_007": "0", "P29_008": "00", "P29_009": null }, "geometry": { "type": "Point", "coordinates": [ 139.051092048249359, 36.349580920797912 ] } },
{ "type": "Feature", "properties": { "P29_001": "10212", "P29_002": "F110310101773", "P29_003": "16007", "P29_004": "桐生大学", "P29_005": "群馬県みどり市笠懸町阿左美606-7", "P29_006": "4", "P29_007": "0", "P29_008": "00", "P29_009": null }, "geometry": { "type": "Point", "coordinates": [ 139.295430206069113, 36.378523702526579 ] } },
{ "type": "Feature", "properties": { "P29_001": "10202", "P29_002": "F110310101782", "P29_003": "16007", "P29_004": "群馬パース大学", "P29_005": "群馬県高崎市問屋町1-7-1", "P29_006": "4", "P29_007": "0", "P29_008": "00", "P29_009": null }, "geometry": { "type": "Point", "coordinates": [ 139.008730362916481, 36.349159808010725 ] } },
{ "type": "Feature", "properties": { "P29_001": "10201", "P29_002": "F110310101791", "P29_003": "16007", "P29_004": "群馬医療福祉大学", "P29_005": "群馬県前橋市川曲町191-1", "P29_006": "4", "P29_007": "0", "P29_008": "00", "P29_009": null }, "geometry": { "type": "Point", "coordinates": [ 139.047453590926381, 36.356176835644511 ] } },
{ "type": "Feature", "properties": { "P29_001": "10202", "P29_002": "F110310101808", "P29_003": "16007", "P29_004": "高崎健康福祉大学", "P29_005": "群馬県高崎市中大類町37-1", "P29_006": "4", "P29_007": "0", "P29_008": "00", "P29_009": null }, "geometry": { "type": "Point", "coordinates": [ 139.055039884064655, 36.324664047924315 ] } },
{ "type": "Feature", "properties": { "P29_001": "10202", "P29_002": "F110310101817", "P29_003": "16007", "P29_004": "高崎商科大学", "P29_005": "群馬県高崎市根小屋町741", "P29_006": "4", "P29_007": "0", "P29_008": "00", "P29_009": null }, "geometry": { "type": "Point", "coordinates": [ 139.033922359261766, 36.285731665259988 ] } },
{ "type": "Feature", "properties": { "P29_001": "10204", "P29_002": "F110310101826", "P29_003": "16007", "P29_004": "上武大学", "P29_005": "群馬県伊勢崎市戸谷塚町634-1", "P29_006": "4", "P29_007": "0", "P29_008": "01", "P29_009": "伊勢崎キャンパス" }, "geometry": { "type": "Point", "coordinates": [ 139.177077533398062, 36.278852545903888 ] } },
{ "type": "Feature", "properties": { "P29_001": "10205", "P29_002": "F110310101835", "P29_003": "16007", "P29_004": "関東学園大学", "P29_005": "群馬県太田市藤阿久町200", "P29_006": "4", "P29_007": "0", "P29_008": "00", "P29_009": null }, "geometry": { "type": "Point", "coordinates": [ 139.355776306432062, 36.285880164854767 ] } },
{ "type": "Feature", "properties": { "P29_001": "10201", "P29_002": "F110310101844", "P29_003": "16007", "P29_004": "共愛学園前橋国際大学", "P29_005": "群馬県前橋市小屋原町1154-4", "P29_006": "4", "P29_007": "0", "P29_008": "00", "P29_009": null }, "geometry": { "type": "Point", "coordinates": [ 139.144390612836389, 36.359111202795226 ] } },
{ "type": "Feature", "properties": { "P29_001": "10201", "P29_002": "F110110101713", "P29_003": "16007", "P29_004": "群馬大学", "P29_005": "群馬県前橋市昭和町3-39-22", "P29_006": "1", "P29_007": "0", "P29_008": "02", "P29_009": "昭和キャンパス" }, "geometry": { "type": "Point", "coordinates": [ 139.061734879729158, 36.407432717742459 ] } },
{ "type": "Feature", "properties": { "P29_001": "10203", "P29_002": "F110110101713", "P29_003": "16007", "P29_004": "群馬大学", "P29_005": "群馬県桐生市天神町1-5-1", "P29_006": "1", "P29_007": "0", "P29_008": "03", "P29_009": "桐生キャンパス" }, "geometry": { "type": "Point", "coordinates": [ 139.348160514993936, 36.423527559987392 ] } },
{ "type": "Feature", "properties": { "P29_001": "10205", "P29_002": "F110110101713", "P29_003": "16007", "P29_004": "群馬大学", "P29_005": "群馬県太田市本町29-1", "P29_006": "1", "P29_007": "0", "P29_008": "04", "P29_009": "太田キャンパス" }, "geometry": { "type": "Point", "coordinates": [ 139.375279548584928, 36.297682871243538 ] } },
{ "type": "Feature", "properties": { "P29_001": "10202", "P29_002": "F110310101826", "P29_003": "16007", "P29_004": "上武大学", "P29_005": "群馬県高崎市新町270-1", "P29_006": "4", "P29_007": "0", "P29_008": "02", "P29_009": "高崎キャンパス" }, "geometry": { "type": "Point", "coordinates": [ 139.116615006886832, 36.279733256186155 ] } }
]
}
